[
    {
        "name": "København K",
        "zip_code": "1050"
    },
    {
        "name": "København K",
        "zip_code": "1051"
    },
    {
        "name": "København K",
        "zip_code": "1052"
    },
    {
        "name": "København K",
        "zip_code": "1053"
    },
    {
        "name": "København K",
        "zip_code": "1054"
    },
    {
        "name": "København K",
        "zip_code": "1055"
    },
    {
        "name": "København K",
        "zip_code": "1056"
    },
    {
        "name": "København K",
        "zip_code": "1057"
    },
    {
        "name": "København K",
        "zip_code": "1058"
    },
    {
        "name": "København K",
        "zip_code": "1059"
    },
    {
        "name": "København K",
        "zip_code": "1060"
    },
    {
        "name": "København K",
        "zip_code": "1061"
    },
    {
        "name": "København K",
        "zip_code": "1062"
    },
    {
        "name": "København K",
        "zip_code": "1063"
    },
    {
        "name": "København K",
        "zip_code": "1064"
    },
    {
        "name": "København K",
        "zip_code": "1065"
    },
    {
        "name": "København K",
        "zip_code": "1066"
    },
    {
        "name": "København K",
        "zip_code": "1067"
    },
    {
        "name": "København K",
        "zip_code": "1068"
    },
    {
        "name": "København K",
        "zip_code": "1069"
    },
    {
        "name": "København K",
        "zip_code": "1070"
    },
    {
        "name": "København K",
        "zip_code": "1071"
    },
    {
        "name": "København K",
        "zip_code": "1072"
    },
    {
        "name": "København K",
        "zip_code": "1073"
    },
    {
        "name": "København K",
        "zip_code": "1074"
    },
    {
        "name": "København K",
        "zip_code": "1100"
    },
    {
        "name": "København K",
        "zip_code": "1101"
    },
    {
        "name": "København K",
        "zip_code": "1102"
    },
    {
        "name": "København K",
        "zip_code": "1103"
    },
    {
        "name": "København K",
        "zip_code": "1104"
    },
    {
        "name": "København K",
        "zip_code": "1105"
    },
    {
        "name": "København K",
        "zip_code": "1106"
    },
    {
        "name": "København K",
        "zip_code": "1107"
    },
    {
        "name": "København K",
        "zip_code": "1110"
    },
    {
        "name": "København K",
        "zip_code": "1111"
    },
    {
        "name": "København K",
        "zip_code": "1112"
    },
    {
        "name": "København K",
        "zip_code": "1113"
    },
    {
        "name": "København K",
        "zip_code": "1114"
    },
    {
        "name": "København K",
        "zip_code": "1115"
    },
    {
        "name": "København K",
        "zip_code": "1116"
    },
    {
        "name": "København K",
        "zip_code": "1117"
    },
    {
        "name": "København K",
        "zip_code": "1118"
    },
    {
        "name": "København K",
        "zip_code": "1119"
    },
    {
        "name": "København K",
        "zip_code": "1120"
    },
    {
        "name": "København K",
        "zip_code": "1121"
    },
    {
        "name": "København K",
        "zip_code": "1122"
    },
    {
        "name": "København K",
        "zip_code": "1123"
    },
    {
        "name": "København K",
        "zip_code": "1124"
    },
    {
        "name": "København K",
        "zip_code": "1125"
    },
    {
        "name": "København K",
        "zip_code": "1126"
    },
    {
        "name": "København K",
        "zip_code": "1127"
    },
    {
        "name": "København K",
        "zip_code": "1128"
    },
    {
        "name": "København K",
        "zip_code": "1129"
    },
    {
        "name": "København K",
        "zip_code": "1130"
    },
    {
        "name": "København K",
        "zip_code": "1131"
    },
    {
        "name": "København K",
        "zip_code": "1150"
    },
    {
        "name": "København K",
        "zip_code": "1151"
    },
    {
        "name": "København K",
        "zip_code": "1152"
    },
    {
        "name": "København K",
        "zip_code": "1153"
    },
    {
        "name": "København K",
        "zip_code": "1154"
    },
    {
        "name": "København K",
        "zip_code": "1155"
    },
    {
        "name": "København K",
        "zip_code": "1156"
    },
    {
        "name": "København K",
        "zip_code": "1157"
    },
    {
        "name": "København K",
        "zip_code": "1158"
    },
    {
        "name": "København K",
        "zip_code": "1159"
    },
    {
        "name": "København K",
        "zip_code": "1160"
    },
    {
        "name": "København K",
        "zip_code": "1161"
    },
    {
        "name": "København K",
        "zip_code": "1162"
    },
    {
        "name": "København K",
        "zip_code": "1164"
    },
    {
        "name": "København K",
        "zip_code": "1165"
    },
    {
        "name": "København K",
        "zip_code": "1166"
    },
    {
        "name": "København K",
        "zip_code": "1167"
    },
    {
        "name": "København K",
        "zip_code": "1168"
    },
    {
        "name": "København K",
        "zip_code": "1169"
    },
    {
        "name": "København K",
        "zip_code": "1170"
    },
    {
        "name": "København K",
        "zip_code": "1171"
    },
    {
        "name": "København K",
        "zip_code": "1172"
    },
    {
        "name": "København K",
        "zip_code": "1173"
    },
    {
        "name": "København K",
        "zip_code": "1174"
    },
    {
        "name": "København K",
        "zip_code": "1175"
    },
    {
        "name": "København K",
        "zip_code": "1200"
    },
    {
        "name": "København K",
        "zip_code": "1201"
    },
    {
        "name": "København K",
        "zip_code": "1202"
    },
    {
        "name": "København K",
        "zip_code": "1203"
    },
    {
        "name": "København K",
        "zip_code": "1204"
    },
    {
        "name": "København K",
        "zip_code": "1205"
    },
    {
        "name": "København K",
        "zip_code": "1206"
    },
    {
        "name": "København K",
        "zip_code": "1207"
    },
    {
        "name": "København K",
        "zip_code": "1208"
    },
    {
        "name": "København K",
        "zip_code": "1209"
    },
    {
        "name": "København K",
        "zip_code": "1210"
    },
    {
        "name": "København K",
        "zip_code": "1211"
    },
    {
        "name": "København K",
        "zip_code": "1212"
    },
    {
        "name": "København K",
        "zip_code": "1213"
    },
    {
        "name": "København K",
        "zip_code": "1214"
    },
    {
        "name": "København K",
        "zip_code": "1215"
    },
    {
        "name": "København K",
        "zip_code": "1216"
    },
    {
        "name": "København K",
        "zip_code": "1218"
    },
    {
        "name": "København K",
        "zip_code": "1219"
    },
    {
        "name": "København K",
        "zip_code": "1220"
    },
    {
        "name": "København K",
        "zip_code": "1221"
    },
    {
        "name": "København K",
        "zip_code": "1250"
    },
    {
        "name": "København K",
        "zip_code": "1251"
    },
    {
        "name": "København K",
        "zip_code": "1252"
    },
    {
        "name": "København K",
        "zip_code": "1253"
    },
    {
        "name": "København K",
        "zip_code": "1254"
    },
    {
        "name": "København K",
        "zip_code": "1255"
    },
    {
        "name": "København K",
        "zip_code": "1256"
    },
    {
        "name": "København K",
        "zip_code": "1257"
    },
    {
        "name": "København K",
        "zip_code": "1259"
    },
    {
        "name": "København K",
        "zip_code": "1260"
    },
    {
        "name": "København K",
        "zip_code": "1261"
    },
    {
        "name": "København K",
        "zip_code": "1263"
    },
    {
        "name": "København K",
        "zip_code": "1264"
    },
    {
        "name": "København K",
        "zip_code": "1265"
    },
    {
        "name": "København K",
        "zip_code": "1266"
    },
    {
        "name": "København K",
        "zip_code": "1267"
    },
    {
        "name": "København K",
        "zip_code": "1268"
    },
    {
        "name": "København K",
        "zip_code": "1270"
    },
    {
        "name": "København K",
        "zip_code": "1271"
    },
    {
        "name": "København K",
        "zip_code": "1300"
    },
    {
        "name": "København K",
        "zip_code": "1301"
    },
    {
        "name": "København K",
        "zip_code": "1302"
    },
    {
        "name": "København K",
        "zip_code": "1303"
    },
    {
        "name": "København K",
        "zip_code": "1304"
    },
    {
        "name": "København K",
        "zip_code": "1306"
    },
    {
        "name": "København K",
        "zip_code": "1307"
    },
    {
        "name": "København K",
        "zip_code": "1308"
    },
    {
        "name": "København K",
        "zip_code": "1309"
    },
    {
        "name": "København K",
        "zip_code": "1310"
    },
    {
        "name": "København K",
        "zip_code": "1311"
    },
    {
        "name": "København K",
        "zip_code": "1312"
    },
    {
        "name": "København K",
        "zip_code": "1313"
    },
    {
        "name": "København K",
        "zip_code": "1314"
    },
    {
        "name": "København K",
        "zip_code": "1315"
    },
    {
        "name": "København K",
        "zip_code": "1316"
    },
    {
        "name": "København K",
        "zip_code": "1317"
    },
    {
        "name": "København K",
        "zip_code": "1318"
    },
    {
        "name": "København K",
        "zip_code": "1319"
    },
    {
        "name": "København K",
        "zip_code": "1320"
    },
    {
        "name": "København K",
        "zip_code": "1321"
    },
    {
        "name": "København K",
        "zip_code": "1322"
    },
    {
        "name": "København K",
        "zip_code": "1323"
    },
    {
        "name": "København K",
        "zip_code": "1324"
    },
    {
        "name": "København K",
        "zip_code": "1325"
    },
    {
        "name": "København K",
        "zip_code": "1326"
    },
    {
        "name": "København K",
        "zip_code": "1327"
    },
    {
        "name": "København K",
        "zip_code": "1328"
    },
    {
        "name": "København K",
        "zip_code": "1329"
    },
    {
        "name": "København K",
        "zip_code": "1350"
    },
    {
        "name": "København K",
        "zip_code": "1352"
    },
    {
        "name": "København K",
        "zip_code": "1353"
    },
    {
        "name": "København K",
        "zip_code": "1354"
    },
    {
        "name": "København K",
        "zip_code": "1355"
    },
    {
        "name": "København K",
        "zip_code": "1356"
    },
    {
        "name": "København K",
        "zip_code": "1357"
    },
    {
        "name": "København K",
        "zip_code": "1358"
    },
    {
        "name": "København K",
        "zip_code": "1359"
    },
    {
        "name": "København K",
        "zip_code": "1360"
    },
    {
        "name": "København K",
        "zip_code": "1361"
    },
    {
        "name": "København K",
        "zip_code": "1362"
    },
    {
        "name": "København K",
        "zip_code": "1363"
    },
    {
        "name": "København K",
        "zip_code": "1364"
    },
    {
        "name": "København K",
        "zip_code": "1365"
    },
    {
        "name": "København K",
        "zip_code": "1366"
    },
    {
        "name": "København K",
        "zip_code": "1367"
    },
    {
        "name": "København K",
        "zip_code": "1368"
    },
    {
        "name": "København K",
        "zip_code": "1369"
    },
    {
        "name": "København K",
        "zip_code": "1370"
    },
    {
        "name": "København K",
        "zip_code": "1371"
    },
    {
        "name": "København K",
        "zip_code": "1400"
    },
    {
        "name": "København K",
        "zip_code": "1401"
    },
    {
        "name": "København K",
        "zip_code": "1402"
    },
    {
        "name": "København K",
        "zip_code": "1403"
    },
    {
        "name": "København K",
        "zip_code": "1406"
    },
    {
        "name": "København K",
        "zip_code": "1407"
    },
    {
        "name": "København K",
        "zip_code": "1408"
    },
    {
        "name": "København K",
        "zip_code": "1409"
    },
    {
        "name": "København K",
        "zip_code": "1410"
    },
    {
        "name": "København K",
        "zip_code": "1411"
    },
    {
        "name": "København K",
        "zip_code": "1412"
    },
    {
        "name": "København K",
        "zip_code": "1413"
    },
    {
        "name": "København K",
        "zip_code": "1414"
    },
    {
        "name": "København K",
        "zip_code": "1415"
    },
    {
        "name": "København K",
        "zip_code": "1416"
    },
    {
        "name": "København K",
        "zip_code": "1417"
    },
    {
        "name": "København K",
        "zip_code": "1418"
    },
    {
        "name": "København K",
        "zip_code": "1419"
    },
    {
        "name": "København K",
        "zip_code": "1420"
    },
    {
        "name": "København K",
        "zip_code": "1421"
    },
    {
        "name": "København K",
        "zip_code": "1422"
    },
    {
        "name": "København K",
        "zip_code": "1423"
    },
    {
        "name": "København K",
        "zip_code": "1424"
    },
    {
        "name": "København K",
        "zip_code": "1425"
    },
    {
        "name": "København K",
        "zip_code": "1426"
    },
    {
        "name": "København K",
        "zip_code": "1427"
    },
    {
        "name": "København K",
        "zip_code": "1428"
    },
    {
        "name": "København K",
        "zip_code": "1429"
    },
    {
        "name": "København K",
        "zip_code": "1430"
    },
    {
        "name": "København K",
        "zip_code": "1432"
    },
    {
        "name": "København K",
        "zip_code": "1433"
    },
    {
        "name": "København K",
        "zip_code": "1434"
    },
    {
        "name": "København K",
        "zip_code": "1435"
    },
    {
        "name": "København K",
        "zip_code": "1436"
    },
    {
        "name": "København K",
        "zip_code": "1437"
    },
    {
        "name": "København K",
        "zip_code": "1438"
    },
    {
        "name": "København K",
        "zip_code": "1439"
    },
    {
        "name": "København K",
        "zip_code": "1440"
    },
    {
        "name": "København K",
        "zip_code": "1441"
    },
    {
        "name": "København K",
        "zip_code": "1450"
    },
    {
        "name": "København K",
        "zip_code": "1451"
    },
    {
        "name": "København K",
        "zip_code": "1452"
    },
    {
        "name": "København K",
        "zip_code": "1453"
    },
    {
        "name": "København K",
        "zip_code": "1454"
    },
    {
        "name": "København K",
        "zip_code": "1455"
    },
    {
        "name": "København K",
        "zip_code": "1456"
    },
    {
        "name": "København K",
        "zip_code": "1457"
    },
    {
        "name": "København K",
        "zip_code": "1458"
    },
    {
        "name": "København K",
        "zip_code": "1459"
    },
    {
        "name": "København K",
        "zip_code": "1460"
    },
    {
        "name": "København K",
        "zip_code": "1461"
    },
    {
        "name": "København K",
        "zip_code": "1462"
    },
    {
        "name": "København K",
        "zip_code": "1463"
    },
    {
        "name": "København K",
        "zip_code": "1464"
    },
    {
        "name": "København K",
        "zip_code": "1465"
    },
    {
        "name": "København K",
        "zip_code": "1466"
    },
    {
        "name": "København K",
        "zip_code": "1467"
    },
    {
        "name": "København K",
        "zip_code": "1468"
    },
    {
        "name": "København K",
        "zip_code": "1470"
    },
    {
        "name": "København K",
        "zip_code": "1471"
    },
    {
        "name": "København K",
        "zip_code": "1472"
    },
    {
        "name": "København K",
        "zip_code": "1473"
    },
    {
        "name": "København V",
        "zip_code": "1550"
    },
    {
        "name": "København V",
        "zip_code": "1551"
    },
    {
        "name": "København V",
        "zip_code": "1552"
    },
    {
        "name": "København V",
        "zip_code": "1553"
    },
    {
        "name": "København V",
        "zip_code": "1554"
    },
    {
        "name": "København V",
        "zip_code": "1555"
    },
    {
        "name": "København V",
        "zip_code": "1556"
    },
    {
        "name": "København V",
        "zip_code": "1557"
    },
    {
        "name": "København V",
        "zip_code": "1558"
    },
    {
        "name": "København V",
        "zip_code": "1559"
    },
    {
        "name": "København V",
        "zip_code": "1560"
    },
    {
        "name": "København V",
        "zip_code": "1561"
    },
    {
        "name": "København V",
        "zip_code": "1562"
    },
    {
        "name": "København V",
        "zip_code": "1563"
    },
    {
        "name": "København V",
        "zip_code": "1564"
    },
    {
        "name": "København V",
        "zip_code": "1567"
    },
    {
        "name": "København V",
        "zip_code": "1568"
    },
    {
        "name": "København V",
        "zip_code": "1569"
    },
    {
        "name": "København V",
        "zip_code": "1570"
    },
    {
        "name": "København V",
        "zip_code": "1571"
    },
    {
        "name": "København V",
        "zip_code": "1572"
    },
    {
        "name": "København V",
        "zip_code": "1573"
    },
    {
        "name": "København V",
        "zip_code": "1574"
    },
    {
        "name": "København V",
        "zip_code": "1575"
    },
    {
        "name": "København V",
        "zip_code": "1576"
    },
    {
        "name": "København V",
        "zip_code": "1577"
    },
    {
        "name": "København V",
        "zip_code": "1600"
    },
    {
        "name": "København V",
        "zip_code": "1601"
    },
    {
        "name": "København V",
        "zip_code": "1602"
    },
    {
        "name": "København V",
        "zip_code": "1603"
    },
    {
        "name": "København V",
        "zip_code": "1604"
    },
    {
        "name": "København V",
        "zip_code": "1605"
    },
    {
        "name": "København V",
        "zip_code": "1606"
    },
    {
        "name": "København V",
        "zip_code": "1607"
    },
    {
        "name": "København V",
        "zip_code": "1608"
    },
    {
        "name": "København V",
        "zip_code": "1609"
    },
    {
        "name": "København V",
        "zip_code": "1610"
    },
    {
        "name": "København V",
        "zip_code": "1611"
    },
    {
        "name": "København V",
        "zip_code": "1612"
    },
    {
        "name": "København V",
        "zip_code": "1613"
    },
    {
        "name": "København V",
        "zip_code": "1614"
    },
    {
        "name": "København V",
        "zip_code": "1615"
    },
    {
        "name": "København V",
        "zip_code": "1616"
    },
    {
        "name": "København V",
        "zip_code": "1617"
    },
    {
        "name": "København V",
        "zip_code": "1618"
    },
    {
        "name": "København V",
        "zip_code": "1619"
    },
    {
        "name": "København V",
        "zip_code": "1620"
    },
    {
        "name": "København V",
        "zip_code": "1621"
    },
    {
        "name": "København V",
        "zip_code": "1622"
    },
    {
        "name": "København V",
        "zip_code": "1623"
    },
    {
        "name": "København V",
        "zip_code": "1624"
    },
    {
        "name": "København V",
        "zip_code": "1631"
    },
    {
        "name": "København V",
        "zip_code": "1632"
    },
    {
        "name": "København V",
        "zip_code": "1633"
    },
    {
        "name": "København V",
        "zip_code": "1634"
    },
    {
        "name": "København V",
        "zip_code": "1635"
    },
    {
        "name": "København V",
        "zip_code": "1650"
    },
    {
        "name": "København V",
        "zip_code": "1651"
    },
    {
        "name": "København V",
        "zip_code": "1652"
    },
    {
        "name": "København V",
        "zip_code": "1653"
    },
    {
        "name": "København V",
        "zip_code": "1654"
    },
    {
        "name": "København V",
        "zip_code": "1655"
    },
    {
        "name": "København V",
        "zip_code": "1656"
    },
    {
        "name": "København V",
        "zip_code": "1657"
    },
    {
        "name": "København V",
        "zip_code": "1658"
    },
    {
        "name": "København V",
        "zip_code": "1659"
    },
    {
        "name": "København V",
        "zip_code": "1660"
    },
    {
        "name": "København V",
        "zip_code": "1661"
    },
    {
        "name": "København V",
        "zip_code": "1662"
    },
    {
        "name": "København V",
        "zip_code": "1663"
    },
    {
        "name": "København V",
        "zip_code": "1664"
    },
    {
        "name": "København V",
        "zip_code": "1665"
    },
    {
        "name": "København V",
        "zip_code": "1666"
    },
    {
        "name": "København V",
        "zip_code": "1667"
    },
    {
        "name": "København V",
        "zip_code": "1668"
    },
    {
        "name": "København V",
        "zip_code": "1669"
    },
    {
        "name": "København V",
        "zip_code": "1670"
    },
    {
        "name": "København V",
        "zip_code": "1671"
    },
    {
        "name": "København V",
        "zip_code": "1672"
    },
    {
        "name": "København V",
        "zip_code": "1673"
    },
    {
        "name": "København V",
        "zip_code": "1674"
    },
    {
        "name": "København V",
        "zip_code": "1675"
    },
    {
        "name": "København V",
        "zip_code": "1676"
    },
    {
        "name": "København V",
        "zip_code": "1677"
    },
    {
        "name": "København V",
        "zip_code": "1699"
    },
    {
        "name": "København V",
        "zip_code": "1700"
    },
    {
        "name": "København V",
        "zip_code": "1701"
    },
    {
        "name": "København V",
        "zip_code": "1702"
    },
    {
        "name": "København V",
        "zip_code": "1703"
    },
    {
        "name": "København V",
        "zip_code": "1704"
    },
    {
        "name": "København V",
        "zip_code": "1705"
    },
    {
        "name": "København V",
        "zip_code": "1706"
    },
    {
        "name": "København V",
        "zip_code": "1707"
    },
    {
        "name": "København V",
        "zip_code": "1708"
    },
    {
        "name": "København V",
        "zip_code": "1709"
    },
    {
        "name": "København V",
        "zip_code": "1710"
    },
    {
        "name": "København V",
        "zip_code": "1711"
    },
    {
        "name": "København V",
        "zip_code": "1712"
    },
    {
        "name": "København V",
        "zip_code": "1714"
    },
    {
        "name": "København V",
        "zip_code": "1715"
    },
    {
        "name": "København V",
        "zip_code": "1716"
    },
    {
        "name": "København V",
        "zip_code": "1717"
    },
    {
        "name": "København V",
        "zip_code": "1718"
    },
    {
        "name": "København V",
        "zip_code": "1719"
    },
    {
        "name": "København V",
        "zip_code": "1720"
    },
    {
        "name": "København V",
        "zip_code": "1721"
    },
    {
        "name": "København V",
        "zip_code": "1722"
    },
    {
        "name": "København V",
        "zip_code": "1723"
    },
    {
        "name": "København V",
        "zip_code": "1724"
    },
    {
        "name": "København V",
        "zip_code": "1725"
    },
    {
        "name": "København V",
        "zip_code": "1726"
    },
    {
        "name": "København V",
        "zip_code": "1727"
    },
    {
        "name": "København V",
        "zip_code": "1728"
    },
    {
        "name": "København V",
        "zip_code": "1729"
    },
    {
        "name": "København V",
        "zip_code": "1730"
    },
    {
        "name": "København V",
        "zip_code": "1731"
    },
    {
        "name": "København V",
        "zip_code": "1732"
    },
    {
        "name": "København V",
        "zip_code": "1733"
    },
    {
        "name": "København V",
        "zip_code": "1734"
    },
    {
        "name": "København V",
        "zip_code": "1735"
    },
    {
        "name": "København V",
        "zip_code": "1736"
    },
    {
        "name": "København V",
        "zip_code": "1737"
    },
    {
        "name": "København V",
        "zip_code": "1738"
    },
    {
        "name": "København V",
        "zip_code": "1739"
    },
    {
        "name": "København V",
        "zip_code": "1749"
    },
    {
        "name": "København V",
        "zip_code": "1750"
    },
    {
        "name": "København V",
        "zip_code": "1751"
    },
    {
        "name": "København V",
        "zip_code": "1752"
    },
    {
        "name": "København V",
        "zip_code": "1753"
    },
    {
        "name": "København V",
        "zip_code": "1754"
    },
    {
        "name": "København V",
        "zip_code": "1755"
    },
    {
        "name": "København V",
        "zip_code": "1756"
    },
    {
        "name": "København V",
        "zip_code": "1757"
    },
    {
        "name": "København V",
        "zip_code": "1758"
    },
    {
        "name": "København V",
        "zip_code": "1759"
    },
    {
        "name": "København V",
        "zip_code": "1760"
    },
    {
        "name": "København V",
        "zip_code": "1761"
    },
    {
        "name": "København V",
        "zip_code": "1762"
    },
    {
        "name": "København V",
        "zip_code": "1763"
    },
    {
        "name": "København V",
        "zip_code": "1764"
    },
    {
        "name": "København V",
        "zip_code": "1765"
    },
    {
        "name": "København V",
        "zip_code": "1766"
    },
    {
        "name": "København V",
        "zip_code": "1770"
    },
    {
        "name": "København V",
        "zip_code": "1771"
    },
    {
        "name": "København V",
        "zip_code": "1772"
    },
    {
        "name": "København V",
        "zip_code": "1773"
    },
    {
        "name": "København V",
        "zip_code": "1774"
    },
    {
        "name": "København V",
        "zip_code": "1775"
    },
    {
        "name": "København V",
        "zip_code": "1777"
    },
    {
        "name": "København V",
        "zip_code": "1799"
    },
    {
        "name": "København Ø",
        "zip_code": "2100"
    },
    {
        "name": "Nordhavn",
        "zip_code": "2150"
    },
    {
        "name": "København N",
        "zip_code": "2200"
    },
    {
        "name": "København S",
        "zip_code": "2300"
    },
    {
        "name": "København NV",
        "zip_code": "2400"
    },
    {
        "name": "København SV",
        "zip_code": "2450"
    },
    {
        "name": "Valby",
        "zip_code": "2500"
    },
    {
        "name": "Brønshøj",
        "zip_code": "2700"
    },
    {
        "name": "Vanløse",
        "zip_code": "2720"
    },
    {
        "name": "Frederiksberg C",
        "zip_code": "1800"
    },
    {
        "name": "Frederiksberg C",
        "zip_code": "1801"
    },
    {
        "name": "Frederiksberg C",
        "zip_code": "1802"
    },
    {
        "name": "Frederiksberg C",
        "zip_code": "1803"
    },
    {
        "name": "Frederiksberg C",
        "zip_code": "1804"
    },
    {
        "name": "Frederiksberg C",
        "zip_code": "1805"
    },
    {
        "name": "Frederiksberg C",
        "zip_code": "1806"
    },
    {
        "name": "Frederiksberg C",
        "zip_code": "1807"
    },
    {
        "name": "Frederiksberg C",
        "zip_code": "1808"
    },
    {
        "name": "Frederiksberg C",
        "zip_code": "1809"
    },
    {
        "name": "Frederiksberg C",
        "zip_code": "1810"
    },
    {
        "name": "Frederiksberg C",
        "zip_code": "1811"
    },
    {
        "name": "Frederiksberg C",
        "zip_code": "1812"
    },
    {
        "name": "Frederiksberg C",
        "zip_code": "1813"
    },
    {
        "name": "Frederiksberg C",
        "zip_code": "1814"
    },
    {
        "name": "Frederiksberg C",
        "zip_code": "1815"
    },
    {
        "name": "Frederiksberg C",
        "zip_code": "1816"
    },
    {
        "name": "Frederiksberg C",
        "zip_code": "1817"
    },
    {
        "name": "Frederiksberg C",
        "zip_code": "1818"
    },
    {
        "name": "Frederiksberg C",
        "zip_code": "1819"
    },
    {
        "name": "Frederiksberg C",
        "zip_code": "1820"
    },
    {
        "name": "Frederiksberg C",
        "zip_code": "1822"
    },
    {
        "name": "Frederiksberg C",
        "zip_code": "1823"
    },
    {
        "name": "Frederiksberg C",
        "zip_code": "1824"
    },
    {
        "name": "Frederiksberg C",
        "zip_code": "1825"
    },
    {
        "name": "Frederiksberg C",
        "zip_code": "1826"
    },
    {
        "name": "Frederiksberg C",
        "zip_code": "1827"
    },
    {
        "name": "Frederiksberg C",
        "zip_code": "1828"
    },
    {
        "name": "Frederiksberg C",
        "zip_code": "1829"
    },
    {
        "name": "Frederiksberg C",
        "zip_code": "1850"
    },
    {
        "name": "Frederiksberg C",
        "zip_code": "1851"
    },
    {
        "name": "Frederiksberg C",
        "zip_code": "1852"
    },
    {
        "name": "Frederiksberg C",
        "zip_code": "1853"
    },
    {
        "name": "Frederiksberg C",
        "zip_code": "1854"
    },
    {
        "name": "Frederiksberg C",
        "zip_code": "1855"
    },
    {
        "name": "Frederiksberg C",
        "zip_code": "1856"
    },
    {
        "name": "Frederiksberg C",
        "zip_code": "1857"
    },
    {
        "name": "Frederiksberg C",
        "zip_code": "1860"
    },
    {
        "name": "Frederiksberg C",
        "zip_code": "1861"
    },
    {
        "name": "Frederiksberg C",
        "zip_code": "1862"
    },
    {
        "name": "Frederiksberg C",
        "zip_code": "1863"
    },
    {
        "name": "Frederiksberg C",
        "zip_code": "1864"
    },
    {
        "name": "Frederiksberg C",
        "zip_code": "1865"
    },
    {
        "name": "Frederiksberg C",
        "zip_code": "1866"
    },
    {
        "name": "Frederiksberg C",
        "zip_code": "1867"
    },
    {
        "name": "Frederiksberg C",
        "zip_code": "1868"
    },
    {
        "name": "Frederiksberg C",
        "zip_code": "1870"
    },
    {
        "name": "Frederiksberg C",
        "zip_code": "1871"
    },
    {
        "name": "Frederiksberg C",
        "zip_code": "1872"
    },
    {
        "name": "Frederiksberg C",
        "zip_code": "1873"
    },
    {
        "name": "Frederiksberg C",
        "zip_code": "1874"
    },
    {
        "name": "Frederiksberg C",
        "zip_code": "1875"
    },
    {
        "name": "Frederiksberg C",
        "zip_code": "1876"
    },
    {
        "name": "Frederiksberg C",
        "zip_code": "1877"
    },
    {
        "name": "Frederiksberg C",
        "zip_code": "1878"
    },
    {
        "name": "Frederiksberg C",
        "zip_code": "1879"
    },
    {
        "name": "Frederiksberg C",
        "zip_code": "1900"
    },
    {
        "name": "Frederiksberg C",
        "zip_code": "1901"
    },
    {
        "name": "Frederiksberg C",
        "zip_code": "1902"
    },
    {
        "name": "Frederiksberg C",
        "zip_code": "1903"
    },
    {
        "name": "Frederiksberg C",
        "zip_code": "1904"
    },
    {
        "name": "Frederiksberg C",
        "zip_code": "1905"
    },
    {
        "name": "Frederiksberg C",
        "zip_code": "1906"
    },
    {
        "name": "Frederiksberg C",
        "zip_code": "1908"
    },
    {
        "name": "Frederiksberg C",
        "zip_code": "1909"
    },
    {
        "name": "Frederiksberg C",
        "zip_code": "1910"
    },
    {
        "name": "Frederiksberg C",
        "zip_code": "1911"
    },
    {
        "name": "Frederiksberg C",
        "zip_code": "1912"
    },
    {
        "name": "Frederiksberg C",
        "zip_code": "1913"
    },
    {
        "name": "Frederiksberg C",
        "zip_code": "1914"
    },
    {
        "name": "Frederiksberg C",
        "zip_code": "1915"
    },
    {
        "name": "Frederiksberg C",
        "zip_code": "1916"
    },
    {
        "name": "Frederiksberg C",
        "zip_code": "1917"
    },
    {
        "name": "Frederiksberg C",
        "zip_code": "1920"
    },
    {
        "name": "Frederiksberg C",
        "zip_code": "1921"
    },
    {
        "name": "Frederiksberg C",
        "zip_code": "1922"
    },
    {
        "name": "Frederiksberg C",
        "zip_code": "1923"
    },
    {
        "name": "Frederiksberg C",
        "zip_code": "1924"
    },
    {
        "name": "Frederiksberg C",
        "zip_code": "1925"
    },
    {
        "name": "Frederiksberg C",
        "zip_code": "1926"
    },
    {
        "name": "Frederiksberg C",
        "zip_code": "1927"
    },
    {
        "name": "Frederiksberg C",
        "zip_code": "1928"
    },
    {
        "name": "Frederiksberg C",
        "zip_code": "1950"
    },
    {
        "name": "Frederiksberg C",
        "zip_code": "1951"
    },
    {
        "name": "Frederiksberg C",
        "zip_code": "1952"
    },
    {
        "name": "Frederiksberg C",
        "zip_code": "1953"
    },
    {
        "name": "Frederiksberg C",
        "zip_code": "1954"
    },
    {
        "name": "Frederiksberg C",
        "zip_code": "1955"
    },
    {
        "name": "Frederiksberg C",
        "zip_code": "1956"
    },
    {
        "name": "Frederiksberg C",
        "zip_code": "1957"
    },
    {
        "name": "Frederiksberg C",
        "zip_code": "1958"
    },
    {
        "name": "Frederiksberg C",
        "zip_code": "1959"
    },
    {
        "name": "Frederiksberg C",
        "zip_code": "1960"
    },
    {
        "name": "Frederiksberg C",
        "zip_code": "1961"
    },
    {
        "name": "Frederiksberg C",
        "zip_code": "1962"
    },
    {
        "name": "Frederiksberg C",
        "zip_code": "1963"
    },
    {
        "name": "Frederiksberg C",
        "zip_code": "1964"
    },
    {
        "name": "Frederiksberg C",
        "zip_code": "1965"
    },
    {
        "name": "Frederiksberg C",
        "zip_code": "1966"
    },
    {
        "name": "Frederiksberg C",
        "zip_code": "1967"
    },
    {
        "name": "Frederiksberg C",
        "zip_code": "1970"
    },
    {
        "name": "Frederiksberg C",
        "zip_code": "1971"
    },
    {
        "name": "Frederiksberg C",
        "zip_code": "1972"
    },
    {
        "name": "Frederiksberg C",
        "zip_code": "1973"
    },
    {
        "name": "Frederiksberg C",
        "zip_code": "1974"
    },
    {
        "name": "Frederiksberg",
        "zip_code": "2000"
    },
    {
        "name": "Skovlunde",
        "zip_code": "2740"
    },
    {
        "name": "Ballerup",
        "zip_code": "2750"
    },
    {
        "name": "Måløv",
        "zip_code": "2760"
    },
    {
        "name": "Brøndby",
        "zip_code": "2605"
    },
    {
        "name": "Brøndby Strand",
        "zip_code": "2660"
    },
    {
        "name": "Dragør",
        "zip_code": "2791"
    },
    {
        "name": "Gentofte",
        "zip_code": "2820"
    },
    {
        "name": "Dyssegård",
        "zip_code": "2870"
    },
    {
        "name": "Hellerup",
        "zip_code": "2900"
    },
    {
        "name": "Charlottenlund",
        "zip_code": "2920"
    },
    {
        "name": "Klampenborg",
        "zip_code": "2930"
    },
    {
        "name": "Søborg",
        "zip_code": "2860"
    },
    {
        "name": "Bagsværd",
        "zip_code": "2880"
    },
    {
        "name": "Glostrup",
        "zip_code": "2600"
    },
    {
        "name": "Herlev",
        "zip_code": "2730"
    },
    {
        "name": "Albertslund",
        "zip_code": "2620"
    },
    {
        "name": "Hvidovre",
        "zip_code": "2650"
    },
    {
        "name": "Taastrup",
        "zip_code": "2630"
    },
    {
        "name": "Hedehusene",
        "zip_code": "2640"
    },
    {
        "name": "Kongens Lyngby",
        "zip_code": "2800"
    },
    {
        "name": "Virum",
        "zip_code": "2830"
    },
    {
        "name": "Rødovre",
        "zip_code": "2610"
    },
    {
        "name": "Ishøj",
        "zip_code": "2635"
    },
    {
        "name": "Kastrup",
        "zip_code": "2770"
    },
    {
        "name": "Vallensbæk",
        "zip_code": "2625"
    },
    {
        "name": "Vallensbæk Strand",
        "zip_code": "2665"
    },
    {
        "name": "Værløse",
        "zip_code": "3500"
    },
    {
        "name": "Farum",
        "zip_code": "3520"
    },
    {
        "name": "Allerød",
        "zip_code": "3450"
    },
    {
        "name": "Lynge",
        "zip_code": "3540"
    },
    {
        "name": "Kokkedal",
        "zip_code": "2980"
    },
    {
        "name": "Nivå",
        "zip_code": "2990"
    },
    {
        "name": "Humlebæk",
        "zip_code": "3050"
    },
    {
        "name": "Fredensborg",
        "zip_code": "3480"
    },
    {
        "name": "Helsingør",
        "zip_code": "3000"
    },
    {
        "name": "Espergærde",
        "zip_code": "3060"
    },
    {
        "name": "Snekkersten",
        "zip_code": "3070"
    },
    {
        "name": "Tikøb",
        "zip_code": "3080"
    },
    {
        "name": "Hornbæk",
        "zip_code": "3100"
    },
    {
        "name": "Ålsgårde",
        "zip_code": "3140"
    },
    {
        "name": "Hellebæk",
        "zip_code": "3150"
    },
    {
        "name": "Kvistgård",
        "zip_code": "3490"
    },
    {
        "name": "Skævinge",
        "zip_code": "3320"
    },
    {
        "name": "Gørløse",
        "zip_code": "3330"
    },
    {
        "name": "Hillerød",
        "zip_code": "3400"
    },
    {
        "name": "Rungsted Kyst",
        "zip_code": "2960"
    },
    {
        "name": "Hørsholm",
        "zip_code": "2970"
    },
    {
        "name": "Holte",
        "zip_code": "2840"
    },
    {
        "name": "Nærum",
        "zip_code": "2850"
    },
    {
        "name": "Skodsborg",
        "zip_code": "2942"
    },
    {
        "name": "Vedbæk",
        "zip_code": "2950"
    },
    {
        "name": "Birkerød",
        "zip_code": "3460"
    },
    {
        "name": "Smørum",
        "zip_code": "2765"
    },
    {
        "name": "Ølstykke",
        "zip_code": "3650"
    },
    {
        "name": "Stenløse",
        "zip_code": "3660"
    },
    {
        "name": "Veksø Sjælland",
        "zip_code": "3670"
    },
    {
        "name": "Slangerup",
        "zip_code": "3550"
    },
    {
        "name": "Frederikssund",
        "zip_code": "3600"
    },
    {
        "name": "Jægerspris",
        "zip_code": "3630"
    },
    {
        "name": "Skibby",
        "zip_code": "4050"
    },
    {
        "name": "Frederiksværk",
        "zip_code": "3300"
    },
    {
        "name": "Ølsted",
        "zip_code": "3310"
    },
    {
        "name": "Liseleje",
        "zip_code": "3360"
    },
    {
        "name": "Melby",
        "zip_code": "3370"
    },
    {
        "name": "Hundested",
        "zip_code": "3390"
    },
    {
        "name": "Dronningmølle",
        "zip_code": "3120"
    },
    {
        "name": "Helsinge",
        "zip_code": "3200"
    },
    {
        "name": "Vejby",
        "zip_code": "3210"
    },
    {
        "name": "Tisvildeleje",
        "zip_code": "3220"
    },
    {
        "name": "Græsted",
        "zip_code": "3230"
    },
    {
        "name": "Gilleleje",
        "zip_code": "3250"
    },
    {
        "name": "Rønne",
        "zip_code": "3700"
    },
    {
        "name": "Aakirkeby",
        "zip_code": "3720"
    },
    {
        "name": "Nexø",
        "zip_code": "3730"
    },
    {
        "name": "Svaneke",
        "zip_code": "3740"
    },
    {
        "name": "Østermarie",
        "zip_code": "3751"
    },
    {
        "name": "Gudhjem",
        "zip_code": "3760"
    },
    {
        "name": "Allinge",
        "zip_code": "3770"
    },
    {
        "name": "Klemensker",
        "zip_code": "3782"
    },
    {
        "name": "Hasle",
        "zip_code": "3790"
    },
    {
        "name": "Horsens",
        "zip_code": "8700"
    },
    {
        "name": "Hovedgård",
        "zip_code": "8732"
    },
    {
        "name": "Brædstrup",
        "zip_code": "8740"
    },
    {
        "name": "Gedved",
        "zip_code": "8751"
    },
    {
        "name": "Østbirk",
        "zip_code": "8752"
    },
    {
        "name": "Endelave",
        "zip_code": "8789"
    },
    {
        "name": "Kibæk",
        "zip_code": "6933"
    },
    {
        "name": "Ørnhøj",
        "zip_code": "6973"
    },
    {
        "name": "Stakroge",
        "zip_code": "7270"
    },
    {
        "name": "Sønder Felding",
        "zip_code": "7280"
    },
    {
        "name": "Herning",
        "zip_code": "7400"
    },
    {
        "name": "Sunds",
        "zip_code": "7451"
    },
    {
        "name": "Vildbjerg",
        "zip_code": "7480"
    },
    {
        "name": "Aulum",
        "zip_code": "7490"
    },
    {
        "name": "Haderup",
        "zip_code": "7540"
    },
    {
        "name": "Sørvad",
        "zip_code": "7550"
    },
    {
        "name": "Ulfborg",
        "zip_code": "6990"
    },
    {
        "name": "Holstebro",
        "zip_code": "7500"
    },
    {
        "name": "Vemb",
        "zip_code": "7570"
    },
    {
        "name": "Vinderup",
        "zip_code": "7830"
    },
    {
        "name": "Lemvig",
        "zip_code": "7620"
    },
    {
        "name": "Bøvlingbjerg",
        "zip_code": "7650"
    },
    {
        "name": "Bækmarksbro",
        "zip_code": "7660"
    },
    {
        "name": "Harboøre",
        "zip_code": "7673"
    },
    {
        "name": "Thyborøn",
        "zip_code": "7680"
    },
    {
        "name": "Hjerm",
        "zip_code": "7560"
    },
    {
        "name": "Struer",
        "zip_code": "7600"
    },
    {
        "name": "Thyholm",
        "zip_code": "7790"
    },
    {
        "name": "Ebeltoft",
        "zip_code": "8400"
    },
    {
        "name": "Rønde",
        "zip_code": "8410"
    },
    {
        "name": "Knebel",
        "zip_code": "8420"
    },
    {
        "name": "Balle",
        "zip_code": "8444"
    },
    {
        "name": "Hornslet",
        "zip_code": "8543"
    },
    {
        "name": "Mørke",
        "zip_code": "8544"
    },
    {
        "name": "Ryomgård",
        "zip_code": "8550"
    },
    {
        "name": "Kolind",
        "zip_code": "8560"
    },
    {
        "name": "Nimtofte",
        "zip_code": "8581"
    },
    {
        "name": "Grenaa",
        "zip_code": "8500"
    },
    {
        "name": "Trustrup",
        "zip_code": "8570"
    },
    {
        "name": "Glesborg",
        "zip_code": "8585"
    },
    {
        "name": "Ørum Djurs",
        "zip_code": "8586"
    },
    {
        "name": "Anholt",
        "zip_code": "8592"
    },
    {
        "name": "Ørsted",
        "zip_code": "8950"
    },
    {
        "name": "Allingåbro",
        "zip_code": "8961"
    },
    {
        "name": "Auning",
        "zip_code": "8963"
    },
    {
        "name": "Hadsten",
        "zip_code": "8370"
    },
    {
        "name": "Hinnerup",
        "zip_code": "8382"
    },
    {
        "name": "Hammel",
        "zip_code": "8450"
    },
    {
        "name": "Sporup",
        "zip_code": "8472"
    },
    {
        "name": "Ulstrup",
        "zip_code": "8860"
    },
    {
        "name": "Thorsø",
        "zip_code": "8881"
    },
    {
        "name": "Odder",
        "zip_code": "8300"
    },
    {
        "name": "Hundslund",
        "zip_code": "8350"
    },
    {
        "name": "Tunø",
        "zip_code": "8799"
    },
    {
        "name": "Langå",
        "zip_code": "8870"
    },
    {
        "name": "Randers C",
        "zip_code": "8900"
    },
    {
        "name": "Randers NV",
        "zip_code": "8920"
    },
    {
        "name": "Randers NØ",
        "zip_code": "8930"
    },
    {
        "name": "Randers SV",
        "zip_code": "8940"
    },
    {
        "name": "Randers SØ",
        "zip_code": "8960"
    },
    {
        "name": "Havndal",
        "zip_code": "8970"
    },
    {
        "name": "Spentrup",
        "zip_code": "8981"
    },
    {
        "name": "Gjerlev J",
        "zip_code": "8983"
    },
    {
        "name": "Fårup",
        "zip_code": "8990"
    },
    {
        "name": "Silkeborg",
        "zip_code": "8600"
    },
    {
        "name": "Kjellerup",
        "zip_code": "8620"
    },
    {
        "name": "Lemming",
        "zip_code": "8632"
    },
    {
        "name": "Sorring",
        "zip_code": "8641"
    },
    {
        "name": "Ans By",
        "zip_code": "8643"
    },
    {
        "name": "Them",
        "zip_code": "8653"
    },
    {
        "name": "Bryrup",
        "zip_code": "8654"
    },
    {
        "name": "Fårvang",
        "zip_code": "8882"
    },
    {
        "name": "Gjern",
        "zip_code": "8883"
    },
    {
        "name": "Samsø",
        "zip_code": "8305"
    },
    {
        "name": "Hørning",
        "zip_code": "8362"
    },
    {
        "name": "Galten",
        "zip_code": "8464"
    },
    {
        "name": "Skanderborg",
        "zip_code": "8660"
    },
    {
        "name": "Låsby",
        "zip_code": "8670"
    },
    {
        "name": "Ry",
        "zip_code": "8680"
    },
    {
        "name": "Aarhus C",
        "zip_code": "8000"
    },
    {
        "name": "Aarhus N",
        "zip_code": "8200"
    },
    {
        "name": "Aarhus V",
        "zip_code": "8210"
    },
    {
        "name": "Brabrand",
        "zip_code": "8220"
    },
    {
        "name": "Åbyhøj",
        "zip_code": "8230"
    },
    {
        "name": "Risskov",
        "zip_code": "8240"
    },
    {
        "name": "Egå",
        "zip_code": "8250"
    },
    {
        "name": "Viby J",
        "zip_code": "8260"
    },
    {
        "name": "Højbjerg",
        "zip_code": "8270"
    },
    {
        "name": "Tranbjerg J",
        "zip_code": "8310"
    },
    {
        "name": "Mårslet",
        "zip_code": "8320"
    },
    {
        "name": "Beder",
        "zip_code": "8330"
    },
    {
        "name": "Malling",
        "zip_code": "8340"
    },
    {
        "name": "Solbjerg",
        "zip_code": "8355"
    },
    {
        "name": "Hasselager",
        "zip_code": "8361"
    },
    {
        "name": "Trige",
        "zip_code": "8380"
    },
    {
        "name": "Tilst",
        "zip_code": "8381"
    },
    {
        "name": "Harlev J",
        "zip_code": "8462"
    },
    {
        "name": "Sabro",
        "zip_code": "8471"
    },
    {
        "name": "Lystrup",
        "zip_code": "8520"
    },
    {
        "name": "Hjortshøj",
        "zip_code": "8530"
    },
    {
        "name": "Skødstrup",
        "zip_code": "8541"
    },
    {
        "name": "Brande",
        "zip_code": "7330"
    },
    {
        "name": "Ejstrupholm",
        "zip_code": "7361"
    },
    {
        "name": "Hampen",
        "zip_code": "7362"
    },
    {
        "name": "Ikast",
        "zip_code": "7430"
    },
    {
        "name": "Bording",
        "zip_code": "7441"
    },
    {
        "name": "Engesvang",
        "zip_code": "7442"
    },
    {
        "name": "Klovborg",
        "zip_code": "8765"
    },
    {
        "name": "Nørre Snede",
        "zip_code": "8766"
    },
    {
        "name": "Tarm",
        "zip_code": "6880"
    },
    {
        "name": "Hemmet",
        "zip_code": "6893"
    },
    {
        "name": "Skjern",
        "zip_code": "6900"
    },
    {
        "name": "Videbæk",
        "zip_code": "6920"
    },
    {
        "name": "Lem St",
        "zip_code": "6940"
    },
    {
        "name": "Ringkøbing",
        "zip_code": "6950"
    },
    {
        "name": "Hvide Sande",
        "zip_code": "6960"
    },
    {
        "name": "Spjald",
        "zip_code": "6971"
    },
    {
        "name": "Tim",
        "zip_code": "6980"
    },
    {
        "name": "Juelsminde",
        "zip_code": "7130"
    },
    {
        "name": "Stouby",
        "zip_code": "7140"
    },
    {
        "name": "Barrit",
        "zip_code": "7150"
    },
    {
        "name": "Tørring",
        "zip_code": "7160"
    },
    {
        "name": "Uldum",
        "zip_code": "7171"
    },
    {
        "name": "Daugård",
        "zip_code": "8721"
    },
    {
        "name": "Hedensted",
        "zip_code": "8722"
    },
    {
        "name": "Løsning",
        "zip_code": "8723"
    },
    {
        "name": "Flemming",
        "zip_code": "8762"
    },
    {
        "name": "Rask Mølle",
        "zip_code": "8763"
    },
    {
        "name": "Stenderup",
        "zip_code": "8781"
    },
    {
        "name": "Hornsyld",
        "zip_code": "8783"
    },
    {
        "name": "Skive",
        "zip_code": "7800"
    },
    {
        "name": "Højslev",
        "zip_code": "7840"
    },
    {
        "name": "Spøttrup",
        "zip_code": "7860"
    },
    {
        "name": "Roslev",
        "zip_code": "7870"
    },
    {
        "name": "Fur",
        "zip_code": "7884"
    },
    {
        "name": "Karup J",
        "zip_code": "7470"
    },
    {
        "name": "Stoholm Jyll",
        "zip_code": "7850"
    },
    {
        "name": "Viborg",
        "zip_code": "8800"
    },
    {
        "name": "Tjele",
        "zip_code": "8830"
    },
    {
        "name": "Løgstrup",
        "zip_code": "8831"
    },
    {
        "name": "Skals",
        "zip_code": "8832"
    },
    {
        "name": "Rødkærsbro",
        "zip_code": "8840"
    },
    {
        "name": "Bjerringbro",
        "zip_code": "8850"
    },
    {
        "name": "Møldrup",
        "zip_code": "9632"
    },
    {
        "name": "Nykøbing M",
        "zip_code": "7900"
    },
    {
        "name": "Erslev",
        "zip_code": "7950"
    },
    {
        "name": "Karby",
        "zip_code": "7960"
    },
    {
        "name": "Redsted M",
        "zip_code": "7970"
    },
    {
        "name": "Vils",
        "zip_code": "7980"
    },
    {
        "name": "Øster Assels",
        "zip_code": "7990"
    },
    {
        "name": "Thisted",
        "zip_code": "7700"
    },
    {
        "name": "Hanstholm",
        "zip_code": "7730"
    },
    {
        "name": "Frøstrup",
        "zip_code": "7741"
    },
    {
        "name": "Vesløs",
        "zip_code": "7742"
    },
    {
        "name": "Snedsted",
        "zip_code": "7752"
    },
    {
        "name": "Bedsted Thy",
        "zip_code": "7755"
    },
    {
        "name": "Hurup Thy",
        "zip_code": "7760"
    },
    {
        "name": "Vestervig",
        "zip_code": "7770"
    },
    {
        "name": "Hjallerup",
        "zip_code": "9320"
    },
    {
        "name": "Dronninglund",
        "zip_code": "9330"
    },
    {
        "name": "Asaa",
        "zip_code": "9340"
    },
    {
        "name": "Brønderslev",
        "zip_code": "9700"
    },
    {
        "name": "Jerslev J",
        "zip_code": "9740"
    },
    {
        "name": "Sæby",
        "zip_code": "9300"
    },
    {
        "name": "Dybvad",
        "zip_code": "9352"
    },
    {
        "name": "Østervrå",
        "zip_code": "9750"
    },
    {
        "name": "Frederikshavn",
        "zip_code": "9900"
    },
    {
        "name": "Strandby",
        "zip_code": "9970"
    },
    {
        "name": "Jerup",
        "zip_code": "9981"
    },
    {
        "name": "Ålbæk",
        "zip_code": "9982"
    },
    {
        "name": "Skagen",
        "zip_code": "9990"
    },
    {
        "name": "Aars",
        "zip_code": "9600"
    },
    {
        "name": "Aalestrup",
        "zip_code": "9620"
    },
    {
        "name": "Gedsted",
        "zip_code": "9631"
    },
    {
        "name": "Farsø",
        "zip_code": "9640"
    },
    {
        "name": "Løgstør",
        "zip_code": "9670"
    },
    {
        "name": "Ranum",
        "zip_code": "9681"
    },
    {
        "name": "Læsø",
        "zip_code": "9940"
    },
    {
        "name": "Skørping",
        "zip_code": "9520"
    },
    {
        "name": "Støvring",
        "zip_code": "9530"
    },
    {
        "name": "Suldrup",
        "zip_code": "9541"
    },
    {
        "name": "Bælum",
        "zip_code": "9574"
    },
    {
        "name": "Terndrup",
        "zip_code": "9575"
    },
    {
        "name": "Nørager",
        "zip_code": "9610"
    },
    {
        "name": "Hobro",
        "zip_code": "9500"
    },
    {
        "name": "Arden",
        "zip_code": "9510"
    },
    {
        "name": "Mariager",
        "zip_code": "9550"
    },
    {
        "name": "Hadsund",
        "zip_code": "9560"
    },
    {
        "name": "Aabybro",
        "zip_code": "9440"
    },
    {
        "name": "Brovst",
        "zip_code": "9460"
    },
    {
        "name": "Pandrup",
        "zip_code": "9490"
    },
    {
        "name": "Blokhus",
        "zip_code": "9492"
    },
    {
        "name": "Saltum",
        "zip_code": "9493"
    },
    {
        "name": "Fjerritslev",
        "zip_code": "9690"
    },
    {
        "name": "Aalborg",
        "zip_code": "9000"
    },
    {
        "name": "Aalborg SV",
        "zip_code": "9200"
    },
    {
        "name": "Aalborg SØ",
        "zip_code": "9210"
    },
    {
        "name": "Aalborg Øst",
        "zip_code": "9220"
    },
    {
        "name": "Svenstrup J",
        "zip_code": "9230"
    },
    {
        "name": "Nibe",
        "zip_code": "9240"
    },
    {
        "name": "Gistrup",
        "zip_code": "9260"
    },
    {
        "name": "Klarup",
        "zip_code": "9270"
    },
    {
        "name": "Storvorde",
        "zip_code": "9280"
    },
    {
        "name": "Kongerslev",
        "zip_code": "9293"
    },
    {
        "name": "Vodskov",
        "zip_code": "9310"
    },
    {
        "name": "Gandrup",
        "zip_code": "9362"
    },
    {
        "name": "Hals",
        "zip_code": "9370"
    },
    {
        "name": "Vestbjerg",
        "zip_code": "9380"
    },
    {
        "name": "Sulsted",
        "zip_code": "9381"
    },
    {
        "name": "Tylstrup",
        "zip_code": "9382"
    },
    {
        "name": "Nørresundby",
        "zip_code": "9400"
    },
    {
        "name": "Vadum",
        "zip_code": "9430"
    },
    {
        "name": "Løkken",
        "zip_code": "9480"
    },
    {
        "name": "Vrå",
        "zip_code": "9760"
    },
    {
        "name": "Hjørring",
        "zip_code": "9800"
    },
    {
        "name": "Tårs",
        "zip_code": "9830"
    },
    {
        "name": "Hirtshals",
        "zip_code": "9850"
    },
    {
        "name": "Sindal",
        "zip_code": "9870"
    },
    {
        "name": "Bindslev",
        "zip_code": "9881"
    },
    {
        "name": "Greve",
        "zip_code": "2670"
    },
    {
        "name": "Karlslunde",
        "zip_code": "2690"
    },
    {
        "name": "Tune",
        "zip_code": "4030"
    },
    {
        "name": "Borup",
        "zip_code": "4140"
    },
    {
        "name": "Køge",
        "zip_code": "4600"
    },
    {
        "name": "Lille Skensved",
        "zip_code": "4623"
    },
    {
        "name": "Bjæverskov",
        "zip_code": "4632"
    },
    {
        "name": "Herfølge",
        "zip_code": "4681"
    },
    {
        "name": "Tureby",
        "zip_code": "4682"
    },
    {
        "name": "Roskilde",
        "zip_code": "4000"
    },
    {
        "name": "Jyllinge",
        "zip_code": "4040"
    },
    {
        "name": "Viby Sjælland",
        "zip_code": "4130"
    },
    {
        "name": "Gadstrup",
        "zip_code": "4621"
    },
    {
        "name": "Solrød Strand",
        "zip_code": "2680"
    },
    {
        "name": "Havdrup",
        "zip_code": "4622"
    },
    {
        "name": "Nykøbing Sj",
        "zip_code": "4500"
    },
    {
        "name": "Hørve",
        "zip_code": "4534"
    },
    {
        "name": "Fårevejle",
        "zip_code": "4540"
    },
    {
        "name": "Asnæs",
        "zip_code": "4550"
    },
    {
        "name": "Vig",
        "zip_code": "4560"
    },
    {
        "name": "Grevinge",
        "zip_code": "4571"
    },
    {
        "name": "Nørre Asmindrup",
        "zip_code": "4572"
    },
    {
        "name": "Højby",
        "zip_code": "4573"
    },
    {
        "name": "Rørvig",
        "zip_code": "4581"
    },
    {
        "name": "Sjællands Odde",
        "zip_code": "4583"
    },
    {
        "name": "Holbæk",
        "zip_code": "4300"
    },
    {
        "name": "Orø",
        "zip_code": "4305"
    },
    {
        "name": "Tølløse",
        "zip_code": "4340"
    },
    {
        "name": "Ugerløse",
        "zip_code": "4350"
    },
    {
        "name": "Kirke Eskilstrup",
        "zip_code": "4360"
    },
    {
        "name": "Store Merløse",
        "zip_code": "4370"
    },
    {
        "name": "Vipperød",
        "zip_code": "4390"
    },
    {
        "name": "Regstrup",
        "zip_code": "4420"
    },
    {
        "name": "Mørkøv",
        "zip_code": "4440"
    },
    {
        "name": "Jyderup",
        "zip_code": "4450"
    },
    {
        "name": "Svinninge",
        "zip_code": "4520"
    },
    {
        "name": "Gislinge",
        "zip_code": "4532"
    },
    {
        "name": "Faxe",
        "zip_code": "4640"
    },
    {
        "name": "Karise",
        "zip_code": "4653"
    },
    {
        "name": "Faxe Ladeplads",
        "zip_code": "4654"
    },
    {
        "name": "Rønnede",
        "zip_code": "4683"
    },
    {
        "name": "Haslev",
        "zip_code": "4690"
    },
    {
        "name": "Høng",
        "zip_code": "4270"
    },
    {
        "name": "Gørlev",
        "zip_code": "4281"
    },
    {
        "name": "Kalundborg",
        "zip_code": "4400"
    },
    {
        "name": "Snertinge",
        "zip_code": "4460"
    },
    {
        "name": "Svebølle",
        "zip_code": "4470"
    },
    {
        "name": "Store Fuglede",
        "zip_code": "4480"
    },
    {
        "name": "Jerslev Sjælland",
        "zip_code": "4490"
    },
    {
        "name": "Føllenslev",
        "zip_code": "4591"
    },
    {
        "name": "Sejerø",
        "zip_code": "4592"
    },
    {
        "name": "Eskebjerg",
        "zip_code": "4593"
    },
    {
        "name": "Ringsted",
        "zip_code": "4100"
    },
    {
        "name": "Jystrup Midtsj",
        "zip_code": "4174"
    },
    {
        "name": "Slagelse",
        "zip_code": "4200"
    },
    {
        "name": "Korsør",
        "zip_code": "4220"
    },
    {
        "name": "Skælskør",
        "zip_code": "4230"
    },
    {
        "name": "Vemmelev",
        "zip_code": "4241"
    },
    {
        "name": "Boeslunde",
        "zip_code": "4242"
    },
    {
        "name": "Rude",
        "zip_code": "4243"
    },
    {
        "name": "Agersø",
        "zip_code": "4244"
    },
    {
        "name": "Omø",
        "zip_code": "4245"
    },
    {
        "name": "Dalmose",
        "zip_code": "4261"
    },
    {
        "name": "Hårlev",
        "zip_code": "4652"
    },
    {
        "name": "Store Heddinge",
        "zip_code": "4660"
    },
    {
        "name": "Strøby",
        "zip_code": "4671"
    },
    {
        "name": "Klippinge",
        "zip_code": "4672"
    },
    {
        "name": "Rødvig Stevns",
        "zip_code": "4673"
    },
    {
        "name": "Fjenneslev",
        "zip_code": "4173"
    },
    {
        "name": "Sorø",
        "zip_code": "4180"
    },
    {
        "name": "Munke Bjergby",
        "zip_code": "4190"
    },
    {
        "name": "Ruds Vedby",
        "zip_code": "4291"
    },
    {
        "name": "Dianalund",
        "zip_code": "4293"
    },
    {
        "name": "Stenlille",
        "zip_code": "4295"
    },
    {
        "name": "Nyrup",
        "zip_code": "4296"
    },
    {
        "name": "Kirke Såby",
        "zip_code": "4060"
    },
    {
        "name": "Kirke Hyllinge",
        "zip_code": "4070"
    },
    {
        "name": "Lejre",
        "zip_code": "4320"
    },
    {
        "name": "Hvalsø",
        "zip_code": "4330"
    },
    {
        "name": "Errindlev",
        "zip_code": "4895"
    },
    {
        "name": "Nakskov",
        "zip_code": "4900"
    },
    {
        "name": "Harpelunde",
        "zip_code": "4912"
    },
    {
        "name": "Horslunde",
        "zip_code": "4913"
    },
    {
        "name": "Søllested",
        "zip_code": "4920"
    },
    {
        "name": "Maribo",
        "zip_code": "4930"
    },
    {
        "name": "Bandholm",
        "zip_code": "4941"
    },
    {
        "name": "Askø",
        "zip_code": "4942"
    },
    {
        "name": "Torrig L",
        "zip_code": "4943"
    },
    {
        "name": "Fejø",
        "zip_code": "4944"
    },
    {
        "name": "Femø",
        "zip_code": "4945"
    },
    {
        "name": "Nørreballe",
        "zip_code": "4951"
    },
    {
        "name": "Stokkemarke",
        "zip_code": "4952"
    },
    {
        "name": "Vesterborg",
        "zip_code": "4953"
    },
    {
        "name": "Holeby",
        "zip_code": "4960"
    },
    {
        "name": "Rødby",
        "zip_code": "4970"
    },
    {
        "name": "Dannemare",
        "zip_code": "4983"
    },
    {
        "name": "Herlufmagle",
        "zip_code": "4160"
    },
    {
        "name": "Glumsø",
        "zip_code": "4171"
    },
    {
        "name": "Fuglebjerg",
        "zip_code": "4250"
    },
    {
        "name": "Sandved",
        "zip_code": "4262"
    },
    {
        "name": "Holmegaard",
        "zip_code": "4684"
    },
    {
        "name": "Næstved",
        "zip_code": "4700"
    },
    {
        "name": "Tappernøje",
        "zip_code": "4733"
    },
    {
        "name": "Karrebæksminde",
        "zip_code": "4736"
    },
    {
        "name": "Nykøbing F",
        "zip_code": "4800"
    },
    {
        "name": "Nørre Alslev",
        "zip_code": "4840"
    },
    {
        "name": "Stubbekøbing",
        "zip_code": "4850"
    },
    {
        "name": "Guldborg",
        "zip_code": "4862"
    },
    {
        "name": "Eskilstrup",
        "zip_code": "4863"
    },
    {
        "name": "Horbelev",
        "zip_code": "4871"
    },
    {
        "name": "Idestrup",
        "zip_code": "4872"
    },
    {
        "name": "Væggerløse",
        "zip_code": "4873"
    },
    {
        "name": "Gedser",
        "zip_code": "4874"
    },
    {
        "name": "Nysted",
        "zip_code": "4880"
    },
    {
        "name": "Toreby L",
        "zip_code": "4891"
    },
    {
        "name": "Kettinge",
        "zip_code": "4892"
    },
    {
        "name": "Øster Ulslev",
        "zip_code": "4894"
    },
    {
        "name": "Sakskøbing",
        "zip_code": "4990"
    },
    {
        "name": "Præstø",
        "zip_code": "4720"
    },
    {
        "name": "Mern",
        "zip_code": "4735"
    },
    {
        "name": "Lundby",
        "zip_code": "4750"
    },
    {
        "name": "Vordingborg",
        "zip_code": "4760"
    },
    {
        "name": "Kalvehave",
        "zip_code": "4771"
    },
    {
        "name": "Langebæk",
        "zip_code": "4772"
    },
    {
        "name": "Stensved",
        "zip_code": "4773"
    },
    {
        "name": "Stege",
        "zip_code": "4780"
    },
    {
        "name": "Borre",
        "zip_code": "4791"
    },
    {
        "name": "Askeby",
        "zip_code": "4792"
    },
    {
        "name": "Bogø By",
        "zip_code": "4793"
    },
    {
        "name": "Harndrup",
        "zip_code": "5463"
    },
    {
        "name": "Brenderup Fyn",
        "zip_code": "5464"
    },
    {
        "name": "Asperup",
        "zip_code": "5466"
    },
    {
        "name": "Middelfart",
        "zip_code": "5500"
    },
    {
        "name": "Nørre Aaby",
        "zip_code": "5580"
    },
    {
        "name": "Gelsted",
        "zip_code": "5591"
    },
    {
        "name": "Ejby",
        "zip_code": "5592"
    },
    {
        "name": "Vissenbjerg",
        "zip_code": "5492"
    },
    {
        "name": "Aarup",
        "zip_code": "5560"
    },
    {
        "name": "Assens",
        "zip_code": "5610"
    },
    {
        "name": "Glamsbjerg",
        "zip_code": "5620"
    },
    {
        "name": "Ebberup",
        "zip_code": "5631"
    },
    {
        "name": "Haarby",
        "zip_code": "5683"
    },
    {
        "name": "Tommerup",
        "zip_code": "5690"
    },
    {
        "name": "Faaborg",
        "zip_code": "5600"
    },
    {
        "name": "Lyø",
        "zip_code": "5601"
    },
    {
        "name": "Avernakø",
        "zip_code": "5602"
    },
    {
        "name": "Bjørnø",
        "zip_code": "5603"
    },
    {
        "name": "Millinge",
        "zip_code": "5642"
    },
    {
        "name": "Broby",
        "zip_code": "5672"
    },
    {
        "name": "Ringe",
        "zip_code": "5750"
    },
    {
        "name": "Kværndrup",
        "zip_code": "5772"
    },
    {
        "name": "Årslev",
        "zip_code": "5792"
    },
    {
        "name": "Gislev",
        "zip_code": "5854"
    },
    {
        "name": "Ryslinge",
        "zip_code": "5856"
    },
    {
        "name": "Ferritslev Fyn",
        "zip_code": "5863"
    },
    {
        "name": "Marslev",
        "zip_code": "5290"
    },
    {
        "name": "Kerteminde",
        "zip_code": "5300"
    },
    {
        "name": "Munkebo",
        "zip_code": "5330"
    },
    {
        "name": "Rynkeby",
        "zip_code": "5350"
    },
    {
        "name": "Mesinge",
        "zip_code": "5370"
    },
    {
        "name": "Dalby",
        "zip_code": "5380"
    },
    {
        "name": "Martofte",
        "zip_code": "5390"
    },
    {
        "name": "Langeskov",
        "zip_code": "5550"
    },
    {
        "name": "Ullerslev",
        "zip_code": "5540"
    },
    {
        "name": "Nyborg",
        "zip_code": "5800"
    },
    {
        "name": "Ørbæk",
        "zip_code": "5853"
    },
    {
        "name": "Frørup",
        "zip_code": "5871"
    },
    {
        "name": "Odense C",
        "zip_code": "5000"
    },
    {
        "name": "Odense V",
        "zip_code": "5200"
    },
    {
        "name": "Odense NV",
        "zip_code": "5210"
    },
    {
        "name": "Odense SØ",
        "zip_code": "5220"
    },
    {
        "name": "Odense M",
        "zip_code": "5230"
    },
    {
        "name": "Odense NØ",
        "zip_code": "5240"
    },
    {
        "name": "Odense SV",
        "zip_code": "5250"
    },
    {
        "name": "Odense S",
        "zip_code": "5260"
    },
    {
        "name": "Odense N",
        "zip_code": "5270"
    },
    {
        "name": "Agedrup",
        "zip_code": "5320"
    },
    {
        "name": "Blommenslyst",
        "zip_code": "5491"
    },
    {
        "name": "Svendborg",
        "zip_code": "5700"
    },
    {
        "name": "Vester Skerninge",
        "zip_code": "5762"
    },
    {
        "name": "Stenstrup",
        "zip_code": "5771"
    },
    {
        "name": "Hesselager",
        "zip_code": "5874"
    },
    {
        "name": "Skårup Fyn",
        "zip_code": "5881"
    },
    {
        "name": "Vejstrup",
        "zip_code": "5882"
    },
    {
        "name": "Oure",
        "zip_code": "5883"
    },
    {
        "name": "Gudme",
        "zip_code": "5884"
    },
    {
        "name": "Gudbjerg Sydfyn",
        "zip_code": "5892"
    },
    {
        "name": "Bogense",
        "zip_code": "5400"
    },
    {
        "name": "Otterup",
        "zip_code": "5450"
    },
    {
        "name": "Morud",
        "zip_code": "5462"
    },
    {
        "name": "Søndersø",
        "zip_code": "5471"
    },
    {
        "name": "Veflinge",
        "zip_code": "5474"
    },
    {
        "name": "Skamby",
        "zip_code": "5485"
    },
    {
        "name": "Rudkøbing",
        "zip_code": "5900"
    },
    {
        "name": "Humble",
        "zip_code": "5932"
    },
    {
        "name": "Bagenkop",
        "zip_code": "5935"
    },
    {
        "name": "Strynø",
        "zip_code": "5943"
    },
    {
        "name": "Tranekær",
        "zip_code": "5953"
    },
    {
        "name": "Marstal",
        "zip_code": "5960"
    },
    {
        "name": "Birkholm",
        "zip_code": "5965"
    },
    {
        "name": "Ærøskøbing",
        "zip_code": "5970"
    },
    {
        "name": "Søby Ærø",
        "zip_code": "5985"
    },
    {
        "name": "Haderslev",
        "zip_code": "6100"
    },
    {
        "name": "Vojens",
        "zip_code": "6500"
    },
    {
        "name": "Gram",
        "zip_code": "6510"
    },
    {
        "name": "Bevtoft",
        "zip_code": "6541"
    },
    {
        "name": "Sommersted",
        "zip_code": "6560"
    },
    {
        "name": "Vorbasse",
        "zip_code": "6623"
    },
    {
        "name": "Billund",
        "zip_code": "7190"
    },
    {
        "name": "Grindsted",
        "zip_code": "7200"
    },
    {
        "name": "Hejnsvig",
        "zip_code": "7250"
    },
    {
        "name": "Sønder Omme",
        "zip_code": "7260"
    },
    {
        "name": "Gråsten",
        "zip_code": "6300"
    },
    {
        "name": "Broager",
        "zip_code": "6310"
    },
    {
        "name": "Egernsund",
        "zip_code": "6320"
    },
    {
        "name": "Sønderborg",
        "zip_code": "6400"
    },
    {
        "name": "Nordborg",
        "zip_code": "6430"
    },
    {
        "name": "Augustenborg",
        "zip_code": "6440"
    },
    {
        "name": "Sydals",
        "zip_code": "6470"
    },
    {
        "name": "Løgumkloster",
        "zip_code": "6240"
    },
    {
        "name": "Bredebro",
        "zip_code": "6261"
    },
    {
        "name": "Tønder",
        "zip_code": "6270"
    },
    {
        "name": "Højer",
        "zip_code": "6280"
    },
    {
        "name": "Toftlund",
        "zip_code": "6520"
    },
    {
        "name": "Agerskov",
        "zip_code": "6534"
    },
    {
        "name": "Branderup J",
        "zip_code": "6535"
    },
    {
        "name": "Skærbæk",
        "zip_code": "6780"
    },
    {
        "name": "Rømø",
        "zip_code": "6792"
    },
    {
        "name": "Gørding",
        "zip_code": "6690"
    },
    {
        "name": "Esbjerg",
        "zip_code": "6700"
    },
    {
        "name": "Esbjerg Ø",
        "zip_code": "6705"
    },
    {
        "name": "Esbjerg V",
        "zip_code": "6710"
    },
    {
        "name": "Esbjerg N",
        "zip_code": "6715"
    },
    {
        "name": "Tjæreborg",
        "zip_code": "6731"
    },
    {
        "name": "Bramming",
        "zip_code": "6740"
    },
    {
        "name": "Ribe",
        "zip_code": "6760"
    },
    {
        "name": "Gredstedbro",
        "zip_code": "6771"
    },
    {
        "name": "Fanø",
        "zip_code": "6720"
    },
    {
        "name": "Agerbæk",
        "zip_code": "6753"
    },
    {
        "name": "Varde",
        "zip_code": "6800"
    },
    {
        "name": "Årre",
        "zip_code": "6818"
    },
    {
        "name": "Ansager",
        "zip_code": "6823"
    },
    {
        "name": "Nørre Nebel",
        "zip_code": "6830"
    },
    {
        "name": "Oksbøl",
        "zip_code": "6840"
    },
    {
        "name": "Janderup Vestj",
        "zip_code": "6851"
    },
    {
        "name": "Billum",
        "zip_code": "6852"
    },
    {
        "name": "Vejers Strand",
        "zip_code": "6853"
    },
    {
        "name": "Henne",
        "zip_code": "6854"
    },
    {
        "name": "Outrup",
        "zip_code": "6855"
    },
    {
        "name": "Blåvand",
        "zip_code": "6857"
    },
    {
        "name": "Tistrup",
        "zip_code": "6862"
    },
    {
        "name": "Ølgod",
        "zip_code": "6870"
    },
    {
        "name": "Vejen",
        "zip_code": "6600"
    },
    {
        "name": "Gesten",
        "zip_code": "6621"
    },
    {
        "name": "Bække",
        "zip_code": "6622"
    },
    {
        "name": "Rødding",
        "zip_code": "6630"
    },
    {
        "name": "Brørup",
        "zip_code": "6650"
    },
    {
        "name": "Lintrup",
        "zip_code": "6660"
    },
    {
        "name": "Holsted",
        "zip_code": "6670"
    },
    {
        "name": "Hovborg",
        "zip_code": "6682"
    },
    {
        "name": "Føvling",
        "zip_code": "6683"
    },
    {
        "name": "Glejbjerg",
        "zip_code": "6752"
    },
    {
        "name": "Aabenraa",
        "zip_code": "6200"
    },
    {
        "name": "Barsø",
        "zip_code": "6210"
    },
    {
        "name": "Rødekro",
        "zip_code": "6230"
    },
    {
        "name": "Padborg",
        "zip_code": "6330"
    },
    {
        "name": "Kruså",
        "zip_code": "6340"
    },
    {
        "name": "Tinglev",
        "zip_code": "6360"
    },
    {
        "name": "Bylderup-Bov",
        "zip_code": "6372"
    },
    {
        "name": "Bolderslev",
        "zip_code": "6392"
    },
    {
        "name": "Fredericia",
        "zip_code": "7000"
    },
    {
        "name": "Kolding",
        "zip_code": "6000"
    },
    {
        "name": "Almind",
        "zip_code": "6051"
    },
    {
        "name": "Viuf",
        "zip_code": "6052"
    },
    {
        "name": "Jordrup",
        "zip_code": "6064"
    },
    {
        "name": "Christiansfeld",
        "zip_code": "6070"
    },
    {
        "name": "Bjert",
        "zip_code": "6091"
    },
    {
        "name": "Sønder Stenderup",
        "zip_code": "6092"
    },
    {
        "name": "Sjølund",
        "zip_code": "6093"
    },
    {
        "name": "Hejls",
        "zip_code": "6094"
    },
    {
        "name": "Vamdrup",
        "zip_code": "6580"
    },
    {
        "name": "Lunderskov",
        "zip_code": "6640"
    },
    {
        "name": "Egtved",
        "zip_code": "6040"
    },
    {
        "name": "Børkop",
        "zip_code": "7080"
    },
    {
        "name": "Vejle",
        "zip_code": "7100"
    },
    {
        "name": "Vejle Øst",
        "zip_code": "7120"
    },
    {
        "name": "Vonge",
        "zip_code": "7173"
    },
    {
        "name": "Bredsten",
        "zip_code": "7182"
    },
    {
        "name": "Randbøl",
        "zip_code": "7183"
    },
    {
        "name": "Vandel",
        "zip_code": "7184"
    },
    {
        "name": "Jelling",
        "zip_code": "7300"
    },
    {
        "name": "Gadbjerg",
        "zip_code": "7321"
    },
    {
        "name": "Give",
        "zip_code": "7323"
    },
    {
        "name": "Aalborg",
        "zip_code": "9100"
    },
    {
        "name": "Aarhus C",
        "zip_code": "8100"
    },
    {
        "name": "Risskov Ø",
        "zip_code": "8245"
    },
    {
        "name": "Odense C",
        "zip_code": "5100"
    },
    {
        "name": "Esbjerg",
        "zip_code": "6701"
    },
    {
        "name": "Fredericia",
        "zip_code": "7007"
    },
    {
        "name": "København C",
        "zip_code": "0900"
    },
    {
        "name": "Udland",
        "zip_code": "0960"
    },
    {
        "name": "København C",
        "zip_code": "0999"
    },
    {
        "name": "København K",
        "zip_code": "1001"
    },
    {
        "name": "København K",
        "zip_code": "1002"
    },
    {
        "name": "København K",
        "zip_code": "1003"
    },
    {
        "name": "København K",
        "zip_code": "1004"
    },
    {
        "name": "København K",
        "zip_code": "1005"
    },
    {
        "name": "København K",
        "zip_code": "1006"
    },
    {
        "name": "København K",
        "zip_code": "1007"
    },
    {
        "name": "København K",
        "zip_code": "1008"
    },
    {
        "name": "København K",
        "zip_code": "1009"
    },
    {
        "name": "København K",
        "zip_code": "1010"
    },
    {
        "name": "København K",
        "zip_code": "1011"
    },
    {
        "name": "København K",
        "zip_code": "1012"
    },
    {
        "name": "København K",
        "zip_code": "1013"
    },
    {
        "name": "København K",
        "zip_code": "1014"
    },
    {
        "name": "København K",
        "zip_code": "1015"
    },
    {
        "name": "København K",
        "zip_code": "1016"
    },
    {
        "name": "København K",
        "zip_code": "1017"
    },
    {
        "name": "København K",
        "zip_code": "1018"
    },
    {
        "name": "København K",
        "zip_code": "1019"
    },
    {
        "name": "København K",
        "zip_code": "1020"
    },
    {
        "name": "København K",
        "zip_code": "1021"
    },
    {
        "name": "København K",
        "zip_code": "1022"
    },
    {
        "name": "København K",
        "zip_code": "1023"
    },
    {
        "name": "København K",
        "zip_code": "1024"
    },
    {
        "name": "København K",
        "zip_code": "1025"
    },
    {
        "name": "København K",
        "zip_code": "1026"
    },
    {
        "name": "København K",
        "zip_code": "1092"
    },
    {
        "name": "København K",
        "zip_code": "1093"
    },
    {
        "name": "København K",
        "zip_code": "1095"
    },
    {
        "name": "København K",
        "zip_code": "1098"
    },
    {
        "name": "København K",
        "zip_code": "1140"
    },
    {
        "name": "København K",
        "zip_code": "1147"
    },
    {
        "name": "København K",
        "zip_code": "1148"
    },
    {
        "name": "København K",
        "zip_code": "1217"
    },
    {
        "name": "København K",
        "zip_code": "1240"
    },
    {
        "name": "København K",
        "zip_code": "1448"
    },
    {
        "name": "København V",
        "zip_code": "1500"
    },
    {
        "name": "København V",
        "zip_code": "1501"
    },
    {
        "name": "København V",
        "zip_code": "1502"
    },
    {
        "name": "København V",
        "zip_code": "1503"
    },
    {
        "name": "København V",
        "zip_code": "1504"
    },
    {
        "name": "København V",
        "zip_code": "1505"
    },
    {
        "name": "København V",
        "zip_code": "1506"
    },
    {
        "name": "København V",
        "zip_code": "1507"
    },
    {
        "name": "København V",
        "zip_code": "1508"
    },
    {
        "name": "København V",
        "zip_code": "1509"
    },
    {
        "name": "København V",
        "zip_code": "1510"
    },
    {
        "name": "Centraltastning",
        "zip_code": "1513"
    },
    {
        "name": "København V",
        "zip_code": "1592"
    },
    {
        "name": "København V",
        "zip_code": "1599"
    },
    {
        "name": "København V",
        "zip_code": "1630"
    },
    {
        "name": "København V",
        "zip_code": "1780"
    },
    {
        "name": "København V",
        "zip_code": "1785"
    },
    {
        "name": "København V",
        "zip_code": "1786"
    },
    {
        "name": "København V",
        "zip_code": "1787"
    },
    {
        "name": "København V",
        "zip_code": "1790"
    },
    {
        "name": "Frederiksberg C",
        "zip_code": "1835"
    },
    {
        "name": "Københavns Pakkecent",
        "zip_code": "0917"
    },
    {
        "name": "Høje Taastrup",
        "zip_code": "0800"
    },
    {
        "name": "København V",
        "zip_code": "1532"
    },
    {
        "name": "København V",
        "zip_code": "1533"
    }
]