[
    {
        "name": "Española Hood-Puerto Baquerizo Moreno",
        "zip_code": "200101"
    },
    {
        "name": "El Progreso",
        "zip_code": "200104"
    },
    {
        "name": "Puerto Villamil",
        "zip_code": "200103"
    },
    {
        "name": "Isla Fernandina Narborough",
        "zip_code": "200107"
    },
    {
        "name": "Puerto Ayora",
        "zip_code": "200102"
    },
    {
        "name": "Bellavista",
        "zip_code": "200105"
    },
    {
        "name": "Isla Pinzon",
        "zip_code": "200106"
    },
    {
        "name": "Cuenca_El Vecino",
        "zip_code": "010101"
    },
    {
        "name": "Cuenca_El Vecino",
        "zip_code": "010102"
    },
    {
        "name": "Cuenca_Totorocoha",
        "zip_code": "010103"
    },
    {
        "name": "Cuenca_Totorocoha",
        "zip_code": "010104"
    },
    {
        "name": "Cuenca_Cañaribamba",
        "zip_code": "010105"
    },
    {
        "name": "Cuenca_San Blas",
        "zip_code": "010106"
    },
    {
        "name": "Cuenca_El Sagrario",
        "zip_code": "010107"
    },
    {
        "name": "Cuenca_Gil Ramirez Davalos",
        "zip_code": "010108"
    },
    {
        "name": "Cuenca_Bellavista",
        "zip_code": "010109"
    },
    {
        "name": "Cuenca_Bellavista",
        "zip_code": "010110"
    },
    {
        "name": "Sinincay",
        "zip_code": "010111"
    },
    {
        "name": "Cuenca_Hermano Miguel",
        "zip_code": "010112"
    },
    {
        "name": "Cuenca_Machangara",
        "zip_code": "010113"
    },
    {
        "name": "Cuenca_Machangara",
        "zip_code": "010114"
    },
    {
        "name": "Paccha-Nulti",
        "zip_code": "010115"
    },
    {
        "name": "San Joaquin",
        "zip_code": "010116"
    },
    {
        "name": "Sayausi",
        "zip_code": "010117"
    },
    {
        "name": "Checa (Jidcay)-Chiquintad",
        "zip_code": "010118"
    },
    {
        "name": "Octavio Cordero Palacios (Sta. Rosa)-Sidcay",
        "zip_code": "010119"
    },
    {
        "name": "Ricaurte-Llacao",
        "zip_code": "010120"
    },
    {
        "name": "Cuenca_Yanuncay",
        "zip_code": "010201"
    },
    {
        "name": "Cuenca_Sucre",
        "zip_code": "010202"
    },
    {
        "name": "Cuenca_Sucre",
        "zip_code": "010203"
    },
    {
        "name": "Cuenca_Huayna Capac",
        "zip_code": "010204"
    },
    {
        "name": "Cuenca_Yanuncay",
        "zip_code": "010205"
    },
    {
        "name": "Cuenca_Yanuncay",
        "zip_code": "010206"
    },
    {
        "name": "Cuenca_El Batan",
        "zip_code": "010207"
    },
    {
        "name": "Cuenca_San Sebastian",
        "zip_code": "010208"
    },
    {
        "name": "Cuenca_San Sebastian",
        "zip_code": "010209"
    },
    {
        "name": "Cuenca_Monay",
        "zip_code": "010210"
    },
    {
        "name": "Valle",
        "zip_code": "010211"
    },
    {
        "name": "Valle",
        "zip_code": "010212"
    },
    {
        "name": "Turi",
        "zip_code": "010213"
    },
    {
        "name": "Baños",
        "zip_code": "010214"
    },
    {
        "name": "Santa Ana",
        "zip_code": "010215"
    },
    {
        "name": "Quingeo",
        "zip_code": "010216"
    },
    {
        "name": "Tarqui",
        "zip_code": "010217"
    },
    {
        "name": "Valle",
        "zip_code": "010218"
    },
    {
        "name": "Chaucha",
        "zip_code": "010219"
    },
    {
        "name": "Molleturo",
        "zip_code": "010220"
    },
    {
        "name": "Giron-San Gerardo-Asuncion",
        "zip_code": "010303"
    },
    {
        "name": "Gualaceo",
        "zip_code": "010401"
    },
    {
        "name": "Gualaceo",
        "zip_code": "010402"
    },
    {
        "name": "Daniel Cordova Toral (El Oriente)-Remigio Crespo Toral (Gulag)-Luis Cordero Vega-Mariano Moreno",
        "zip_code": "010403"
    },
    {
        "name": "San Juan-Simon Bolivar (Cab. En Gañanzol)",
        "zip_code": "010405"
    },
    {
        "name": "Zhidmad",
        "zip_code": "010406"
    },
    {
        "name": "Jadan",
        "zip_code": "010407"
    },
    {
        "name": "El Progreso (Cab.En Zhiota)-Las Nieves (Chaya)",
        "zip_code": "010502"
    },
    {
        "name": "Nabon-Cochapata",
        "zip_code": "010503"
    },
    {
        "name": "Guarainag-Tomebamba-Dug Dug-Bulan (Jose Victor Izquierdo)",
        "zip_code": "010602"
    },
    {
        "name": "San Cristobal (Carlos Ordoñez Lazo)-Chican (Guillermo Ortega)-El Cabo-Paute",
        "zip_code": "010606"
    },
    {
        "name": "San Rafael De Sharug",
        "zip_code": "010304"
    },
    {
        "name": "Pucara",
        "zip_code": "010305"
    },
    {
        "name": "Pucara",
        "zip_code": "010306"
    },
    {
        "name": "San Fernando-Chumblin",
        "zip_code": "010302"
    },
    {
        "name": "Abdon Calderon (La Union)-Santa Isabel (Chaguarurco)-Zhaglli (Shaglli )",
        "zip_code": "010301"
    },
    {
        "name": "Jima (Gima)",
        "zip_code": "010801"
    },
    {
        "name": "Ludo-San Jose De Raranga",
        "zip_code": "010802"
    },
    {
        "name": "San Bartolome-Guel-Sigsig-Cuchil (Cutchil)",
        "zip_code": "010803"
    },
    {
        "name": "Susudel-San Felipe De Oña",
        "zip_code": "010501"
    },
    {
        "name": "San Martin De Puzhio-Luis Galarza Orellana (Cab. En Delegsol)-Principal-Chordeleg-La Union",
        "zip_code": "010404"
    },
    {
        "name": "El Pan-San Vicente",
        "zip_code": "010605"
    },
    {
        "name": "Amaluza-Palamas",
        "zip_code": "010603"
    },
    {
        "name": "Sevilla De Oro",
        "zip_code": "010604"
    },
    {
        "name": "Guachapala",
        "zip_code": "010601"
    },
    {
        "name": "Camilo Ponce Enriquez",
        "zip_code": "010701"
    },
    {
        "name": "El Carmen De Pijili",
        "zip_code": "010702"
    },
    {
        "name": "Camilo Ponce Enriquez",
        "zip_code": "010703"
    },
    {
        "name": "Guaranda",
        "zip_code": "020101"
    },
    {
        "name": "Guaranda",
        "zip_code": "020102"
    },
    {
        "name": "Guaranda",
        "zip_code": "020103"
    },
    {
        "name": "Guaranda",
        "zip_code": "020104"
    },
    {
        "name": "Santafe (Santa Fe)-Julio E. Moreno (Catanahuan Grande)-San Simon (Yacoto)-Sanlorenzo",
        "zip_code": "020105"
    },
    {
        "name": "Guaranda",
        "zip_code": "020106"
    },
    {
        "name": "Guaranda",
        "zip_code": "020107"
    },
    {
        "name": "Salinas",
        "zip_code": "020108"
    },
    {
        "name": "Simiatug",
        "zip_code": "020109"
    },
    {
        "name": "San Luis De Pambil",
        "zip_code": "020110"
    },
    {
        "name": "Facundo Vela",
        "zip_code": "020111"
    },
    {
        "name": "Chillanes",
        "zip_code": "020201"
    },
    {
        "name": "San Jose Del Tambo (Tambopamba)",
        "zip_code": "020202"
    },
    {
        "name": "San Sebastian-San Jose De Chimbo",
        "zip_code": "020302"
    },
    {
        "name": "Telimbela",
        "zip_code": "020306"
    },
    {
        "name": "Magdalena (Chapacoto)-Asuncion (Asancoto)",
        "zip_code": "020307"
    },
    {
        "name": "Echeandia",
        "zip_code": "020401"
    },
    {
        "name": "San Miguel",
        "zip_code": "020301"
    },
    {
        "name": "Santiago-San Vicente",
        "zip_code": "020303"
    },
    {
        "name": "San Pablo (San Pablo De Atenas)",
        "zip_code": "020304"
    },
    {
        "name": "Balsapamba-Bilovan-Regulo De Mora",
        "zip_code": "020305"
    },
    {
        "name": "Caluma",
        "zip_code": "020403"
    },
    {
        "name": "Las Naves",
        "zip_code": "020402"
    },
    {
        "name": "Azogues",
        "zip_code": "030101"
    },
    {
        "name": "Azogues",
        "zip_code": "030102"
    },
    {
        "name": "Luis Cordero",
        "zip_code": "030103"
    },
    {
        "name": "San Miguel",
        "zip_code": "030104"
    },
    {
        "name": "Cojitambo-Javier Loyola (Chuquipata)",
        "zip_code": "030105"
    },
    {
        "name": "Guapan",
        "zip_code": "030107"
    },
    {
        "name": "Azogues",
        "zip_code": "030108"
    },
    {
        "name": "Pindilig-Rivera-Taday",
        "zip_code": "030112"
    },
    {
        "name": "Turupamba-San Francisco De Sageo-Biblian",
        "zip_code": "030106"
    },
    {
        "name": "Nazon (Cab. En Pampa De Dominguez)",
        "zip_code": "030110"
    },
    {
        "name": "Jerusalen",
        "zip_code": "030111"
    },
    {
        "name": "Cañar",
        "zip_code": "030201"
    },
    {
        "name": "Honorato Vasquez (Tambo Viejo)-Ingapirca",
        "zip_code": "030203"
    },
    {
        "name": "Gualleturo-San Antonio-Chorocopte",
        "zip_code": "030204"
    },
    {
        "name": "Gualleturo-San Antonio-Chorocopte",
        "zip_code": "030205"
    },
    {
        "name": "Zhud-Juncal",
        "zip_code": "030207"
    },
    {
        "name": "General Morales (Socarte)-Ventura-Chontamarca-Ducur",
        "zip_code": "030208"
    },
    {
        "name": "La Troncal",
        "zip_code": "030301"
    },
    {
        "name": "La Troncal",
        "zip_code": "030302"
    },
    {
        "name": "La Troncal",
        "zip_code": "030303"
    },
    {
        "name": "Manuel J. Calle-Pancho Negro",
        "zip_code": "030304"
    },
    {
        "name": "El Tambo",
        "zip_code": "030202"
    },
    {
        "name": "Deleg-Solano",
        "zip_code": "030109"
    },
    {
        "name": "Suscal",
        "zip_code": "030206"
    },
    {
        "name": "Tulcan",
        "zip_code": "040101"
    },
    {
        "name": "Tulcan",
        "zip_code": "040102"
    },
    {
        "name": "Tulcan",
        "zip_code": "040103"
    },
    {
        "name": "Tulcan",
        "zip_code": "040104"
    },
    {
        "name": "Urbina (Taya)",
        "zip_code": "040105"
    },
    {
        "name": "Tulcan",
        "zip_code": "040106"
    },
    {
        "name": "Tulcan",
        "zip_code": "040107"
    },
    {
        "name": "Tulcan",
        "zip_code": "040108"
    },
    {
        "name": "Julio Andrade (Orejuela)-El Carmelo (El Pun)",
        "zip_code": "040109"
    },
    {
        "name": "Pioter-Santa Martha De Cuba",
        "zip_code": "040111"
    },
    {
        "name": "Tufiño",
        "zip_code": "040112"
    },
    {
        "name": "Maldonado-Tobar Donoso (La Bocana De Camunbi)-El Chical",
        "zip_code": "040113"
    },
    {
        "name": "Los Andes-Bolivar",
        "zip_code": "040201"
    },
    {
        "name": "San Rafael-Monte Olivo",
        "zip_code": "040203"
    },
    {
        "name": "San Vicente De Pusir-Garcia Moreno",
        "zip_code": "040204"
    },
    {
        "name": "San Isidro-La Libertad (Alizo)-El Angel",
        "zip_code": "040301"
    },
    {
        "name": "El Goaltal",
        "zip_code": "040304"
    },
    {
        "name": "Juan Montalvo (San Ignacio De Quil)-Mira (Chontahuasi)",
        "zip_code": "040302"
    },
    {
        "name": "Concepcion-Jijon Y Caamaño (Cab. En Rio Blanco)",
        "zip_code": "040303"
    },
    {
        "name": "La Paz",
        "zip_code": "040202"
    },
    {
        "name": "San Gabriel",
        "zip_code": "040205"
    },
    {
        "name": "San Gabriel",
        "zip_code": "040206"
    },
    {
        "name": "Cristobal Colon-Fernandez Salvador-Piartal-Chitan De Navarrete",
        "zip_code": "040207"
    },
    {
        "name": "Huaca-Mariscal Sucre",
        "zip_code": "040110"
    },
    {
        "name": "Riobamba",
        "zip_code": "060101"
    },
    {
        "name": "Riobamba",
        "zip_code": "060102"
    },
    {
        "name": "Riobamba",
        "zip_code": "060103"
    },
    {
        "name": "Riobamba",
        "zip_code": "060104"
    },
    {
        "name": "Riobamba",
        "zip_code": "060105"
    },
    {
        "name": "Riobamba",
        "zip_code": "060106"
    },
    {
        "name": "Riobamba",
        "zip_code": "060107"
    },
    {
        "name": "Riobamba",
        "zip_code": "060108"
    },
    {
        "name": "Riobamba",
        "zip_code": "060109"
    },
    {
        "name": "Riobamba",
        "zip_code": "060110"
    },
    {
        "name": "Riobamba",
        "zip_code": "060111"
    },
    {
        "name": "Riobamba",
        "zip_code": "060112"
    },
    {
        "name": "Riobamba",
        "zip_code": "060113"
    },
    {
        "name": "Riobamba",
        "zip_code": "060114"
    },
    {
        "name": "Lican",
        "zip_code": "060115"
    },
    {
        "name": "Cubijies-Quimiag",
        "zip_code": "060116"
    },
    {
        "name": "San Luis-Cacha (Cab. En Machangara)",
        "zip_code": "060117"
    },
    {
        "name": "San Juan-Calpi",
        "zip_code": "060118"
    },
    {
        "name": "Licto-Pungala",
        "zip_code": "060120"
    },
    {
        "name": "Punin-Flores",
        "zip_code": "060121"
    },
    {
        "name": "Alausi",
        "zip_code": "060202"
    },
    {
        "name": "Guasuntos-Pumallacta-Sevilla",
        "zip_code": "060203"
    },
    {
        "name": "Achupallas",
        "zip_code": "060204"
    },
    {
        "name": "Multitud-Sibambe-Huigra-Pistishi (Nariz Del Diablo)",
        "zip_code": "060206"
    },
    {
        "name": "Tixan",
        "zip_code": "060207"
    },
    {
        "name": "Columbe",
        "zip_code": "060405"
    },
    {
        "name": "Villa La Union (Cajabamba)",
        "zip_code": "060406"
    },
    {
        "name": "Villa La Union (Cajabamba)",
        "zip_code": "060407"
    },
    {
        "name": "Santiago De Quito (Cab. En San",
        "zip_code": "060408"
    },
    {
        "name": "Juan De Velasco (Pangor)-Cañi",
        "zip_code": "060410"
    },
    {
        "name": "Chambo",
        "zip_code": "060119"
    },
    {
        "name": "Gonzol-Chunchi",
        "zip_code": "060201"
    },
    {
        "name": "Capzol-Compud-Llagos",
        "zip_code": "060205"
    },
    {
        "name": "Guamote",
        "zip_code": "060401"
    },
    {
        "name": "Cebadas",
        "zip_code": "060402"
    },
    {
        "name": "Guamote",
        "zip_code": "060403"
    },
    {
        "name": "Guamote",
        "zip_code": "060404"
    },
    {
        "name": "Palmira",
        "zip_code": "060409"
    },
    {
        "name": "Guano-La Providencia-Guanando-Sangerardo De Pacaicaguan",
        "zip_code": "060501"
    },
    {
        "name": "Ilapo-San Jose De Chazo-Valparaiso-Santa Fe De Galan",
        "zip_code": "060502"
    },
    {
        "name": "San Andres-San Isidro De Patulu",
        "zip_code": "060504"
    },
    {
        "name": "Pallatanga",
        "zip_code": "060302"
    },
    {
        "name": "Puela-El Altar-San Antonio De Bayushig-La Candelaria-Bilbao (Cab. En Quilluyacu) Panipe-Matus",
        "zip_code": "060503"
    },
    {
        "name": "Cumanda",
        "zip_code": "060301"
    },
    {
        "name": "Latacunga",
        "zip_code": "050101"
    },
    {
        "name": "Latacunga",
        "zip_code": "050102"
    },
    {
        "name": "Latacunga",
        "zip_code": "050103"
    },
    {
        "name": "Latacunga",
        "zip_code": "050104"
    },
    {
        "name": "Latacunga",
        "zip_code": "050105"
    },
    {
        "name": "Latacunga",
        "zip_code": "050106"
    },
    {
        "name": "Latacunga",
        "zip_code": "050107"
    },
    {
        "name": "Latacunga",
        "zip_code": "050108"
    },
    {
        "name": "Latacunga",
        "zip_code": "050109"
    },
    {
        "name": "Poalo-11 De Noviembre (Ilinchisi)",
        "zip_code": "050110"
    },
    {
        "name": "Guaitacama (Guaytacama)",
        "zip_code": "050111"
    },
    {
        "name": "Joseguango Bajo-Alaques (Alaquez)",
        "zip_code": "050112"
    },
    {
        "name": "Latacunga",
        "zip_code": "050113"
    },
    {
        "name": "Belisario Quevedo (Guanailin)",
        "zip_code": "050114"
    },
    {
        "name": "Toacaso",
        "zip_code": "050115"
    },
    {
        "name": "Tanicuchi",
        "zip_code": "050116"
    },
    {
        "name": "Mulalo",
        "zip_code": "050117"
    },
    {
        "name": "San Juan De Pastocalle",
        "zip_code": "050118"
    },
    {
        "name": "La Mana",
        "zip_code": "050201"
    },
    {
        "name": "La Mana",
        "zip_code": "050202"
    },
    {
        "name": "Pucayacu-Guasaganda (Cab. En Guasaganda Centro)",
        "zip_code": "050203"
    },
    {
        "name": "El Corazon",
        "zip_code": "050301"
    },
    {
        "name": "Pinllopata",
        "zip_code": "050302"
    },
    {
        "name": "Ramon Campaña",
        "zip_code": "050303"
    },
    {
        "name": "Moraspungo",
        "zip_code": "050304"
    },
    {
        "name": "Pujili",
        "zip_code": "050401"
    },
    {
        "name": "La Victoria",
        "zip_code": "050402"
    },
    {
        "name": "Pujili",
        "zip_code": "050404"
    },
    {
        "name": "Pujili",
        "zip_code": "050405"
    },
    {
        "name": "Guangaje",
        "zip_code": "050406"
    },
    {
        "name": "Zumbahua",
        "zip_code": "050408"
    },
    {
        "name": "Angamarca",
        "zip_code": "050409"
    },
    {
        "name": "Pilalo",
        "zip_code": "050410"
    },
    {
        "name": "Tingo",
        "zip_code": "050411"
    },
    {
        "name": "Mulliquindil (Santa Ana)",
        "zip_code": "050601"
    },
    {
        "name": "San Miguel",
        "zip_code": "050602"
    },
    {
        "name": "Mulalillo-Pansaleo-Antonio Jose Holguin (Santa Lucia)",
        "zip_code": "050603"
    },
    {
        "name": "Cusubamba",
        "zip_code": "050604"
    },
    {
        "name": "Chantilin-Saquisili",
        "zip_code": "050403"
    },
    {
        "name": "Cochapamba-Canchagua",
        "zip_code": "050407"
    },
    {
        "name": "Sigchos",
        "zip_code": "050501"
    },
    {
        "name": "Isinlivi",
        "zip_code": "050502"
    },
    {
        "name": "Chugchillan",
        "zip_code": "050503"
    },
    {
        "name": "Palo Quemado-Las Pampas",
        "zip_code": "050504"
    },
    {
        "name": "Machala",
        "zip_code": "070201"
    },
    {
        "name": "Machala",
        "zip_code": "070202"
    },
    {
        "name": "Machala",
        "zip_code": "070203"
    },
    {
        "name": "Machala",
        "zip_code": "070204"
    },
    {
        "name": "Machala",
        "zip_code": "070205"
    },
    {
        "name": "Machala",
        "zip_code": "070206"
    },
    {
        "name": "Machala",
        "zip_code": "070207"
    },
    {
        "name": "Machala",
        "zip_code": "070208"
    },
    {
        "name": "Machala",
        "zip_code": "070209"
    },
    {
        "name": "Machala",
        "zip_code": "070210"
    },
    {
        "name": "Machala",
        "zip_code": "070211"
    },
    {
        "name": "Machala",
        "zip_code": "070212"
    },
    {
        "name": "Machala",
        "zip_code": "070213"
    },
    {
        "name": "Machala",
        "zip_code": "070214"
    },
    {
        "name": "Machala",
        "zip_code": "070215"
    },
    {
        "name": "Machala",
        "zip_code": "070216"
    },
    {
        "name": "Machala",
        "zip_code": "070217"
    },
    {
        "name": "Machala",
        "zip_code": "070218"
    },
    {
        "name": "Machala",
        "zip_code": "070219"
    },
    {
        "name": "Machala",
        "zip_code": "070220"
    },
    {
        "name": "Machala",
        "zip_code": "070221"
    },
    {
        "name": "Machala",
        "zip_code": "070222"
    },
    {
        "name": "Machala",
        "zip_code": "070223"
    },
    {
        "name": "El Retiro",
        "zip_code": "070224"
    },
    {
        "name": "Carcabon-Chacras",
        "zip_code": "070505"
    },
    {
        "name": "Arenillas",
        "zip_code": "070506"
    },
    {
        "name": "Arenillas",
        "zip_code": "070507"
    },
    {
        "name": "Palmales",
        "zip_code": "070508"
    },
    {
        "name": "Cordoncillo-Paccha-Ayapamba-San Jose-Milagro",
        "zip_code": "070305"
    },
    {
        "name": "San Juan De Cerro Azul",
        "zip_code": "070308"
    },
    {
        "name": "Balsas-Bellamaria",
        "zip_code": "070404"
    },
    {
        "name": "Chilla",
        "zip_code": "070113"
    },
    {
        "name": "El Guabo",
        "zip_code": "070111"
    },
    {
        "name": "La Iberia",
        "zip_code": "070114"
    },
    {
        "name": "El Guabo",
        "zip_code": "070115"
    },
    {
        "name": "Tendales (Cab. En Puerto Tendales)-Barbones (Sucre)",
        "zip_code": "070116"
    },
    {
        "name": "Rio Bonito",
        "zip_code": "070117"
    },
    {
        "name": "Huaquillas",
        "zip_code": "070501"
    },
    {
        "name": "Huaquillas",
        "zip_code": "070502"
    },
    {
        "name": "Huaquillas",
        "zip_code": "070503"
    },
    {
        "name": "Huaquillas",
        "zip_code": "070504"
    },
    {
        "name": "El Ingenio-Marcabeli",
        "zip_code": "070406"
    },
    {
        "name": "Pasaje",
        "zip_code": "070101"
    },
    {
        "name": "Pasaje",
        "zip_code": "070102"
    },
    {
        "name": "Pasaje",
        "zip_code": "070103"
    },
    {
        "name": "Pasaje",
        "zip_code": "070104"
    },
    {
        "name": "Pasaje",
        "zip_code": "070105"
    },
    {
        "name": "Cañaquemada-La Peaña-Buenavista",
        "zip_code": "070106"
    },
    {
        "name": "Progreso",
        "zip_code": "070107"
    },
    {
        "name": "Casacay",
        "zip_code": "070108"
    },
    {
        "name": "Pasaje",
        "zip_code": "070109"
    },
    {
        "name": "Cañaquemada-La Peaña-Buenavista",
        "zip_code": "070110"
    },
    {
        "name": "Uzhcurrumi",
        "zip_code": "070112"
    },
    {
        "name": "San Roque (Ambrosio Maldonado)-Piñas",
        "zip_code": "070401"
    },
    {
        "name": "Capiro (Cab. En La Capilla De Capiro)",
        "zip_code": "070402"
    },
    {
        "name": "Moromoro (Cab. En El Vado)",
        "zip_code": "070403"
    },
    {
        "name": "La Bocana-Saracay-Piedras",
        "zip_code": "070405"
    },
    {
        "name": "Portovelo",
        "zip_code": "070304"
    },
    {
        "name": "Morales-Curtincapa",
        "zip_code": "070307"
    },
    {
        "name": "Salati",
        "zip_code": "070309"
    },
    {
        "name": "Santa Rosa",
        "zip_code": "070601"
    },
    {
        "name": "Santa Rosa",
        "zip_code": "070602"
    },
    {
        "name": "Santa Rosa",
        "zip_code": "070603"
    },
    {
        "name": "Torata-La Avanzada-Bellavista-San Antonio",
        "zip_code": "070604"
    },
    {
        "name": "Jambeli",
        "zip_code": "070605"
    },
    {
        "name": "Victoria",
        "zip_code": "070606"
    },
    {
        "name": "Bellamaria",
        "zip_code": "070607"
    },
    {
        "name": "Zaruma",
        "zip_code": "070301"
    },
    {
        "name": "Arcapamba-Malvas-Muluncay Grande-Huertas",
        "zip_code": "070302"
    },
    {
        "name": "Guizhaguiña-Salvias-Sinsao",
        "zip_code": "070303"
    },
    {
        "name": "Abañin-Guanazan",
        "zip_code": "070306"
    },
    {
        "name": "El Paraiso-San Isidro",
        "zip_code": "070509"
    },
    {
        "name": "La Libertad-La Victoria",
        "zip_code": "070510"
    },
    {
        "name": "Esmeraldas",
        "zip_code": "080101"
    },
    {
        "name": "Esmeraldas",
        "zip_code": "080102"
    },
    {
        "name": "Esmeraldas",
        "zip_code": "080103"
    },
    {
        "name": "Esmeraldas",
        "zip_code": "080104"
    },
    {
        "name": "Esmeraldas",
        "zip_code": "080105"
    },
    {
        "name": "Esmeraldas",
        "zip_code": "080106"
    },
    {
        "name": "Esmeraldas",
        "zip_code": "080107"
    },
    {
        "name": "Esmeraldas",
        "zip_code": "080108"
    },
    {
        "name": "Esmeraldas",
        "zip_code": "080109"
    },
    {
        "name": "Esmeraldas",
        "zip_code": "080110"
    },
    {
        "name": "Esmeraldas",
        "zip_code": "080111"
    },
    {
        "name": "Esmeraldas",
        "zip_code": "080112"
    },
    {
        "name": "Esmeraldas",
        "zip_code": "080113"
    },
    {
        "name": "Tachina-Camarones (Cab. En San Vicente)",
        "zip_code": "080114"
    },
    {
        "name": "Vuelta Larga",
        "zip_code": "080115"
    },
    {
        "name": "Esmeraldas",
        "zip_code": "080116"
    },
    {
        "name": "Esmeraldas",
        "zip_code": "080117"
    },
    {
        "name": "Esmeraldas",
        "zip_code": "080118"
    },
    {
        "name": "Esmeraldas",
        "zip_code": "080119"
    },
    {
        "name": "Vuelta Larga",
        "zip_code": "080120"
    },
    {
        "name": "Chinca-Majua-San Mateo",
        "zip_code": "080121"
    },
    {
        "name": "Vuelta Larga",
        "zip_code": "080122"
    },
    {
        "name": "Tabiazo-Crnel. Carlos C. Torres (Cab. En Huele)",
        "zip_code": "080123"
    },
    {
        "name": "La Tola-Pampanal De Bolivar-Valdez (Limones)",
        "zip_code": "080201"
    },
    {
        "name": "Luis V. Torres (Cab. En Playa De Oro)-Selva Alegre-Colon Eloy Del Maria-Maldonado-Timbire",
        "zip_code": "080202"
    },
    {
        "name": "San Jose De Cayapas-Telembi-Borbon-Atahualpa (Cab. En Camarones)",
        "zip_code": "080203"
    },
    {
        "name": "Santo Domingo De Onzole-San Francisco De Onzole-Anchayacu",
        "zip_code": "080204"
    },
    {
        "name": "San Gregorio-Muisne",
        "zip_code": "080301"
    },
    {
        "name": "Galera-San Francisco-Quingue (Olmedo Perdomo Franco)",
        "zip_code": "080302"
    },
    {
        "name": "Salima-San Jose De Chamanga",
        "zip_code": "080307"
    },
    {
        "name": "Bolivar-Daule",
        "zip_code": "080308"
    },
    {
        "name": "Rosa Zarate (Quininde)",
        "zip_code": "080401"
    },
    {
        "name": "Rosa Zarate (Quininde)",
        "zip_code": "080402"
    },
    {
        "name": "Rosa Zarate (Quininde)",
        "zip_code": "080403"
    },
    {
        "name": "Malimpia",
        "zip_code": "080404"
    },
    {
        "name": "Rosa Zarate (Quininde)",
        "zip_code": "080405"
    },
    {
        "name": "Rosa Zarate (Quininde)",
        "zip_code": "080406"
    },
    {
        "name": "Cube",
        "zip_code": "080407"
    },
    {
        "name": "Viche-Chura (Chancama) (Cab. En El Yerbero)",
        "zip_code": "080408"
    },
    {
        "name": "La Union",
        "zip_code": "080409"
    },
    {
        "name": "Rosa Zarate (Quininde)",
        "zip_code": "080410"
    },
    {
        "name": "Rosa Zarate (Quininde)",
        "zip_code": "080411"
    },
    {
        "name": "Mataje (Cab En Santander)-San Lorenzo-Ancon (Pichangal) (Cab. En Palma Real)",
        "zip_code": "080501"
    },
    {
        "name": "Carondelet-Calderon-Tululbi  (Cab En Ricaurte)-Santa Rita",
        "zip_code": "080502"
    },
    {
        "name": "Concepcion-San Javier De Cachavi-Urbina-Alto Tambo (Cab En Guadual)-5 De Junio (Cab En Uimbi)",
        "zip_code": "080503"
    },
    {
        "name": "Tambillo",
        "zip_code": "080504"
    },
    {
        "name": "Sua (Cab En La Bocana)-Tonchigue",
        "zip_code": "080303"
    },
    {
        "name": "La Union",
        "zip_code": "080304"
    },
    {
        "name": "Atacames",
        "zip_code": "080305"
    },
    {
        "name": "Tonsupa",
        "zip_code": "080306"
    },
    {
        "name": "Chontaduro-Chumunde-Rioverde",
        "zip_code": "080601"
    },
    {
        "name": "Montalvo (Cab En Horqueta)-Lagarto-Rocafuerte",
        "zip_code": "080602"
    },
    {
        "name": "Guayaquil-Union De Bananeros",
        "zip_code": "090101"
    },
    {
        "name": "Guayaquil-Floresta",
        "zip_code": "090102"
    },
    {
        "name": "Guayaquil-7 Lagos",
        "zip_code": "090103"
    },
    {
        "name": "Guayaquil-Centenario",
        "zip_code": "090104"
    },
    {
        "name": "Guayaquil-Guasmo",
        "zip_code": "090105"
    },
    {
        "name": "Guayaquil-Guasmo",
        "zip_code": "090106"
    },
    {
        "name": "Puna",
        "zip_code": "090107"
    },
    {
        "name": "Guayaquil- Trinitaria",
        "zip_code": "090201"
    },
    {
        "name": "Guayaquil-Malvinas",
        "zip_code": "090202"
    },
    {
        "name": "Guayaquil-Malvinas",
        "zip_code": "090203"
    },
    {
        "name": "Guayaquil- Esteros",
        "zip_code": "090204"
    },
    {
        "name": "Guayaquil- Esteros",
        "zip_code": "090205"
    },
    {
        "name": "Guayaquil- Trinitaria",
        "zip_code": "090206"
    },
    {
        "name": "Guayaquil-Venezuela",
        "zip_code": "090301"
    },
    {
        "name": "Guayaquil-Garay",
        "zip_code": "090302"
    },
    {
        "name": "Guayaquil- Chile",
        "zip_code": "090303"
    },
    {
        "name": "Guayaquil-Antepara",
        "zip_code": "090304"
    },
    {
        "name": "Guayaquil- Victoria",
        "zip_code": "090305"
    },
    {
        "name": "Guayaquil-Cristo Del Consuelo",
        "zip_code": "090306"
    },
    {
        "name": "Guayaquil-9 De Octubre",
        "zip_code": "090307"
    },
    {
        "name": "Guayaquil-Portete",
        "zip_code": "090401"
    },
    {
        "name": "Guayaquil-Salinas",
        "zip_code": "090402"
    },
    {
        "name": "Guayaquil-Chala",
        "zip_code": "090403"
    },
    {
        "name": "Guayaquil- El Cisne",
        "zip_code": "090404"
    },
    {
        "name": "Guayaquil-Suburbio",
        "zip_code": "090405"
    },
    {
        "name": "Guayaquil-Batallon Del Suburbio",
        "zip_code": "090406"
    },
    {
        "name": "Guayaquil-Alborada",
        "zip_code": "090501"
    },
    {
        "name": "Guayaquil-Alborada",
        "zip_code": "090502"
    },
    {
        "name": "Guayaquil-Sauces",
        "zip_code": "090503"
    },
    {
        "name": "Guayaquil-Atarazana",
        "zip_code": "090504"
    },
    {
        "name": "Guayaquil- Kennedy",
        "zip_code": "090505"
    },
    {
        "name": "Guayaquil-Urdesa",
        "zip_code": "090506"
    },
    {
        "name": "Guayaquil-Alborada",
        "zip_code": "090507"
    },
    {
        "name": "Guayaquil-Guayacanes",
        "zip_code": "090508"
    },
    {
        "name": "Guayaquil-Sauces",
        "zip_code": "090509"
    },
    {
        "name": "Tenguel",
        "zip_code": "090510"
    },
    {
        "name": "Guayaquil-Martha Roldos",
        "zip_code": "090601"
    },
    {
        "name": "Guayaquil-Martha Roldos",
        "zip_code": "090602"
    },
    {
        "name": "Guayaquil-Martha Roldos",
        "zip_code": "090603"
    },
    {
        "name": "Guayaquil-Mapasingue",
        "zip_code": "090604"
    },
    {
        "name": "Guayaquil-Florida",
        "zip_code": "090605"
    },
    {
        "name": "Guayaquil-Juan Montalvo",
        "zip_code": "090606"
    },
    {
        "name": "Guayaquil-Samanes",
        "zip_code": "090607"
    },
    {
        "name": "Guayaquil-Bellavista",
        "zip_code": "090608"
    },
    {
        "name": "Guayaquil-Bastion Popular",
        "zip_code": "090701"
    },
    {
        "name": "Guayaquil-Pascuales",
        "zip_code": "090702"
    },
    {
        "name": "Guayaquil-Mucho Lote",
        "zip_code": "090703"
    },
    {
        "name": "Guayaquil-Bastion Popular N",
        "zip_code": "090704"
    },
    {
        "name": "Guayaquil-Monte Bello",
        "zip_code": "090705"
    },
    {
        "name": "Guayaquil-Orquideas",
        "zip_code": "090706"
    },
    {
        "name": "Guayaquil-San Francisco",
        "zip_code": "090707"
    },
    {
        "name": "Guayaquil-Puente Lucia",
        "zip_code": "090708"
    },
    {
        "name": "Guayaquil-Nuevo Guayaquil",
        "zip_code": "090801"
    },
    {
        "name": "Guayaquil-Paraiso De La Flor",
        "zip_code": "090802"
    },
    {
        "name": "Guayaquil-Fortin",
        "zip_code": "090803"
    },
    {
        "name": "Guayaquil-Nueva Prosperina",
        "zip_code": "090804"
    },
    {
        "name": "Guayaquil-Nueva Prosperina",
        "zip_code": "090805"
    },
    {
        "name": "Guayaquil-Monte Sinai",
        "zip_code": "090806"
    },
    {
        "name": "Guayaquil-Monte Sinai",
        "zip_code": "090807"
    },
    {
        "name": "Guayaquil-Flor De Bastion",
        "zip_code": "090808"
    },
    {
        "name": "Guayaquil-Monte Sinai",
        "zip_code": "090809"
    },
    {
        "name": "Guayaquil-Monte Sinai",
        "zip_code": "090810"
    },
    {
        "name": "Guayaquil-Flor De Bastion",
        "zip_code": "090811"
    },
    {
        "name": "Guayaquil-Monte Sinai",
        "zip_code": "090812"
    },
    {
        "name": "Guayaquil-Puerto Hondo",
        "zip_code": "090901"
    },
    {
        "name": "Guayaquil-Los Ceibos",
        "zip_code": "090902"
    },
    {
        "name": "Guayaquil-Chongon",
        "zip_code": "090903"
    },
    {
        "name": "Posorja",
        "zip_code": "091001"
    },
    {
        "name": "Morro",
        "zip_code": "091002"
    },
    {
        "name": "Progreso-Guayaquil - Area De Expansión",
        "zip_code": "091003"
    },
    {
        "name": "Alfredo Baquerizo Moreno (Jujan)",
        "zip_code": "091103"
    },
    {
        "name": "Alfredo Baquerizo Moreno (Jujan)",
        "zip_code": "091104"
    },
    {
        "name": "Balao",
        "zip_code": "091207"
    },
    {
        "name": "Balao",
        "zip_code": "091208"
    },
    {
        "name": "Balzar",
        "zip_code": "091301"
    },
    {
        "name": "Balzar",
        "zip_code": "091302"
    },
    {
        "name": "Balzar",
        "zip_code": "091303"
    },
    {
        "name": "Balzar",
        "zip_code": "091304"
    },
    {
        "name": "Balzar",
        "zip_code": "091307"
    },
    {
        "name": "Colimes",
        "zip_code": "091305"
    },
    {
        "name": "Colimes",
        "zip_code": "091306"
    },
    {
        "name": "San Jacinto",
        "zip_code": "091310"
    },
    {
        "name": "Daule",
        "zip_code": "091901"
    },
    {
        "name": "Daule",
        "zip_code": "091902"
    },
    {
        "name": "Limonal-Laurel",
        "zip_code": "091903"
    },
    {
        "name": "Daule",
        "zip_code": "091904"
    },
    {
        "name": "Juan Bautista Aguirre (Los Tintos)",
        "zip_code": "091909"
    },
    {
        "name": "Los Lojas (Enrique Baquerizo Moreno)",
        "zip_code": "091910"
    },
    {
        "name": "Daule",
        "zip_code": "091911"
    },
    {
        "name": "Eloy Alfaro (Duran)",
        "zip_code": "092401"
    },
    {
        "name": "Eloy Alfaro (Duran)",
        "zip_code": "092402"
    },
    {
        "name": "Eloy Alfaro (Duran)",
        "zip_code": "092403"
    },
    {
        "name": "Eloy Alfaro (Duran)",
        "zip_code": "092404"
    },
    {
        "name": "Eloy Alfaro (Duran)",
        "zip_code": "092405"
    },
    {
        "name": "Eloy Alfaro (Duran)",
        "zip_code": "092406"
    },
    {
        "name": "Eloy Alfaro (Duran)",
        "zip_code": "092407"
    },
    {
        "name": "Eloy Alfaro (Duran)",
        "zip_code": "092408"
    },
    {
        "name": "Eloy Alfaro (Duran)",
        "zip_code": "092409"
    },
    {
        "name": "Eloy Alfaro (Duran)",
        "zip_code": "092410"
    },
    {
        "name": "Velasco Ibarra (Cab. El Empalme)",
        "zip_code": "091501"
    },
    {
        "name": "Velasco Ibarra (Cab. El Empalme)",
        "zip_code": "091502"
    },
    {
        "name": "Velasco Ibarra (Cab. El Empalme)",
        "zip_code": "091503"
    },
    {
        "name": "El Rosario",
        "zip_code": "091504"
    },
    {
        "name": "Guayas (Pueblo Nuevo)",
        "zip_code": "091505"
    },
    {
        "name": "Guayas (Pueblo Nuevo)",
        "zip_code": "091506"
    },
    {
        "name": "El Triunfo",
        "zip_code": "091601"
    },
    {
        "name": "El Triunfo",
        "zip_code": "091602"
    },
    {
        "name": "El Triunfo",
        "zip_code": "091603"
    },
    {
        "name": "Milagro",
        "zip_code": "091701"
    },
    {
        "name": "Milagro",
        "zip_code": "091702"
    },
    {
        "name": "Milagro",
        "zip_code": "091703"
    },
    {
        "name": "Milagro",
        "zip_code": "091704"
    },
    {
        "name": "Milagro",
        "zip_code": "091705"
    },
    {
        "name": "Milagro",
        "zip_code": "091706"
    },
    {
        "name": "Milagro",
        "zip_code": "091707"
    },
    {
        "name": "Milagro",
        "zip_code": "091708"
    },
    {
        "name": "Milagro",
        "zip_code": "091709"
    },
    {
        "name": "Milagro",
        "zip_code": "091710"
    },
    {
        "name": "Milagro",
        "zip_code": "091711"
    },
    {
        "name": "Milagro",
        "zip_code": "091712"
    },
    {
        "name": "Chobo",
        "zip_code": "091713"
    },
    {
        "name": "Milagro",
        "zip_code": "091714"
    },
    {
        "name": "Mariscal Sucre (Huaques)",
        "zip_code": "091715"
    },
    {
        "name": "Roberto Astudillo (Cab En Cruce De Venci",
        "zip_code": "091716"
    },
    {
        "name": "Naranjal",
        "zip_code": "091201"
    },
    {
        "name": "Santa Rosa De Flandes-Jesus Maria",
        "zip_code": "091202"
    },
    {
        "name": "Naranjal",
        "zip_code": "091203"
    },
    {
        "name": "Naranjal",
        "zip_code": "091204"
    },
    {
        "name": "Taura",
        "zip_code": "091205"
    },
    {
        "name": "San Carlos",
        "zip_code": "091206"
    },
    {
        "name": "Naranjito",
        "zip_code": "091801"
    },
    {
        "name": "Naranjito",
        "zip_code": "091802"
    },
    {
        "name": "Naranjito",
        "zip_code": "091803"
    },
    {
        "name": "Palestina",
        "zip_code": "091308"
    },
    {
        "name": "Palestina",
        "zip_code": "091309"
    },
    {
        "name": "Pedro Carbo",
        "zip_code": "091401"
    },
    {
        "name": "Pedro Carbo",
        "zip_code": "091402"
    },
    {
        "name": "Valle De La Virgen",
        "zip_code": "091403"
    },
    {
        "name": "Sabanilla",
        "zip_code": "091406"
    },
    {
        "name": "Samborondon",
        "zip_code": "092301"
    },
    {
        "name": "Samborondon",
        "zip_code": "092302"
    },
    {
        "name": "Tarifa",
        "zip_code": "092303"
    },
    {
        "name": "Samborondon",
        "zip_code": "092304"
    },
    {
        "name": "Santa Lucia",
        "zip_code": "091906"
    },
    {
        "name": "Santa Lucia",
        "zip_code": "091907"
    },
    {
        "name": "Santa Lucia",
        "zip_code": "091908"
    },
    {
        "name": "El Salitre (Las Ramas)",
        "zip_code": "092001"
    },
    {
        "name": "Junquillal",
        "zip_code": "092002"
    },
    {
        "name": "Gral. Vernaza (Dos Esteros)",
        "zip_code": "092003"
    },
    {
        "name": "El Salitre (Las Ramas)",
        "zip_code": "092004"
    },
    {
        "name": "La Victoria (Ñauza)",
        "zip_code": "092005"
    },
    {
        "name": "San Jacinto De Yaguachi",
        "zip_code": "092101"
    },
    {
        "name": "San Jacinto De Yaguachi",
        "zip_code": "092102"
    },
    {
        "name": "Yaguachi Viejo (Cone)",
        "zip_code": "092103"
    },
    {
        "name": "Gral. Pedro J. Montero (Boliche)",
        "zip_code": "092104"
    },
    {
        "name": "Virgen De Fatima",
        "zip_code": "092105"
    },
    {
        "name": "General Villamil (Playas)",
        "zip_code": "092201"
    },
    {
        "name": "General Villamil (Playas)",
        "zip_code": "092202"
    },
    {
        "name": "General Villamil (Playas)",
        "zip_code": "092203"
    },
    {
        "name": "Simon Bolivar",
        "zip_code": "091101"
    },
    {
        "name": "Crnel. Lorenzo De Garaicoa (Pedregal)",
        "zip_code": "091102"
    },
    {
        "name": "Crnel. Marcelino Maridueña (San Carlos)",
        "zip_code": "091804"
    },
    {
        "name": "Lomas De Sargentillo",
        "zip_code": "091405"
    },
    {
        "name": "Narcisa De Jesus",
        "zip_code": "091905"
    },
    {
        "name": "Gral. Antonio Elizalde (Bucay)",
        "zip_code": "091604"
    },
    {
        "name": "Isidro Ayora",
        "zip_code": "091404"
    },
    {
        "name": "San Miguel De Ibarra",
        "zip_code": "100101"
    },
    {
        "name": "San Miguel De Ibarra",
        "zip_code": "100102"
    },
    {
        "name": "San Miguel De Ibarra",
        "zip_code": "100103"
    },
    {
        "name": "San Miguel De Ibarra",
        "zip_code": "100104"
    },
    {
        "name": "San Miguel De Ibarra",
        "zip_code": "100105"
    },
    {
        "name": "San Miguel De Ibarra",
        "zip_code": "100106"
    },
    {
        "name": "San Miguel De Ibarra",
        "zip_code": "100107"
    },
    {
        "name": "San Miguel De Ibarra",
        "zip_code": "100108"
    },
    {
        "name": "San Miguel De Ibarra",
        "zip_code": "100109"
    },
    {
        "name": "San Miguel De Ibarra",
        "zip_code": "100110"
    },
    {
        "name": "San Miguel De Ibarra",
        "zip_code": "100111"
    },
    {
        "name": "San Miguel De Ibarra",
        "zip_code": "100112"
    },
    {
        "name": "San Antonio",
        "zip_code": "100113"
    },
    {
        "name": "Salinas",
        "zip_code": "100116"
    },
    {
        "name": "Ambuqui",
        "zip_code": "100117"
    },
    {
        "name": "Angochagua-La Esperanza",
        "zip_code": "100119"
    },
    {
        "name": "Carolina",
        "zip_code": "100121"
    },
    {
        "name": "Lita",
        "zip_code": "100122"
    },
    {
        "name": "San Roque",
        "zip_code": "100209"
    },
    {
        "name": "Atuntaqui",
        "zip_code": "100210"
    },
    {
        "name": "Atuntaqui",
        "zip_code": "100211"
    },
    {
        "name": "Imbaya (San Luis De Cobuendo)-San Jose De Chaltura-San Fco. De Natabuela",
        "zip_code": "100212"
    },
    {
        "name": "Cotacachi",
        "zip_code": "100301"
    },
    {
        "name": "Imantag",
        "zip_code": "100302"
    },
    {
        "name": "Quiroga",
        "zip_code": "100303"
    },
    {
        "name": "6 De Julio De Cuellaje (Cab En Cuellaje)-Plaza Gutierrez (Calvario)-Apuela",
        "zip_code": "100304"
    },
    {
        "name": "Vacas Galindo (Cab. En San Miguel Alto)-Peñaherrera",
        "zip_code": "100305"
    },
    {
        "name": "Garcia Moreno (Llurimagua)",
        "zip_code": "100306"
    },
    {
        "name": "Otavalo",
        "zip_code": "100201"
    },
    {
        "name": "Otavalo",
        "zip_code": "100202"
    },
    {
        "name": "Otavalo",
        "zip_code": "100203"
    },
    {
        "name": "San Pablo",
        "zip_code": "100204"
    },
    {
        "name": "Gonzalez Suarez-San Rafael",
        "zip_code": "100205"
    },
    {
        "name": "Eugenio Espejo (Calpaqui)",
        "zip_code": "100206"
    },
    {
        "name": "San Juan De Iluman-Doctor Miguel Egas Cabezas (Peguche)",
        "zip_code": "100207"
    },
    {
        "name": "San Juan De Iluman-Doctor Miguel Egas Cabezas (Peguche)",
        "zip_code": "100208"
    },
    {
        "name": "Otavalo",
        "zip_code": "100213"
    },
    {
        "name": "San Jose De Quichinche",
        "zip_code": "100214"
    },
    {
        "name": "Otavalo",
        "zip_code": "100215"
    },
    {
        "name": "Pataqui",
        "zip_code": "100216"
    },
    {
        "name": "Selva Alegre (Cab. En San Miguel De P.)",
        "zip_code": "100217"
    },
    {
        "name": "Chuga-Pimampiro-Mariano Acosta-San  Fco. De Sigsipamba",
        "zip_code": "100118"
    },
    {
        "name": "Urcuqui-San Blas-Tumbabiro",
        "zip_code": "100114"
    },
    {
        "name": "Pablo Arenas-Cahuasqui",
        "zip_code": "100115"
    },
    {
        "name": "La Merced De Buenos Aires",
        "zip_code": "100120"
    },
    {
        "name": "Loja",
        "zip_code": "110101"
    },
    {
        "name": "Loja",
        "zip_code": "110102"
    },
    {
        "name": "Loja",
        "zip_code": "110103"
    },
    {
        "name": "Loja",
        "zip_code": "110104"
    },
    {
        "name": "Loja",
        "zip_code": "110105"
    },
    {
        "name": "Loja",
        "zip_code": "110106"
    },
    {
        "name": "Loja",
        "zip_code": "110107"
    },
    {
        "name": "Loja",
        "zip_code": "110108"
    },
    {
        "name": "Loja",
        "zip_code": "110109"
    },
    {
        "name": "Loja",
        "zip_code": "110110"
    },
    {
        "name": "Loja",
        "zip_code": "110111"
    },
    {
        "name": "Loja",
        "zip_code": "110112"
    },
    {
        "name": "Loja",
        "zip_code": "110113"
    },
    {
        "name": "Loja",
        "zip_code": "110114"
    },
    {
        "name": "Loja",
        "zip_code": "110115"
    },
    {
        "name": "Malacatos (Valladolid)",
        "zip_code": "110116"
    },
    {
        "name": "Chantaco-Taquil (Miguel Riofrio)-Chiquiribamaba",
        "zip_code": "110117"
    },
    {
        "name": "San Lucas-Santiago",
        "zip_code": "110118"
    },
    {
        "name": "Jimbilla",
        "zip_code": "110119"
    },
    {
        "name": "Vilcabamba (Victoria)-San Pedro De Vilcabamba",
        "zip_code": "110120"
    },
    {
        "name": "Gualel-El Cisne",
        "zip_code": "110121"
    },
    {
        "name": "Quinara-Yangana (Arsenio Castillo)",
        "zip_code": "110122"
    },
    {
        "name": "Cariamanga",
        "zip_code": "110601"
    },
    {
        "name": "El Lucero",
        "zip_code": "110602"
    },
    {
        "name": "Sanguillin",
        "zip_code": "110603"
    },
    {
        "name": "Utuana-Colaisaca",
        "zip_code": "110604"
    },
    {
        "name": "Cariamanga",
        "zip_code": "110605"
    },
    {
        "name": "Catamayo (La Toma)",
        "zip_code": "110201"
    },
    {
        "name": "Catamayo (La Toma)",
        "zip_code": "110202"
    },
    {
        "name": "El Tambo",
        "zip_code": "110203"
    },
    {
        "name": "San Pedro De La Bendita",
        "zip_code": "110204"
    },
    {
        "name": "Zambi-Guayquichuma",
        "zip_code": "110205"
    },
    {
        "name": "Celica",
        "zip_code": "110401"
    },
    {
        "name": "Pozul (San Juan De Pozul)-Sabanilla-Tnte. Maximiliano Rodriguez Loaiza-Cruzpamba (Cab En Carlos Bustamante)",
        "zip_code": "110402"
    },
    {
        "name": "Chaguarpamba-El Rosario",
        "zip_code": "110208"
    },
    {
        "name": "Amarillos-Santa Rufina-Buenavista",
        "zip_code": "110209"
    },
    {
        "name": "Santa Teresita-Amaluza",
        "zip_code": "110501"
    },
    {
        "name": "Jimbura-Bellavista",
        "zip_code": "110502"
    },
    {
        "name": "El Airo-27 De Abril (Cab En La Naranja)-El Ingenio",
        "zip_code": "110503"
    },
    {
        "name": "Sacapalca-Changaimina (La Libertad)",
        "zip_code": "110606"
    },
    {
        "name": "Gonzanama",
        "zip_code": "110607"
    },
    {
        "name": "Nambacola-Purunuma (Eguiguren)",
        "zip_code": "110609"
    },
    {
        "name": "Macara",
        "zip_code": "110701"
    },
    {
        "name": "Larama",
        "zip_code": "110702"
    },
    {
        "name": "La Victoria-Sabiango (La Capilla)",
        "zip_code": "110705"
    },
    {
        "name": "Catacocha",
        "zip_code": "110301"
    },
    {
        "name": "Cangonama-Yamana-Sanantonio",
        "zip_code": "110302"
    },
    {
        "name": "Lauro Guerrero-Cosanga",
        "zip_code": "110303"
    },
    {
        "name": "Guachanama",
        "zip_code": "110304"
    },
    {
        "name": "Orianga",
        "zip_code": "110305"
    },
    {
        "name": "El Limo (Mariana De Jesus)",
        "zip_code": "110405"
    },
    {
        "name": "Alamor",
        "zip_code": "110406"
    },
    {
        "name": "Ciano-El Arenal-Vicentino-Mercadillo",
        "zip_code": "110407"
    },
    {
        "name": "Saraguro",
        "zip_code": "110801"
    },
    {
        "name": "San Antonio De Qumbe (Cumbe)-El Tablon-Urdaneta (Paquishapa)",
        "zip_code": "110802"
    },
    {
        "name": "San Pablo De Tenta-El Paraiso De Celen",
        "zip_code": "110803"
    },
    {
        "name": "Selva Alegre-Lluzhapa",
        "zip_code": "110804"
    },
    {
        "name": "Sumaypamba",
        "zip_code": "110805"
    },
    {
        "name": "San Sebastian De Yuluc-Manu",
        "zip_code": "110806"
    },
    {
        "name": "Sozoranga-Nueva Fatima",
        "zip_code": "110703"
    },
    {
        "name": "Tacamoros",
        "zip_code": "110704"
    },
    {
        "name": "Zapotillo",
        "zip_code": "110901"
    },
    {
        "name": "Limones",
        "zip_code": "110902"
    },
    {
        "name": "Garzareal",
        "zip_code": "110903"
    },
    {
        "name": "Paletillas",
        "zip_code": "110904"
    },
    {
        "name": "Bolaspamba",
        "zip_code": "110905"
    },
    {
        "name": "Cazaderos (Cab En Mangaurco)",
        "zip_code": "110906"
    },
    {
        "name": "Pindal",
        "zip_code": "110403"
    },
    {
        "name": "Chaquinal-12 De Diciembre (Cab En Achiotes)",
        "zip_code": "110404"
    },
    {
        "name": "San Antonio De Las Aradas (Cab)-Quilanga-Fundochamba",
        "zip_code": "110608"
    },
    {
        "name": "La Tingue",
        "zip_code": "110206"
    },
    {
        "name": "Olmedo",
        "zip_code": "110207"
    },
    {
        "name": "Babahoyo",
        "zip_code": "120101"
    },
    {
        "name": "Babahoyo",
        "zip_code": "120102"
    },
    {
        "name": "Babahoyo",
        "zip_code": "120103"
    },
    {
        "name": "Babahoyo",
        "zip_code": "120104"
    },
    {
        "name": "Babahoyo",
        "zip_code": "120105"
    },
    {
        "name": "Babahoyo",
        "zip_code": "120106"
    },
    {
        "name": "Babahoyo",
        "zip_code": "120107"
    },
    {
        "name": "Pimocha",
        "zip_code": "120108"
    },
    {
        "name": "Babahoyo",
        "zip_code": "120109"
    },
    {
        "name": "Pimocha",
        "zip_code": "120110"
    },
    {
        "name": "Pimocha",
        "zip_code": "120111"
    },
    {
        "name": "Caracol",
        "zip_code": "120112"
    },
    {
        "name": "La Union",
        "zip_code": "120113"
    },
    {
        "name": "Febres Cordero (Las Juntas) (Cab.",
        "zip_code": "120116"
    },
    {
        "name": "Baba",
        "zip_code": "120117"
    },
    {
        "name": "Baba",
        "zip_code": "120118"
    },
    {
        "name": "Isla De Bejucal",
        "zip_code": "120119"
    },
    {
        "name": "Guare",
        "zip_code": "120120"
    },
    {
        "name": "Montalvo",
        "zip_code": "120114"
    },
    {
        "name": "Montalvo",
        "zip_code": "120115"
    },
    {
        "name": "Puebloviejo",
        "zip_code": "120201"
    },
    {
        "name": "San Juan",
        "zip_code": "120204"
    },
    {
        "name": "Puerto Pechiche",
        "zip_code": "120205"
    },
    {
        "name": "Quevedo",
        "zip_code": "120301"
    },
    {
        "name": "Quevedo",
        "zip_code": "120302"
    },
    {
        "name": "Quevedo",
        "zip_code": "120303"
    },
    {
        "name": "Quevedo",
        "zip_code": "120304"
    },
    {
        "name": "Quevedo",
        "zip_code": "120305"
    },
    {
        "name": "Quevedo",
        "zip_code": "120306"
    },
    {
        "name": "Quevedo",
        "zip_code": "120307"
    },
    {
        "name": "Quevedo",
        "zip_code": "120308"
    },
    {
        "name": "Quevedo",
        "zip_code": "120309"
    },
    {
        "name": "La Esperanza",
        "zip_code": "120310"
    },
    {
        "name": "San Carlos",
        "zip_code": "120311"
    },
    {
        "name": "Catarama",
        "zip_code": "120202"
    },
    {
        "name": "Ricaurte",
        "zip_code": "120203"
    },
    {
        "name": "Ricaurte",
        "zip_code": "120206"
    },
    {
        "name": "Ventanas",
        "zip_code": "120401"
    },
    {
        "name": "Zapotal",
        "zip_code": "120402"
    },
    {
        "name": "Zapotal",
        "zip_code": "120403"
    },
    {
        "name": "Ventanas",
        "zip_code": "120404"
    },
    {
        "name": "Ventanas",
        "zip_code": "120405"
    },
    {
        "name": "Zapotal",
        "zip_code": "120406"
    },
    {
        "name": "Vinces",
        "zip_code": "120501"
    },
    {
        "name": "Vinces",
        "zip_code": "120502"
    },
    {
        "name": "Vinces",
        "zip_code": "120503"
    },
    {
        "name": "Vinces",
        "zip_code": "120504"
    },
    {
        "name": "Vinces",
        "zip_code": "120505"
    },
    {
        "name": "Antonio Sotomayor (Cab. Playas De Vince",
        "zip_code": "120506"
    },
    {
        "name": "Vinces",
        "zip_code": "120507"
    },
    {
        "name": "Vinces",
        "zip_code": "120509"
    },
    {
        "name": "Antonio Sotomayor (Cab. Playas De Vince",
        "zip_code": "120510"
    },
    {
        "name": "Palenque",
        "zip_code": "120508"
    },
    {
        "name": "Palenque",
        "zip_code": "120511"
    },
    {
        "name": "San Jacinto De Buena Fe",
        "zip_code": "120601"
    },
    {
        "name": "San Jacinto De Buena Fe",
        "zip_code": "120603"
    },
    {
        "name": "San Jacinto De Buena Fe",
        "zip_code": "120604"
    },
    {
        "name": "San Jacinto De Buena Fe",
        "zip_code": "120608"
    },
    {
        "name": "Patricia Pilar",
        "zip_code": "120609"
    },
    {
        "name": "Valencia",
        "zip_code": "120602"
    },
    {
        "name": "Valencia",
        "zip_code": "120605"
    },
    {
        "name": "Valencia",
        "zip_code": "120606"
    },
    {
        "name": "Valencia",
        "zip_code": "120607"
    },
    {
        "name": "Valencia",
        "zip_code": "120610"
    },
    {
        "name": "Mocache",
        "zip_code": "120312"
    },
    {
        "name": "Mocache",
        "zip_code": "120313"
    },
    {
        "name": "Mocache",
        "zip_code": "120314"
    },
    {
        "name": "Quinsaloma",
        "zip_code": "120407"
    },
    {
        "name": "Portoviejo",
        "zip_code": "130101"
    },
    {
        "name": "Portoviejo",
        "zip_code": "130102"
    },
    {
        "name": "Portoviejo",
        "zip_code": "130103"
    },
    {
        "name": "Portoviejo",
        "zip_code": "130104"
    },
    {
        "name": "Portoviejo",
        "zip_code": "130105"
    },
    {
        "name": "Portoviejo",
        "zip_code": "130106"
    },
    {
        "name": "Portoviejo",
        "zip_code": "130107"
    },
    {
        "name": "Portoviejo",
        "zip_code": "130108"
    },
    {
        "name": "Portoviejo",
        "zip_code": "130109"
    },
    {
        "name": "Portoviejo",
        "zip_code": "130110"
    },
    {
        "name": "Portoviejo",
        "zip_code": "130111"
    },
    {
        "name": "Portoviejo",
        "zip_code": "130112"
    },
    {
        "name": "Portoviejo",
        "zip_code": "130113"
    },
    {
        "name": "Portoviejo",
        "zip_code": "130114"
    },
    {
        "name": "Portoviejo",
        "zip_code": "130115"
    },
    {
        "name": "Riochico (Rio Chico)-Pueblo Nuevo",
        "zip_code": "130116"
    },
    {
        "name": "Abdon Calderon (San Francisco)",
        "zip_code": "130117"
    },
    {
        "name": "Portoviejo",
        "zip_code": "130118"
    },
    {
        "name": "Crucita",
        "zip_code": "130119"
    },
    {
        "name": "Chirijos-Alhajuela (Bajo Grande)",
        "zip_code": "130120"
    },
    {
        "name": "San Placido",
        "zip_code": "130121"
    },
    {
        "name": "Calceta",
        "zip_code": "130601"
    },
    {
        "name": "Calceta",
        "zip_code": "130602"
    },
    {
        "name": "Quiroga",
        "zip_code": "130603"
    },
    {
        "name": "Membrillo",
        "zip_code": "130606"
    },
    {
        "name": "Calceta",
        "zip_code": "130607"
    },
    {
        "name": "Chone",
        "zip_code": "130701"
    },
    {
        "name": "Chone",
        "zip_code": "130702"
    },
    {
        "name": "Chone",
        "zip_code": "130703"
    },
    {
        "name": "Chone",
        "zip_code": "130704"
    },
    {
        "name": "San Antonio",
        "zip_code": "130705"
    },
    {
        "name": "Chone",
        "zip_code": "130706"
    },
    {
        "name": "Boyaca",
        "zip_code": "130707"
    },
    {
        "name": "Ricaurte",
        "zip_code": "130708"
    },
    {
        "name": "Chone",
        "zip_code": "130709"
    },
    {
        "name": "Canuto",
        "zip_code": "130710"
    },
    {
        "name": "Eloy Alfaro",
        "zip_code": "130711"
    },
    {
        "name": "Canuto",
        "zip_code": "130714"
    },
    {
        "name": "Convento",
        "zip_code": "130715"
    },
    {
        "name": "Chibunga",
        "zip_code": "130719"
    },
    {
        "name": "El Carmen",
        "zip_code": "130501"
    },
    {
        "name": "El Carmen",
        "zip_code": "130502"
    },
    {
        "name": "El Carmen",
        "zip_code": "130503"
    },
    {
        "name": "El Carmen",
        "zip_code": "130504"
    },
    {
        "name": "El Carmen",
        "zip_code": "130505"
    },
    {
        "name": "Wilfrido Loor Moreira (Maicito)",
        "zip_code": "130506"
    },
    {
        "name": "San Pedro De Suma",
        "zip_code": "130507"
    },
    {
        "name": "El Carmen",
        "zip_code": "130508"
    },
    {
        "name": "Zapallo",
        "zip_code": "130712"
    },
    {
        "name": "Flavio Alfaro",
        "zip_code": "130713"
    },
    {
        "name": "Flavio Alfaro",
        "zip_code": "130716"
    },
    {
        "name": "San Fco. De Novillo (Cab En Novillo)",
        "zip_code": "130717"
    },
    {
        "name": "Flavio Alfaro",
        "zip_code": "130718"
    },
    {
        "name": "Jipijapa",
        "zip_code": "130301"
    },
    {
        "name": "Jipijapa",
        "zip_code": "130302"
    },
    {
        "name": "Jipijapa",
        "zip_code": "130303"
    },
    {
        "name": "Jipijapa",
        "zip_code": "130304"
    },
    {
        "name": "Jipijapa",
        "zip_code": "130305"
    },
    {
        "name": "Jipijapa",
        "zip_code": "130306"
    },
    {
        "name": "Puerto De Cayo",
        "zip_code": "130307"
    },
    {
        "name": "Membrillal",
        "zip_code": "130308"
    },
    {
        "name": "Jipijapa",
        "zip_code": "130309"
    },
    {
        "name": "La Union-America",
        "zip_code": "130310"
    },
    {
        "name": "El Anegado (Cab En Eloy Alfaro)-Julcuy",
        "zip_code": "130311"
    },
    {
        "name": "Pedro Pablo Gomez",
        "zip_code": "130313"
    },
    {
        "name": "Junin",
        "zip_code": "130604"
    },
    {
        "name": "Junin",
        "zip_code": "130605"
    },
    {
        "name": "Manta",
        "zip_code": "130201"
    },
    {
        "name": "Manta",
        "zip_code": "130202"
    },
    {
        "name": "Manta",
        "zip_code": "130203"
    },
    {
        "name": "Manta",
        "zip_code": "130204"
    },
    {
        "name": "Manta",
        "zip_code": "130205"
    },
    {
        "name": "Manta",
        "zip_code": "130206"
    },
    {
        "name": "Manta",
        "zip_code": "130207"
    },
    {
        "name": "Manta",
        "zip_code": "130208"
    },
    {
        "name": "Manta",
        "zip_code": "130209"
    },
    {
        "name": "Manta",
        "zip_code": "130210"
    },
    {
        "name": "Manta",
        "zip_code": "130211"
    },
    {
        "name": "Manta",
        "zip_code": "130212"
    },
    {
        "name": "Manta",
        "zip_code": "130215"
    },
    {
        "name": "Manta",
        "zip_code": "130216"
    },
    {
        "name": "Manta",
        "zip_code": "130219"
    },
    {
        "name": "Manta",
        "zip_code": "130220"
    },
    {
        "name": "Manta",
        "zip_code": "130224"
    },
    {
        "name": "Manta",
        "zip_code": "130225"
    },
    {
        "name": "San Lorenzo-Santa Marianita (Boca De Pacoche)",
        "zip_code": "130227"
    },
    {
        "name": "Montecristi",
        "zip_code": "130213"
    },
    {
        "name": "Montecristi",
        "zip_code": "130214"
    },
    {
        "name": "Montecristi",
        "zip_code": "130217"
    },
    {
        "name": "Montecristi",
        "zip_code": "130218"
    },
    {
        "name": "Montecristi",
        "zip_code": "130222"
    },
    {
        "name": "Montecristi",
        "zip_code": "130223"
    },
    {
        "name": "La Pila",
        "zip_code": "130226"
    },
    {
        "name": "Pajan",
        "zip_code": "130901"
    },
    {
        "name": "Campozano (La Palma De Pajan)",
        "zip_code": "130902"
    },
    {
        "name": "Campozano (La Palma De Pajan)",
        "zip_code": "130903"
    },
    {
        "name": "Cascol",
        "zip_code": "130904"
    },
    {
        "name": "Lascano",
        "zip_code": "130905"
    },
    {
        "name": "Guale",
        "zip_code": "130906"
    },
    {
        "name": "San Sebastian",
        "zip_code": "130801"
    },
    {
        "name": "Pichincha",
        "zip_code": "130802"
    },
    {
        "name": "Pichincha",
        "zip_code": "130803"
    },
    {
        "name": "Pichincha",
        "zip_code": "130804"
    },
    {
        "name": "Barraganete",
        "zip_code": "130805"
    },
    {
        "name": "Barraganete",
        "zip_code": "130806"
    },
    {
        "name": "Rocafuerte",
        "zip_code": "131201"
    },
    {
        "name": "Rocafuerte",
        "zip_code": "131202"
    },
    {
        "name": "Santa Ana De Vuelta Larga",
        "zip_code": "130401"
    },
    {
        "name": "Santa Ana De Vuelta Larga",
        "zip_code": "130402"
    },
    {
        "name": "Ayacucho",
        "zip_code": "130403"
    },
    {
        "name": "Santa Ana De Vuelta Larga",
        "zip_code": "130404"
    },
    {
        "name": "Santa Ana De Vuelta Larga",
        "zip_code": "130405"
    },
    {
        "name": "Honorato Vasquez (Cab En Vasquez)",
        "zip_code": "130406"
    },
    {
        "name": "La Union",
        "zip_code": "130407"
    },
    {
        "name": "San Pablo (Cab En Pueblo Nuevo)",
        "zip_code": "130411"
    },
    {
        "name": "Bahia De Caraquez",
        "zip_code": "131101"
    },
    {
        "name": "Bahia De Caraquez",
        "zip_code": "131103"
    },
    {
        "name": "San Isidro",
        "zip_code": "131105"
    },
    {
        "name": "Charapoto",
        "zip_code": "131106"
    },
    {
        "name": "Tosagua",
        "zip_code": "131203"
    },
    {
        "name": "Tosagua",
        "zip_code": "131204"
    },
    {
        "name": "Angel Pedro Giler (La Estancilla)-Bachillero",
        "zip_code": "131205"
    },
    {
        "name": "Bellavista",
        "zip_code": "130409"
    },
    {
        "name": "Sucre",
        "zip_code": "130410"
    },
    {
        "name": "Arq. Sixto Duran Ballen",
        "zip_code": "130413"
    },
    {
        "name": "Noboa",
        "zip_code": "130414"
    },
    {
        "name": "Pedernales",
        "zip_code": "131001"
    },
    {
        "name": "Pedernales",
        "zip_code": "131002"
    },
    {
        "name": "Cojimies",
        "zip_code": "131003"
    },
    {
        "name": "Cojimies",
        "zip_code": "131004"
    },
    {
        "name": "Pedernales",
        "zip_code": "131005"
    },
    {
        "name": "Atahualpa",
        "zip_code": "131006"
    },
    {
        "name": "10 De Agosto",
        "zip_code": "131007"
    },
    {
        "name": "Olmedo",
        "zip_code": "130408"
    },
    {
        "name": "Olmedo",
        "zip_code": "130412"
    },
    {
        "name": "Puerto Lopez-Machalilla-Salango",
        "zip_code": "130312"
    },
    {
        "name": "Puerto Lopez-Machalilla-Salango",
        "zip_code": "130314"
    },
    {
        "name": "Jama",
        "zip_code": "131008"
    },
    {
        "name": "Jama",
        "zip_code": "131009"
    },
    {
        "name": "Jaramijo",
        "zip_code": "130221"
    },
    {
        "name": "San Vicente",
        "zip_code": "131102"
    },
    {
        "name": "Canoa",
        "zip_code": "131104"
    },
    {
        "name": "Macas",
        "zip_code": "140101"
    },
    {
        "name": "San Isidro-General Proaño",
        "zip_code": "140102"
    },
    {
        "name": "Sevilla Don Bosco",
        "zip_code": "140103"
    },
    {
        "name": "Rio Blanco",
        "zip_code": "140104"
    },
    {
        "name": "Alshi(Cab En 9 De Octubre)-Zuña (Zuñac)",
        "zip_code": "140105"
    },
    {
        "name": "Sinai",
        "zip_code": "140106"
    },
    {
        "name": "Cuchaentza",
        "zip_code": "140107"
    },
    {
        "name": "Gualaquiza",
        "zip_code": "140401"
    },
    {
        "name": "Bomboiza",
        "zip_code": "140404"
    },
    {
        "name": "Amazonas (Rosario De Cuyes)-Nueva Tarqui- El Ideal",
        "zip_code": "140405"
    },
    {
        "name": "Bermejos-Chiguinda-El Rosario",
        "zip_code": "140406"
    },
    {
        "name": "San Miguel De Cuyes",
        "zip_code": "140407"
    },
    {
        "name": "Yunganza (Cab En El Rosario)-Sta Susana De Chiviaza (Cab En Chiviaza)",
        "zip_code": "140603"
    },
    {
        "name": "San Antonio (Cab En San Antonio Centro)-Gral. Leonidas Plaza Gutierrez",
        "zip_code": "140605"
    },
    {
        "name": "San Miguel De Conchay-Indanza",
        "zip_code": "140606"
    },
    {
        "name": "Palora (Metzera)-Cumanda (Cab En Colonia Agricola Sevilla-16 De Agosto",
        "zip_code": "140201"
    },
    {
        "name": "Arapicos-Sangay (Cab En Nayamanaca)",
        "zip_code": "140204"
    },
    {
        "name": "Santiago De Mendez-Copal-Chupianza-San Luis De El Acho (Cab En El Acho)",
        "zip_code": "140601"
    },
    {
        "name": "Tayuza-San Francisco De Chinimbimi-Patuca",
        "zip_code": "140602"
    },
    {
        "name": "Sucua-Asuncion-Santa Marianita De Jesus",
        "zip_code": "140301"
    },
    {
        "name": "Huambi",
        "zip_code": "140302"
    },
    {
        "name": "Huamboya-Chiguaza-",
        "zip_code": "140202"
    },
    {
        "name": "San Juan Bosco-Pande Azucar-San Jacinto De Wakambeis",
        "zip_code": "140402"
    },
    {
        "name": "Santiago De Pananza-San Carlos De Limon",
        "zip_code": "140403"
    },
    {
        "name": "Taisha",
        "zip_code": "140501"
    },
    {
        "name": "Macuma",
        "zip_code": "140502"
    },
    {
        "name": "Huasaga (Cab En Wampuik)-Tuutinentza-Pumpuentsa",
        "zip_code": "140503"
    },
    {
        "name": "Logroño-Shimpis",
        "zip_code": "140303"
    },
    {
        "name": "Yaupi",
        "zip_code": "140304"
    },
    {
        "name": "Pablo Sexto",
        "zip_code": "140203"
    },
    {
        "name": "San Jose De Morona-Santiago",
        "zip_code": "140604"
    },
    {
        "name": "Puyo",
        "zip_code": "160101"
    },
    {
        "name": "Puyo",
        "zip_code": "160102"
    },
    {
        "name": "Canelos-Veracruz (Cab. En Indillama)-Pomona-Simon Bolivar (Cab En Mushullama",
        "zip_code": "160103"
    },
    {
        "name": "Tarqui",
        "zip_code": "160104"
    },
    {
        "name": "Fatima-Teniente Hugo Ortiz",
        "zip_code": "160106"
    },
    {
        "name": "El Triunfo-Diez De Agosto",
        "zip_code": "160108"
    },
    {
        "name": "Sarayacu",
        "zip_code": "160109"
    },
    {
        "name": "Montalvo (Andoas)",
        "zip_code": "160110"
    },
    {
        "name": "Rio Tigre",
        "zip_code": "160111"
    },
    {
        "name": "Rio Corrientes",
        "zip_code": "160112"
    },
    {
        "name": "Shell-Madre Tierra-Mera",
        "zip_code": "160105"
    },
    {
        "name": "San Jose-Santa Clara",
        "zip_code": "160107"
    },
    {
        "name": "Arajuno",
        "zip_code": "160201"
    },
    {
        "name": "Curaray",
        "zip_code": "160202"
    },
    {
        "name": "Pacto",
        "zip_code": "170101"
    },
    {
        "name": "Gualea",
        "zip_code": "170102"
    },
    {
        "name": "Nanegal",
        "zip_code": "170103"
    },
    {
        "name": "Nanegalito",
        "zip_code": "170104"
    },
    {
        "name": "Calderon (Carapungo)",
        "zip_code": "170201"
    },
    {
        "name": "Calderon (Carapungo)",
        "zip_code": "170202"
    },
    {
        "name": "Calderon (Carapungo)",
        "zip_code": "170203"
    },
    {
        "name": "Calderon (Carapungo)",
        "zip_code": "170204"
    },
    {
        "name": "Calderon (Carapungo)",
        "zip_code": "170205"
    },
    {
        "name": "Calderon (Carapungo)",
        "zip_code": "170206"
    },
    {
        "name": "Calderon (Carapungo)",
        "zip_code": "170207"
    },
    {
        "name": "Calderon (Carapungo)",
        "zip_code": "170208"
    },
    {
        "name": "Llano Chico",
        "zip_code": "170209"
    },
    {
        "name": "Guayllabamba",
        "zip_code": "170210"
    },
    {
        "name": "Ponceano",
        "zip_code": "170301"
    },
    {
        "name": "Carcelen",
        "zip_code": "170302"
    },
    {
        "name": "Comite Del Pueblo",
        "zip_code": "170303"
    },
    {
        "name": "Comite Del Pueblo",
        "zip_code": "170304"
    },
    {
        "name": "Ponceano",
        "zip_code": "170305"
    },
    {
        "name": "Cotocollao",
        "zip_code": "170306"
    },
    {
        "name": "El Condado",
        "zip_code": "170307"
    },
    {
        "name": "El Condado",
        "zip_code": "170308"
    },
    {
        "name": "El Condado",
        "zip_code": "170309"
    },
    {
        "name": "Pomasqui",
        "zip_code": "170310"
    },
    {
        "name": "Nono",
        "zip_code": "170311"
    },
    {
        "name": "Calacali",
        "zip_code": "170312"
    },
    {
        "name": "Pomasqui",
        "zip_code": "170313"
    },
    {
        "name": "San Antonio",
        "zip_code": "170314"
    },
    {
        "name": "San Antonio",
        "zip_code": "170315"
    },
    {
        "name": "Puellaro",
        "zip_code": "170316"
    },
    {
        "name": "San Jose De Minas",
        "zip_code": "170317"
    },
    {
        "name": "San Jose De Minas",
        "zip_code": "170318"
    },
    {
        "name": "Atahualpa (Habaspamba)-Chavezpamba-Perucho",
        "zip_code": "170319"
    },
    {
        "name": "Centro Historico",
        "zip_code": "170401"
    },
    {
        "name": "San Juan",
        "zip_code": "170402"
    },
    {
        "name": "Itchimbia",
        "zip_code": "170403"
    },
    {
        "name": "Puengasi",
        "zip_code": "170404"
    },
    {
        "name": "Centro Historico",
        "zip_code": "170405"
    },
    {
        "name": "La Libertad",
        "zip_code": "170406"
    },
    {
        "name": "San Juan",
        "zip_code": "170407"
    },
    {
        "name": "Itchimbia",
        "zip_code": "170408"
    },
    {
        "name": "Puengasi",
        "zip_code": "170409"
    },
    {
        "name": "Puengasi",
        "zip_code": "170410"
    },
    {
        "name": "San Juan",
        "zip_code": "170411"
    },
    {
        "name": "Puengasi",
        "zip_code": "170412"
    },
    {
        "name": "Jipijapa",
        "zip_code": "170501"
    },
    {
        "name": "Kennedy",
        "zip_code": "170502"
    },
    {
        "name": "Jipijapa",
        "zip_code": "170503"
    },
    {
        "name": "Iñaquito",
        "zip_code": "170504"
    },
    {
        "name": "Iñaquito",
        "zip_code": "170505"
    },
    {
        "name": "Rumipamba",
        "zip_code": "170506"
    },
    {
        "name": "Concepcion",
        "zip_code": "170507"
    },
    {
        "name": "Kennedy",
        "zip_code": "170508"
    },
    {
        "name": "San Isidro Del Inca",
        "zip_code": "170509"
    },
    {
        "name": "Zambiza",
        "zip_code": "170510"
    },
    {
        "name": "Nayon",
        "zip_code": "170511"
    },
    {
        "name": "Mariscal Sucre",
        "zip_code": "170512"
    },
    {
        "name": "Belisario Quevedo",
        "zip_code": "170513"
    },
    {
        "name": "Cochapamba",
        "zip_code": "170514"
    },
    {
        "name": "Cochapamba",
        "zip_code": "170515"
    },
    {
        "name": "Belisario Quevedo",
        "zip_code": "170516"
    },
    {
        "name": "Cochapamba",
        "zip_code": "170517"
    },
    {
        "name": "San Bartolo",
        "zip_code": "170601"
    },
    {
        "name": "La Magdalena",
        "zip_code": "170602"
    },
    {
        "name": "Chimbacalle",
        "zip_code": "170603"
    },
    {
        "name": "La Ferroviaria",
        "zip_code": "170604"
    },
    {
        "name": "La Argelia",
        "zip_code": "170605"
    },
    {
        "name": "Solanda",
        "zip_code": "170606"
    },
    {
        "name": "San Bartolo",
        "zip_code": "170607"
    },
    {
        "name": "Chilibulo",
        "zip_code": "170608"
    },
    {
        "name": "Chilibulo",
        "zip_code": "170609"
    },
    {
        "name": "Solanda",
        "zip_code": "170610"
    },
    {
        "name": "La Mena",
        "zip_code": "170611"
    },
    {
        "name": "La Mena",
        "zip_code": "170612"
    },
    {
        "name": "Chilibulo",
        "zip_code": "170613"
    },
    {
        "name": "Lloa",
        "zip_code": "170614"
    },
    {
        "name": "Guamani",
        "zip_code": "170701"
    },
    {
        "name": "Quitumbe",
        "zip_code": "170702"
    },
    {
        "name": "Quitumbe",
        "zip_code": "170703"
    },
    {
        "name": "Turubamba",
        "zip_code": "170704"
    },
    {
        "name": "Turubamba",
        "zip_code": "170705"
    },
    {
        "name": "Guamani",
        "zip_code": "170706"
    },
    {
        "name": "Guamani",
        "zip_code": "170707"
    },
    {
        "name": "La Ecuatoriana",
        "zip_code": "170708"
    },
    {
        "name": "Turubamba",
        "zip_code": "170709"
    },
    {
        "name": "Turubamba",
        "zip_code": "170710"
    },
    {
        "name": "Guamani",
        "zip_code": "170711"
    },
    {
        "name": "La Ecuatoriana",
        "zip_code": "170712"
    },
    {
        "name": "La Ecuatoriana",
        "zip_code": "170713"
    },
    {
        "name": "Chillogallo",
        "zip_code": "170714"
    },
    {
        "name": "Quitumbe",
        "zip_code": "170715"
    },
    {
        "name": "Conocoto",
        "zip_code": "170801"
    },
    {
        "name": "Conocoto",
        "zip_code": "170802"
    },
    {
        "name": "Conocoto",
        "zip_code": "170803"
    },
    {
        "name": "Alangasi",
        "zip_code": "170804"
    },
    {
        "name": "Conocoto",
        "zip_code": "170805"
    },
    {
        "name": "Conocoto",
        "zip_code": "170806"
    },
    {
        "name": "Guangopolo",
        "zip_code": "170807"
    },
    {
        "name": "Alangasi",
        "zip_code": "170808"
    },
    {
        "name": "Amaguaña",
        "zip_code": "170809"
    },
    {
        "name": "La Merced",
        "zip_code": "170810"
    },
    {
        "name": "Pintag",
        "zip_code": "170811"
    },
    {
        "name": "Amaguaña",
        "zip_code": "170812"
    },
    {
        "name": "Pintag",
        "zip_code": "170813"
    },
    {
        "name": "Amaguaña",
        "zip_code": "170814"
    },
    {
        "name": "Cumbaya",
        "zip_code": "170901"
    },
    {
        "name": "Tumbaco",
        "zip_code": "170902"
    },
    {
        "name": "Tumbaco",
        "zip_code": "170903"
    },
    {
        "name": "Cumbaya",
        "zip_code": "170904"
    },
    {
        "name": "Puembo",
        "zip_code": "170905"
    },
    {
        "name": "Pifo",
        "zip_code": "170906"
    },
    {
        "name": "Tababela",
        "zip_code": "170907"
    },
    {
        "name": "Yaruqui",
        "zip_code": "170908"
    },
    {
        "name": "Pifo",
        "zip_code": "170909"
    },
    {
        "name": "Checa (Chilpa)",
        "zip_code": "170910"
    },
    {
        "name": "El Quinche",
        "zip_code": "170911"
    },
    {
        "name": "Cayambe",
        "zip_code": "171001"
    },
    {
        "name": "Cayambe",
        "zip_code": "171002"
    },
    {
        "name": "Cayambe",
        "zip_code": "171003"
    },
    {
        "name": "Cayambe",
        "zip_code": "171004"
    },
    {
        "name": "Cangahua",
        "zip_code": "171005"
    },
    {
        "name": "Cayambe",
        "zip_code": "171007"
    },
    {
        "name": "Olmedo (Pecillo)",
        "zip_code": "171008"
    },
    {
        "name": "Cayambe",
        "zip_code": "171009"
    },
    {
        "name": "Oton-Santa Rosa De Cuzubamba-Ascazubi",
        "zip_code": "171010"
    },
    {
        "name": "Machachi",
        "zip_code": "171108"
    },
    {
        "name": "Tambillo-Uyumbicho",
        "zip_code": "171109"
    },
    {
        "name": "Tambillo-Uyumbicho",
        "zip_code": "171110"
    },
    {
        "name": "Cutuglahua",
        "zip_code": "171111"
    },
    {
        "name": "Machachi",
        "zip_code": "171112"
    },
    {
        "name": "El Chaupi-Aloasi",
        "zip_code": "171113"
    },
    {
        "name": "Aloag",
        "zip_code": "171114"
    },
    {
        "name": "Cutuglahua",
        "zip_code": "171115"
    },
    {
        "name": "Manuel Cornejo Astorga (Tandapi)",
        "zip_code": "171116"
    },
    {
        "name": "Tabacundo-Tupigachi",
        "zip_code": "171006"
    },
    {
        "name": "Malchingui-Tocachi-La Esperanza",
        "zip_code": "171011"
    },
    {
        "name": "Sangolqui",
        "zip_code": "171101"
    },
    {
        "name": "Sangolqui",
        "zip_code": "171102"
    },
    {
        "name": "Sangolqui",
        "zip_code": "171103"
    },
    {
        "name": "Sangolqui",
        "zip_code": "171104"
    },
    {
        "name": "Sangolqui",
        "zip_code": "171105"
    },
    {
        "name": "Sangolqui",
        "zip_code": "171106"
    },
    {
        "name": "Rumipamba-Cotogchoa",
        "zip_code": "171107"
    },
    {
        "name": "San Miguel De Los Bancos-Mindo",
        "zip_code": "171202"
    },
    {
        "name": "Pedro Vicente Maldonado",
        "zip_code": "171201"
    },
    {
        "name": "Puerto Quito",
        "zip_code": "171203"
    },
    {
        "name": "Puerto Quito",
        "zip_code": "171204"
    },
    {
        "name": "Ambato",
        "zip_code": "180101"
    },
    {
        "name": "Ambato",
        "zip_code": "180102"
    },
    {
        "name": "Ambato",
        "zip_code": "180103"
    },
    {
        "name": "Ambato",
        "zip_code": "180104"
    },
    {
        "name": "Ambato",
        "zip_code": "180105"
    },
    {
        "name": "Ambato",
        "zip_code": "180106"
    },
    {
        "name": "Ambatillo-San Bartolome De Pinllog",
        "zip_code": "180107"
    },
    {
        "name": "Constatino Fernandez (Cab En Cullit)-Augusto N. Martinez (Mundugleo)-Atahualpa (Chisalata)",
        "zip_code": "180108"
    },
    {
        "name": "Izamba",
        "zip_code": "180109"
    },
    {
        "name": "Pasa-San Fernando (Pasa San Fernando)",
        "zip_code": "180110"
    },
    {
        "name": "Quisapincha (Quizapincha)",
        "zip_code": "180111"
    },
    {
        "name": "Cunchibamba-Unamuncho",
        "zip_code": "180112"
    },
    {
        "name": "Ambato",
        "zip_code": "180201"
    },
    {
        "name": "Ambato",
        "zip_code": "180202"
    },
    {
        "name": "Ambato",
        "zip_code": "180203"
    },
    {
        "name": "Ambato",
        "zip_code": "180204"
    },
    {
        "name": "Ambato",
        "zip_code": "180205"
    },
    {
        "name": "Ambato",
        "zip_code": "180206"
    },
    {
        "name": "Ambato",
        "zip_code": "180207"
    },
    {
        "name": "Ambato",
        "zip_code": "180208"
    },
    {
        "name": "Picaigua-Totoras",
        "zip_code": "180209"
    },
    {
        "name": "Montalvo-Huachi Grande",
        "zip_code": "180210"
    },
    {
        "name": "Santa Rosa",
        "zip_code": "180211"
    },
    {
        "name": "Pilaguin (Pilahuin)-Juan Benigno Vela",
        "zip_code": "180212"
    },
    {
        "name": "Lligua-Baños De Agua Santa-Ulba",
        "zip_code": "180301"
    },
    {
        "name": "Rio Verde-Rio Negro",
        "zip_code": "180302"
    },
    {
        "name": "Cevallos",
        "zip_code": "180601"
    },
    {
        "name": "Pinguili-Mocha",
        "zip_code": "180604"
    },
    {
        "name": "El Triunfo-Patate-Los Andes (Cab En Poatug)-Sucre (Cab En Sucre- Patate  Urco)",
        "zip_code": "180406"
    },
    {
        "name": "Quero",
        "zip_code": "180602"
    },
    {
        "name": "Yanayacu - Mochapata (Cab En Yanayacu)-Rumipamba",
        "zip_code": "180603"
    },
    {
        "name": "Pelileo",
        "zip_code": "180401"
    },
    {
        "name": "Pelileo",
        "zip_code": "180402"
    },
    {
        "name": "Pelileo",
        "zip_code": "180403"
    },
    {
        "name": "Salasaca-Benitez (Pachanlica)-El Rosario (Rumichaca)",
        "zip_code": "180404"
    },
    {
        "name": "Chiquicha (Cab En Chiquicha Grande)-Garcia Moreno (Chumaqui)",
        "zip_code": "180405"
    },
    {
        "name": "Cotalo-Guambalo (Huambalo)-Bolivar",
        "zip_code": "180407"
    },
    {
        "name": "Pillaro",
        "zip_code": "180501"
    },
    {
        "name": "San Jose De Poalo-Presidente Urbina (Chagrapamba-San Andres",
        "zip_code": "180502"
    },
    {
        "name": "Marcos Espinel (Chacata)-San Miguelito-Baquerizo Moreno-Emilio Maria Teran (Rumipamba)",
        "zip_code": "180503"
    },
    {
        "name": "Tisaleo-Quinchicoto",
        "zip_code": "180605"
    },
    {
        "name": "Zamora",
        "zip_code": "190101"
    },
    {
        "name": "Sabanilla",
        "zip_code": "190102"
    },
    {
        "name": "Guadalupe",
        "zip_code": "190103"
    },
    {
        "name": "Cumbaratza-Timbara-San Carlos De Las Minas",
        "zip_code": "190104"
    },
    {
        "name": "Zamora",
        "zip_code": "190105"
    },
    {
        "name": "Imbana (La Victoria De Imbana)",
        "zip_code": "190106"
    },
    {
        "name": "El Chorro-La Chonta-Pucupamba",
        "zip_code": "190301"
    },
    {
        "name": "Zumba",
        "zip_code": "190302"
    },
    {
        "name": "Chito",
        "zip_code": "190304"
    },
    {
        "name": "San Andres",
        "zip_code": "190305"
    },
    {
        "name": "Guayzimi",
        "zip_code": "190201"
    },
    {
        "name": "Zurmi",
        "zip_code": "190203"
    },
    {
        "name": "Nuevo Paraiso",
        "zip_code": "190206"
    },
    {
        "name": "La Paz",
        "zip_code": "190107"
    },
    {
        "name": "28 De Mayo (San Jose De Yacuambi)",
        "zip_code": "190108"
    },
    {
        "name": "Tutupali",
        "zip_code": "190109"
    },
    {
        "name": "Los Encuentros",
        "zip_code": "190403"
    },
    {
        "name": "Yantzaza (Yanzatza)-Chicaña",
        "zip_code": "190404"
    },
    {
        "name": "Pachicutza-El Pangui-El Guisme",
        "zip_code": "190401"
    },
    {
        "name": "Tundayme",
        "zip_code": "190402"
    },
    {
        "name": "Zumbi",
        "zip_code": "190204"
    },
    {
        "name": "San Fco. Del Vergel-La Canela",
        "zip_code": "190303"
    },
    {
        "name": "Palanda-Valladolid",
        "zip_code": "190306"
    },
    {
        "name": "El Porvenir Del Carmen",
        "zip_code": "190307"
    },
    {
        "name": "Nuevo Quito",
        "zip_code": "190202"
    },
    {
        "name": "Paquisha-Bellavista",
        "zip_code": "190205"
    },
    {
        "name": "Nueva Loja",
        "zip_code": "210201"
    },
    {
        "name": "Nueva Loja",
        "zip_code": "210202"
    },
    {
        "name": "Nueva Loja",
        "zip_code": "210203"
    },
    {
        "name": "Nueva Loja",
        "zip_code": "210204"
    },
    {
        "name": "Santa Cecilia-Jambeli",
        "zip_code": "210205"
    },
    {
        "name": "General Farfan",
        "zip_code": "210206"
    },
    {
        "name": "Dureno-Pacayacu",
        "zip_code": "210207"
    },
    {
        "name": "El Eno",
        "zip_code": "210208"
    },
    {
        "name": "Puerto Libre-Gonzalo Pizarro-Lumbaqui-El Reventador",
        "zip_code": "210101"
    },
    {
        "name": "Puerto Bolivar (Puerto Montufar)-Puerto El Carmen Del Putumayo",
        "zip_code": "210301"
    },
    {
        "name": "Puerto Rodriguez",
        "zip_code": "210302"
    },
    {
        "name": "Santa Elena-Palma Roja",
        "zip_code": "210305"
    },
    {
        "name": "Shushufindi",
        "zip_code": "210401"
    },
    {
        "name": "Shushufindi",
        "zip_code": "210402"
    },
    {
        "name": "San Roque (Cab En San Vicente)-Limoncocha",
        "zip_code": "210403"
    },
    {
        "name": "San Pedro De Los Cofanes-Siete De Julio",
        "zip_code": "210404"
    },
    {
        "name": "Pañacocha",
        "zip_code": "210405"
    },
    {
        "name": "Santa Barbara-La Bonita-La Sofia-Rosa Florida-El Playon De San Francisco",
        "zip_code": "210102"
    },
    {
        "name": "Santa Rosa De Sucumbios-Sevilla-El Dorado De Cascales",
        "zip_code": "210103"
    },
    {
        "name": "Cuyabeno",
        "zip_code": "210303"
    },
    {
        "name": "Tarapoa-Aguas Negras",
        "zip_code": "210304"
    },
    {
        "name": "Tena",
        "zip_code": "150101"
    },
    {
        "name": "Tena",
        "zip_code": "150102"
    },
    {
        "name": "Puerto Napo-Puerto Misahualli",
        "zip_code": "150104"
    },
    {
        "name": "Talag-Pano",
        "zip_code": "150106"
    },
    {
        "name": "Ahuano",
        "zip_code": "150108"
    },
    {
        "name": "Chontapunta",
        "zip_code": "150109"
    },
    {
        "name": "Archidona-San Pablo De Ushpayacu",
        "zip_code": "150103"
    },
    {
        "name": "Cotundo",
        "zip_code": "150107"
    },
    {
        "name": "El Chaco",
        "zip_code": "150201"
    },
    {
        "name": "Gonzalo Diaz De Pineda(El Bombon)-Santa Rosa",
        "zip_code": "150202"
    },
    {
        "name": "Linares-Sardinas",
        "zip_code": "150203"
    },
    {
        "name": "Oyacachi",
        "zip_code": "150206"
    },
    {
        "name": "Cosanga-San Francisco De Borja (Virgilio Davila)-Baeza-Sumaco",
        "zip_code": "150204"
    },
    {
        "name": "Cuyuja-Papallacta",
        "zip_code": "150205"
    },
    {
        "name": "Carlos Julio Arosemena Tola",
        "zip_code": "150105"
    },
    {
        "name": "Puerto Francisco De Orellana (Coca)",
        "zip_code": "220201"
    },
    {
        "name": "Nuevo Paraiso-San Jose De Guayusa",
        "zip_code": "220202"
    },
    {
        "name": "Puerto Francisco De Orellana (Coca)",
        "zip_code": "220203"
    },
    {
        "name": "San Luis De Armenia",
        "zip_code": "220204"
    },
    {
        "name": "Dayuma-Taracoa (Cab. En Nueva Esperanza: Yuca)-El Dorado",
        "zip_code": "220205"
    },
    {
        "name": "Garcia Moreno-La Belleza",
        "zip_code": "220206"
    },
    {
        "name": "El Eden-Alejandro Labaka",
        "zip_code": "220209"
    },
    {
        "name": "Ines Arango",
        "zip_code": "220210"
    },
    {
        "name": "Nuevo Rocafuerte-Tiputini-Yasuni",
        "zip_code": "220301"
    },
    {
        "name": "Santa Maria De Huiririma-Cap. Augusto Rivadeneyra",
        "zip_code": "220302"
    },
    {
        "name": "Cononaco",
        "zip_code": "220303"
    },
    {
        "name": "La Joya De Los Sachas",
        "zip_code": "220101"
    },
    {
        "name": "Rumipamba-Enokanqui (Cab. En El Paraiso)-Lago San Pedro-Tres De Noviembre",
        "zip_code": "220102"
    },
    {
        "name": "Unión Milagreña-Pompeya",
        "zip_code": "220103"
    },
    {
        "name": "San Carlos-San Sebastian Del Coca",
        "zip_code": "220104"
    },
    {
        "name": "Loreto-Avila (Cab En Huiruno)-Puerto Murialdo",
        "zip_code": "220207"
    },
    {
        "name": "San Jose De Payamino",
        "zip_code": "220208"
    },
    {
        "name": "San Jose De Dahuano-San Vicente De Huaticocha",
        "zip_code": "220211"
    },
    {
        "name": "Santa Elena",
        "zip_code": "240101"
    },
    {
        "name": "Santa Elena",
        "zip_code": "240102"
    },
    {
        "name": "Santa Elena",
        "zip_code": "240103"
    },
    {
        "name": "Santa Elena",
        "zip_code": "240104"
    },
    {
        "name": "Chanduy",
        "zip_code": "240105"
    },
    {
        "name": "San Jose De Ancon-Atahualpa",
        "zip_code": "240106"
    },
    {
        "name": "Colonche",
        "zip_code": "240107"
    },
    {
        "name": "Simon Bolivar (Julio Moreno)",
        "zip_code": "240108"
    },
    {
        "name": "Colonche",
        "zip_code": "240109"
    },
    {
        "name": "Colonche",
        "zip_code": "240110"
    },
    {
        "name": "Manglaralto",
        "zip_code": "240111"
    },
    {
        "name": "Manglaralto",
        "zip_code": "240112"
    },
    {
        "name": "La Libertad",
        "zip_code": "240201"
    },
    {
        "name": "La Libertad",
        "zip_code": "240202"
    },
    {
        "name": "La Libertad",
        "zip_code": "240203"
    },
    {
        "name": "La Libertad",
        "zip_code": "240204"
    },
    {
        "name": "Salinas",
        "zip_code": "240205"
    },
    {
        "name": "Salinas",
        "zip_code": "240206"
    },
    {
        "name": "Jose Luis Tamayo (Muey)",
        "zip_code": "240207"
    },
    {
        "name": "Anconcito",
        "zip_code": "240208"
    },
    {
        "name": "Santo Domingo De Los Colorados",
        "zip_code": "230101"
    },
    {
        "name": "Santo Domingo De Los Colorados",
        "zip_code": "230102"
    },
    {
        "name": "Santo Domingo De Los Colorados",
        "zip_code": "230103"
    },
    {
        "name": "Santo Domingo De Los Colorados",
        "zip_code": "230104"
    },
    {
        "name": "Santo Domingo De Los Colorados",
        "zip_code": "230105"
    },
    {
        "name": "Santo Domingo De Los Colorados",
        "zip_code": "230106"
    },
    {
        "name": "Santo Domingo De Los Colorados",
        "zip_code": "230107"
    },
    {
        "name": "Santo Domingo De Los Colorados",
        "zip_code": "230108"
    },
    {
        "name": "Santo Domingo De Los Colorados",
        "zip_code": "230109"
    },
    {
        "name": "Santo Domingo De Los Colorados",
        "zip_code": "230110"
    },
    {
        "name": "Santo Domingo De Los Colorados",
        "zip_code": "230111"
    },
    {
        "name": "Santo Domingo De Los Colorados",
        "zip_code": "230112"
    },
    {
        "name": "Santo Domingo De Los Colorados",
        "zip_code": "230113"
    },
    {
        "name": "Santo Domingo De Los Colorados",
        "zip_code": "230114"
    },
    {
        "name": "Alluriquin",
        "zip_code": "230115"
    },
    {
        "name": "Alluriquin",
        "zip_code": "230116"
    },
    {
        "name": "Santo Domingo De Los Colorados",
        "zip_code": "230117"
    },
    {
        "name": "Santa Maria Del Toachi",
        "zip_code": "230118"
    },
    {
        "name": "El Esfuerzo",
        "zip_code": "230119"
    },
    {
        "name": "Luz De America",
        "zip_code": "230120"
    },
    {
        "name": "Santo Domingo De Los Colorados",
        "zip_code": "230201"
    },
    {
        "name": "Santo Domingo De Los Colorados",
        "zip_code": "230202"
    },
    {
        "name": "Santo Domingo De Los Colorados",
        "zip_code": "230203"
    },
    {
        "name": "Santo Domingo De Los Colorados",
        "zip_code": "230204"
    },
    {
        "name": "Santo Domingo De Los Colorados",
        "zip_code": "230205"
    },
    {
        "name": "Santo Domingo De Los Colorados",
        "zip_code": "230206"
    },
    {
        "name": "Santo Domingo De Los Colorados",
        "zip_code": "230207"
    },
    {
        "name": "Santo Domingo De Los Colorados",
        "zip_code": "230208"
    },
    {
        "name": "Valle Hermoso",
        "zip_code": "230209"
    },
    {
        "name": "Puerto Limon",
        "zip_code": "230210"
    },
    {
        "name": "Santo Domingo De Los Colorados",
        "zip_code": "230211"
    },
    {
        "name": "San Jacinto Del Bua",
        "zip_code": "230212"
    },
    {
        "name": "San Jacinto Del Bua",
        "zip_code": "230213"
    },
    {
        "name": "La Concordia",
        "zip_code": "080701"
    },
    {
        "name": "La Concordia",
        "zip_code": "080702"
    },
    {
        "name": "La Concordia",
        "zip_code": "080703"
    },
    {
        "name": "El Piedrero",
        "zip_code": "900001"
    },
    {
        "name": "Manga Del Cura",
        "zip_code": "900002"
    },
    {
        "name": "Manga Del Cura",
        "zip_code": "900003"
    },
    {
        "name": "Las Golondrinas",
        "zip_code": "900004"
    }
]