[
    {
        "name": "Port-de-Paix",
        "zip_code": "HT3110"
    },
    {
        "name": "La Pointe",
        "zip_code": "HT3111"
    },
    {
        "name": "La Tortue",
        "zip_code": "HT3120"
    },
    {
        "name": "Pointe des Oiseaux",
        "zip_code": "HT3121"
    },
    {
        "name": "Mare Rouge",
        "zip_code": "HT3122"
    },
    {
        "name": "Bassin-Bleu",
        "zip_code": "HT3130"
    },
    {
        "name": "Chansolme",
        "zip_code": "HT3140"
    },
    {
        "name": "Saint-Louis-du-Nord",
        "zip_code": "HT3210"
    },
    {
        "name": "Bonneau",
        "zip_code": "HT3211"
    },
    {
        "name": "Guichard",
        "zip_code": "HT3212"
    },
    {
        "name": "Anse-à-Foleur",
        "zip_code": "HT3220"
    },
    {
        "name": "Môle-Saint-Nicolas",
        "zip_code": "HT3310"
    },
    {
        "name": "Bombardopolis",
        "zip_code": "HT3320"
    },
    {
        "name": "Baie-de-Henne",
        "zip_code": "HT3330"
    },
    {
        "name": "Jean-Rabel",
        "zip_code": "HT3340"
    },
    {
        "name": "Gonaïves",
        "zip_code": "HT4110"
    },
    {
        "name": "Petite Rivière de l’Artibonite",
        "zip_code": "HT4111"
    },
    {
        "name": "Ennery",
        "zip_code": "HT4120"
    },
    {
        "name": "L'Estère",
        "zip_code": "HT4130"
    },
    {
        "name": "Gros Morne",
        "zip_code": "HT4210"
    },
    {
        "name": "Terre-Neuve",
        "zip_code": "HT4220"
    },
    {
        "name": "Anse-Rouge",
        "zip_code": "HT4230"
    },
    {
        "name": "Sources Chaudes",
        "zip_code": "HT4231"
    },
    {
        "name": "Saint-Marc",
        "zip_code": "HT4310"
    },
    {
        "name": "Montrouis",
        "zip_code": "HT4311"
    },
    {
        "name": "Verrettes",
        "zip_code": "HT4320"
    },
    {
        "name": "Désarmes",
        "zip_code": "HT4321"
    },
    {
        "name": "Deschapelles",
        "zip_code": "HT4322"
    },
    {
        "name": "Liancourt",
        "zip_code": "HT4323"
    },
    {
        "name": "Dessalines (Marchand-Dessalines)",
        "zip_code": "HT4410"
    },
    {
        "name": "Petite-Rivière-de-l’Artibonite",
        "zip_code": "HT4420"
    },
    {
        "name": "Savane à Roches",
        "zip_code": "HT4421"
    },
    {
        "name": "Grande-Saline",
        "zip_code": "HT4430"
    },
    {
        "name": "Desdunes",
        "zip_code": "HT4440"
    },
    {
        "name": "Marmelade",
        "zip_code": "HT4510"
    },
    {
        "name": "Saint-Michel-de-l’Attalaye",
        "zip_code": "HT4520"
    },
    {
        "name": "Moreau Paye",
        "zip_code": "HT4530"
    },
    {
        "name": "Hinche",
        "zip_code": "HT5110"
    },
    {
        "name": "Los Palis",
        "zip_code": "HT5111"
    },
    {
        "name": "Maïssade",
        "zip_code": "HT5120"
    },
    {
        "name": "Louverture",
        "zip_code": "HT5121"
    },
    {
        "name": "Thomonde",
        "zip_code": "HT5130"
    },
    {
        "name": "Cerca-Carvajal",
        "zip_code": "HT5140"
    },
    {
        "name": "Mirebalais",
        "zip_code": "HT5210"
    },
    {
        "name": "Dufailly",
        "zip_code": "HT5211"
    },
    {
        "name": "Saut-d’Eau",
        "zip_code": "HT5220"
    },
    {
        "name": "Boucan-Carré",
        "zip_code": "HT5230"
    },
    {
        "name": "Péligre",
        "zip_code": "HT5231"
    },
    {
        "name": "Lascahobas",
        "zip_code": "HT5310"
    },
    {
        "name": "Belladère",
        "zip_code": "HT5320"
    },
    {
        "name": "Baptiste",
        "zip_code": "HT5321"
    },
    {
        "name": "Savanette",
        "zip_code": "HT5330"
    },
    {
        "name": "Cerca-la-Source",
        "zip_code": "HT5410"
    },
    {
        "name": "Saltadère",
        "zip_code": "HT5411"
    },
    {
        "name": "Lamielle",
        "zip_code": "HT5412"
    },
    {
        "name": "Thomassique",
        "zip_code": "HT5420"
    },
    {
        "name": "Cap-Haïtien (la ville)",
        "zip_code": "HT1110"
    },
    {
        "name": "Bande-du-Nord (quartier du Cap)",
        "zip_code": "HT1111"
    },
    {
        "name": "Labadie (quartier du Cap)",
        "zip_code": "HT1112"
    },
    {
        "name": "Haut-du-Cap (quartier du Cap)",
        "zip_code": "HT1113"
    },
    {
        "name": "Petite-Anse",
        "zip_code": "HT1114"
    },
    {
        "name": "Quartier-Morin",
        "zip_code": "HT1120"
    },
    {
        "name": "Limonade",
        "zip_code": "HT1130"
    },
    {
        "name": "Acul-du-Nord",
        "zip_code": "HT1210"
    },
    {
        "name": "La Soufrière",
        "zip_code": "HT1211"
    },
    {
        "name": "Plaine-du-Nord",
        "zip_code": "HT1220"
    },
    {
        "name": "Robillard",
        "zip_code": "HT1221"
    },
    {
        "name": "Milot",
        "zip_code": "HT1230"
    },
    {
        "name": "Carrefour-des-Pères",
        "zip_code": "HT1231"
    },
    {
        "name": "Grande-Rivière-du-Nord",
        "zip_code": "HT1310"
    },
    {
        "name": "Barbon",
        "zip_code": "HT1320"
    },
    {
        "name": "Saint-Raphaël",
        "zip_code": "HT1410"
    },
    {
        "name": "Dondon",
        "zip_code": "HT1420"
    },
    {
        "name": "Ranquitte",
        "zip_code": "HT1430"
    },
    {
        "name": "Pignon",
        "zip_code": "HT1440"
    },
    {
        "name": "La Victoire",
        "zip_code": "HT1450"
    },
    {
        "name": "Borgne",
        "zip_code": "HT1510"
    },
    {
        "name": "Petit-Bourg-de-Borgne",
        "zip_code": "HT1511"
    },
    {
        "name": "Côte-de-Fer et Fond",
        "zip_code": "HT1517"
    },
    {
        "name": "Port-Margot",
        "zip_code": "HT1520"
    },
    {
        "name": "Bayeux",
        "zip_code": "HT1521"
    },
    {
        "name": "Margot",
        "zip_code": "HT1522"
    },
    {
        "name": "Limbé",
        "zip_code": "HT1610"
    },
    {
        "name": "Camp-Coq",
        "zip_code": "HT1611"
    },
    {
        "name": "Bas-Limbé",
        "zip_code": "HT1620"
    },
    {
        "name": "Plaisance",
        "zip_code": "HT1710"
    },
    {
        "name": "Pilate",
        "zip_code": "HT1720"
    },
    {
        "name": "Ravine-Trompette",
        "zip_code": "HT1723"
    },
    {
        "name": "Fort-Liberté",
        "zip_code": "HT2110"
    },
    {
        "name": "Dérac",
        "zip_code": "HT2111"
    },
    {
        "name": "Acul Samedi",
        "zip_code": "HT2112"
    },
    {
        "name": "Ferrier",
        "zip_code": "HT2120"
    },
    {
        "name": "Maribahoux",
        "zip_code": "HT2121"
    },
    {
        "name": "Perches",
        "zip_code": "HT2130"
    },
    {
        "name": "Ouanaminthe",
        "zip_code": "HT2210"
    },
    {
        "name": "Capotille",
        "zip_code": "HT2220"
    },
    {
        "name": "Mont-Organisé",
        "zip_code": "HT2230"
    },
    {
        "name": "Trou-duNord",
        "zip_code": "HT2310"
    },
    {
        "name": "Sainte-Suzanne",
        "zip_code": "HT2320"
    },
    {
        "name": "Dupity",
        "zip_code": "HT2321"
    },
    {
        "name": "Terrier-Rouge",
        "zip_code": "HT2330"
    },
    {
        "name": "Phaëton",
        "zip_code": "HT2331"
    },
    {
        "name": "Paulette",
        "zip_code": "HT2332"
    },
    {
        "name": "Caracol",
        "zip_code": "HT2340"
    },
    {
        "name": "Vallières",
        "zip_code": "HT2410"
    },
    {
        "name": "Grosse-Roche",
        "zip_code": "HT2411"
    },
    {
        "name": "Carice",
        "zip_code": "HT2420"
    },
    {
        "name": "Mombin-Crochu",
        "zip_code": "HT2430"
    },
    {
        "name": "Bois-Laurence",
        "zip_code": "HT2431"
    },
    {
        "name": "Puits Blain",
        "zip_code": "HT3408"
    },
    {
        "name": "Port-au-Prince",
        "zip_code": "HT6110"
    },
    {
        "name": "Bel-Air et Bourdon",
        "zip_code": "HT6111"
    },
    {
        "name": "Turgeau",
        "zip_code": "HT6113"
    },
    {
        "name": "Bois Verna",
        "zip_code": "HT6114"
    },
    {
        "name": "Lalue",
        "zip_code": "HT6115"
    },
    {
        "name": "Carrefour Feuilles",
        "zip_code": "HT6116"
    },
    {
        "name": "Morne de l’Hôpital",
        "zip_code": "HT6117"
    },
    {
        "name": "Bolosse",
        "zip_code": "HT6118"
    },
    {
        "name": "Martissant et Fontamara",
        "zip_code": "HT6119"
    },
    {
        "name": "Delmas",
        "zip_code": "HT6120"
    },
    {
        "name": "Varreux",
        "zip_code": "HT6121"
    },
    {
        "name": "Cité soleil",
        "zip_code": "HT6122"
    },
    {
        "name": "Maïs Gâté, Tabarre zone",
        "zip_code": "HT6123"
    },
    {
        "name": "Tabarre (zone1)",
        "zip_code": "HT6123"
    },
    {
        "name": "Petite Place Cazeau, Tabarre zone",
        "zip_code": "HT6124"
    },
    {
        "name": "Tabarre (zone2)",
        "zip_code": "HT6124"
    },
    {
        "name": "Croix-des-Missions",
        "zip_code": "HT6125"
    },
    {
        "name": "Carrefour",
        "zip_code": "HT6130"
    },
    {
        "name": "Bizoton",
        "zip_code": "HT6131"
    },
    {
        "name": "Diquini, Thor",
        "zip_code": "HT6132"
    },
    {
        "name": "Côte-Page, Mahotière",
        "zip_code": "HT6133"
    },
    {
        "name": "Arcachon",
        "zip_code": "HT6134"
    },
    {
        "name": "Warney",
        "zip_code": "HT6134"
    },
    {
        "name": "Brochette",
        "zip_code": "HT6135"
    },
    {
        "name": "Merger",
        "zip_code": "HT6136"
    },
    {
        "name": "Lamentin",
        "zip_code": "HT6136"
    },
    {
        "name": "Mariani",
        "zip_code": "HT6136"
    },
    {
        "name": "Pétion-Ville",
        "zip_code": "HT6140"
    },
    {
        "name": "Frères, pergnier,peguy-ville",
        "zip_code": "HT6141"
    },
    {
        "name": "Pèlerin",
        "zip_code": "HT6142"
    },
    {
        "name": "Tête de l’Eau",
        "zip_code": "HT6143"
    },
    {
        "name": "Laboule",
        "zip_code": "HT6144"
    },
    {
        "name": "Thomassin",
        "zip_code": "HT6145"
    },
    {
        "name": "Fermathe",
        "zip_code": "HT6146"
    },
    {
        "name": "Pergnier",
        "zip_code": "HT6147"
    },
    {
        "name": "Kenscoff",
        "zip_code": "HT6150"
    },
    {
        "name": "Gressier",
        "zip_code": "HT6160"
    },
    {
        "name": "Léogâne",
        "zip_code": "HT6210"
    },
    {
        "name": "Trouin",
        "zip_code": "HT6211"
    },
    {
        "name": "Orangers",
        "zip_code": "HT6212"
    },
    {
        "name": "PetitGoâve",
        "zip_code": "HT6220"
    },
    {
        "name": "Vialet",
        "zip_code": "HT6221"
    },
    {
        "name": "Grand Goâve",
        "zip_code": "HT6230"
    },
    {
        "name": "Croix-des-Bouquets",
        "zip_code": "HT6310"
    },
    {
        "name": "Santo",
        "zip_code": "HT6311"
    },
    {
        "name": "Bon Repos",
        "zip_code": "HT6312"
    },
    {
        "name": "Thomazeau",
        "zip_code": "HT6320"
    },
    {
        "name": "Ganthier",
        "zip_code": "HT6330"
    },
    {
        "name": "Cornillon",
        "zip_code": "HT6330"
    },
    {
        "name": "Fonds Parisien et Galette Bonbon",
        "zip_code": "HT6331"
    },
    {
        "name": "Fonds Verettes",
        "zip_code": "HT6340"
    },
    {
        "name": "Arcahaie",
        "zip_code": "HT6410"
    },
    {
        "name": "Saintard",
        "zip_code": "HT6411"
    },
    {
        "name": "Cabaret",
        "zip_code": "HT6420"
    },
    {
        "name": "Casale",
        "zip_code": "HT6421"
    },
    {
        "name": "Anse à Galets (La Gonâve)",
        "zip_code": "HT6510"
    },
    {
        "name": "Pointe à Raquette (La Gonâve)",
        "zip_code": "HT6520"
    },
    {
        "name": "Les Cayes",
        "zip_code": "HT8110"
    },
    {
        "name": "Torbeck",
        "zip_code": "HT8120"
    },
    {
        "name": "puits Blain",
        "zip_code": "HT8121"
    },
    {
        "name": "Ducis",
        "zip_code": "HT8122"
    },
    {
        "name": "Chantal",
        "zip_code": "HT8130"
    },
    {
        "name": "Camp Perrin",
        "zip_code": "HT8140"
    },
    {
        "name": "Maniche",
        "zip_code": "HT8150"
    },
    {
        "name": "L’Ïle à Vaches",
        "zip_code": "HT8160"
    },
    {
        "name": "Port-Salut",
        "zip_code": "HT8210"
    },
    {
        "name": "Saint Jean du Sud",
        "zip_code": "HT8220"
    },
    {
        "name": "Arniquet",
        "zip_code": "HT8230"
    },
    {
        "name": "Aquin",
        "zip_code": "HT8310"
    },
    {
        "name": "Fond-Des-Blancs",
        "zip_code": "HT8311"
    },
    {
        "name": "Vieux Bourg d’Aquin",
        "zip_code": "HT8312"
    },
    {
        "name": "La Colline",
        "zip_code": "HT8313"
    },
    {
        "name": "Saint Louis du Sud",
        "zip_code": "HT8320"
    },
    {
        "name": "Cavaillon",
        "zip_code": "HT8330"
    },
    {
        "name": "Côteaux",
        "zip_code": "HT8410"
    },
    {
        "name": "Damassin",
        "zip_code": "HT8411"
    },
    {
        "name": "La Côte",
        "zip_code": "HT8412"
    },
    {
        "name": "Port à Piment",
        "zip_code": "HT8420"
    },
    {
        "name": "Roche à Bateau",
        "zip_code": "HT8430"
    },
    {
        "name": "Chardonnières",
        "zip_code": "HT8510"
    },
    {
        "name": "Randel",
        "zip_code": "HT8511"
    },
    {
        "name": "Les Anglais",
        "zip_code": "HT8520"
    },
    {
        "name": "Tiburon",
        "zip_code": "HT8530"
    },
    {
        "name": "Cahonane",
        "zip_code": "HT8531"
    },
    {
        "name": "Jacmel",
        "zip_code": "HT9110"
    },
    {
        "name": "Marbial",
        "zip_code": "HT9111"
    },
    {
        "name": "Marigot",
        "zip_code": "HT9120"
    },
    {
        "name": "Seguin",
        "zip_code": "HT9121"
    },
    {
        "name": "Cayes Jacmel",
        "zip_code": "HT9130"
    },
    {
        "name": "La Vallée de Jacmel",
        "zip_code": "HT9140"
    },
    {
        "name": "Bainet",
        "zip_code": "HT9210"
    },
    {
        "name": "Côtes de Fer",
        "zip_code": "HT9220"
    },
    {
        "name": "Belle-Anse",
        "zip_code": "HT9310"
    },
    {
        "name": "Mapou",
        "zip_code": "HT9311"
    },
    {
        "name": "Grand Gosier",
        "zip_code": "HT9320"
    },
    {
        "name": "Bodarie",
        "zip_code": "HT9321"
    },
    {
        "name": "Thiotte",
        "zip_code": "HT9330"
    },
    {
        "name": "Anse à Pitre",
        "zip_code": "HT9340"
    },
    {
        "name": "Banane",
        "zip_code": "HT9341"
    },
    {
        "name": "Jérémie",
        "zip_code": "HT7110"
    },
    {
        "name": "Léon",
        "zip_code": "HT7111"
    },
    {
        "name": "Marfranc",
        "zip_code": "HT7112"
    },
    {
        "name": "Abricots",
        "zip_code": "HT7120"
    },
    {
        "name": "Bonbon",
        "zip_code": "HT7130"
    },
    {
        "name": "Moron",
        "zip_code": "HT7140"
    },
    {
        "name": "Sources Chaudes",
        "zip_code": "HT7141"
    },
    {
        "name": "Chambellan",
        "zip_code": "HT7150"
    },
    {
        "name": "Anse-d’Hainault",
        "zip_code": "HT7210"
    },
    {
        "name": "Dame-Marie",
        "zip_code": "HT7220"
    },
    {
        "name": "Lesson",
        "zip_code": "HT7221"
    },
    {
        "name": "Les Irois",
        "zip_code": "HT7230"
    },
    {
        "name": "Carcasse",
        "zip_code": "HT7231"
    },
    {
        "name": "Corail",
        "zip_code": "HT7310"
    },
    {
        "name": "Roseaux",
        "zip_code": "HT7320"
    },
    {
        "name": "Beaumont",
        "zip_code": "HT7330"
    },
    {
        "name": "Pestel",
        "zip_code": "HT7340"
    },
    {
        "name": "Miragoâne",
        "zip_code": "HT7410"
    },
    {
        "name": "Saint-Michel-du-Sud",
        "zip_code": "HT7411"
    },
    {
        "name": "Paillant",
        "zip_code": "HT7412"
    },
    {
        "name": "Fonds-des-Nègres",
        "zip_code": "HT7413"
    },
    {
        "name": "Petite-Rivière-de-Nippes",
        "zip_code": "HT7420"
    },
    {
        "name": "Anse-à-Veau",
        "zip_code": "HT7510"
    },
    {
        "name": "Baradères",
        "zip_code": "HT7520"
    },
    {
        "name": "Grand-Boucan",
        "zip_code": "HT7521"
    },
    {
        "name": "Petit-Trou-de-Nippes",
        "zip_code": "HT7530"
    },
    {
        "name": "L’Asile",
        "zip_code": "HT7540"
    }
]