[
    {
        "name": "Blockhouse Bay",
        "zip_code": "0600"
    },
    {
        "name": "Kelston",
        "zip_code": "0602"
    },
    {
        "name": "Huia",
        "zip_code": "0604"
    },
    {
        "name": "Te Atatu South",
        "zip_code": "0610"
    },
    {
        "name": "McLaren Park",
        "zip_code": "0612"
    },
    {
        "name": "Swanson",
        "zip_code": "0614"
    },
    {
        "name": "Hobsonville",
        "zip_code": "0618"
    },
    {
        "name": "Forrest Hill",
        "zip_code": "0620"
    },
    {
        "name": "Belmont",
        "zip_code": "0622"
    },
    {
        "name": "Devonport",
        "zip_code": "0624"
    },
    {
        "name": "Chatswood",
        "zip_code": "0626"
    },
    {
        "name": "North Shore",
        "zip_code": "0627"
    },
    {
        "name": "Marlborough",
        "zip_code": "0629"
    },
    {
        "name": "Browns Bay",
        "zip_code": "0630"
    },
    {
        "name": "Greenhithe",
        "zip_code": "0632"
    },
    {
        "name": "New Lynn",
        "zip_code": "0640"
    },
    {
        "name": "Glen Eden",
        "zip_code": "0641"
    },
    {
        "name": "Titirangi",
        "zip_code": "0642"
    },
    {
        "name": "Green Bay",
        "zip_code": "0643"
    },
    {
        "name": "Blockhouse Bay",
        "zip_code": "0644"
    },
    {
        "name": "Glendene",
        "zip_code": "0645"
    },
    {
        "name": "Sunnyvale",
        "zip_code": "0650"
    },
    {
        "name": "Te Atatu",
        "zip_code": "0651"
    },
    {
        "name": "Te Atatu South",
        "zip_code": "0652"
    },
    {
        "name": "Swanson",
        "zip_code": "0653"
    },
    {
        "name": "Te Atatu South",
        "zip_code": "0654"
    },
    {
        "name": "Swanson",
        "zip_code": "0655"
    },
    {
        "name": "Massey East",
        "zip_code": "0656"
    },
    {
        "name": "West Harbour",
        "zip_code": "0657"
    },
    {
        "name": "Waitakere",
        "zip_code": "0660"
    },
    {
        "name": "Te Atatu Peninsula",
        "zip_code": "0661"
    },
    {
        "name": "Brighams Creek",
        "zip_code": "0662"
    },
    {
        "name": "Massey East",
        "zip_code": "0663"
    },
    {
        "name": "Hauraki",
        "zip_code": "0740"
    },
    {
        "name": "Milford",
        "zip_code": "0741"
    },
    {
        "name": "Torbay",
        "zip_code": "0742"
    },
    {
        "name": "Forrest Hill",
        "zip_code": "0743"
    },
    {
        "name": "Devonport",
        "zip_code": "0744"
    },
    {
        "name": "Glenfield",
        "zip_code": "0745"
    },
    {
        "name": "Birkenhead",
        "zip_code": "0746"
    },
    {
        "name": "Marlborough",
        "zip_code": "0747"
    },
    {
        "name": "North Shore",
        "zip_code": "0748"
    },
    {
        "name": "Birkdale",
        "zip_code": "0749"
    },
    {
        "name": "Takapuna",
        "zip_code": "0750"
    },
    {
        "name": "Glenfield",
        "zip_code": "0751"
    },
    {
        "name": "Albany",
        "zip_code": "0752"
    },
    {
        "name": "Browns Bay",
        "zip_code": "0753"
    },
    {
        "name": "Mairangi Bay",
        "zip_code": "0754"
    },
    {
        "name": "Albany",
        "zip_code": "0755"
    },
    {
        "name": "Paremoremo",
        "zip_code": "0756"
    },
    {
        "name": "Forrest Hill",
        "zip_code": "0757"
    },
    {
        "name": "Mairangi Bay",
        "zip_code": "0758"
    },
    {
        "name": "Karekare",
        "zip_code": "0772"
    },
    {
        "name": "Piha",
        "zip_code": "0781"
    },
    {
        "name": "Waitakere",
        "zip_code": "0782"
    },
    {
        "name": "Red Vale",
        "zip_code": "0792"
    },
    {
        "name": "Coatesville",
        "zip_code": "0793"
    },
    {
        "name": "Dairy Flat",
        "zip_code": "0794"
    },
    {
        "name": "Helensville",
        "zip_code": "0800"
    },
    {
        "name": "Huapai",
        "zip_code": "0810"
    },
    {
        "name": "Waimauku",
        "zip_code": "0812"
    },
    {
        "name": "West Harbour",
        "zip_code": "0814"
    },
    {
        "name": "Riverhead",
        "zip_code": "0820"
    },
    {
        "name": "Parakai",
        "zip_code": "0830"
    },
    {
        "name": "Helensville",
        "zip_code": "0840"
    },
    {
        "name": "Huapai",
        "zip_code": "0841"
    },
    {
        "name": "Pahitoa",
        "zip_code": "0842"
    },
    {
        "name": "Kaukapakapa",
        "zip_code": "0843"
    },
    {
        "name": "Kaukapakapa",
        "zip_code": "0871"
    },
    {
        "name": "Parakakau",
        "zip_code": "0873"
    },
    {
        "name": "Parkhurst",
        "zip_code": "0874"
    },
    {
        "name": "Helensville",
        "zip_code": "0875"
    },
    {
        "name": "Woodhill",
        "zip_code": "0881"
    },
    {
        "name": "Waimauku",
        "zip_code": "0882"
    },
    {
        "name": "Pahitoa",
        "zip_code": "0883"
    },
    {
        "name": "Huapai",
        "zip_code": "0891"
    },
    {
        "name": "Kumeu",
        "zip_code": "0892"
    },
    {
        "name": "Wellsford",
        "zip_code": "0900"
    },
    {
        "name": "Warkworth",
        "zip_code": "0910"
    },
    {
        "name": "Leigh",
        "zip_code": "0920"
    },
    {
        "name": "Whangaparaoa",
        "zip_code": "0930"
    },
    {
        "name": "Orewa",
        "zip_code": "0931"
    },
    {
        "name": "Red Beach",
        "zip_code": "0932"
    },
    {
        "name": "Wellsford",
        "zip_code": "0940"
    },
    {
        "name": "Warkworth",
        "zip_code": "0941"
    },
    {
        "name": "Snells Beach",
        "zip_code": "0942"
    },
    {
        "name": "Whangaparaoa",
        "zip_code": "0943"
    },
    {
        "name": "Silverdale",
        "zip_code": "0944"
    },
    {
        "name": "Red Beach",
        "zip_code": "0945"
    },
    {
        "name": "Orewa",
        "zip_code": "0946"
    },
    {
        "name": "Leigh",
        "zip_code": "0947"
    },
    {
        "name": "Matakana",
        "zip_code": "0948"
    },
    {
        "name": "Waiwera",
        "zip_code": "0950"
    },
    {
        "name": "Puhoi",
        "zip_code": "0951"
    },
    {
        "name": "Okiwi",
        "zip_code": "0960"
    },
    {
        "name": "Okupu",
        "zip_code": "0961"
    },
    {
        "name": "Tryphena",
        "zip_code": "0962"
    },
    {
        "name": "Port Fitzroy",
        "zip_code": "0963"
    },
    {
        "name": "Wayby",
        "zip_code": "0972"
    },
    {
        "name": "Wharehine",
        "zip_code": "0973"
    },
    {
        "name": "Te Hana",
        "zip_code": "0974"
    },
    {
        "name": "Wharehine",
        "zip_code": "0977"
    },
    {
        "name": "Woodcocks",
        "zip_code": "0981"
    },
    {
        "name": "Algies Bay",
        "zip_code": "0982"
    },
    {
        "name": "Pohuehue",
        "zip_code": "0983"
    },
    {
        "name": "Ahuroa",
        "zip_code": "0984"
    },
    {
        "name": "Big Omaha",
        "zip_code": "0985"
    },
    {
        "name": "Tawharanui",
        "zip_code": "0986"
    },
    {
        "name": "Whangapara",
        "zip_code": "0991"
    },
    {
        "name": "Silverdale",
        "zip_code": "0992"
    },
    {
        "name": "Red Beach",
        "zip_code": "0993"
    },
    {
        "name": "Auckland",
        "zip_code": "1010"
    },
    {
        "name": "Herne Bay",
        "zip_code": "1011"
    },
    {
        "name": "Arch Hill",
        "zip_code": "1021"
    },
    {
        "name": "Point Chevalier",
        "zip_code": "1022"
    },
    {
        "name": "Epsom",
        "zip_code": "1023"
    },
    {
        "name": "Epsom",
        "zip_code": "1024"
    },
    {
        "name": "Sandringham",
        "zip_code": "1025"
    },
    {
        "name": "Waterview",
        "zip_code": "1026"
    },
    {
        "name": "Mount Roskill",
        "zip_code": "1041"
    },
    {
        "name": "Hillsborough",
        "zip_code": "1042"
    },
    {
        "name": "Remuera",
        "zip_code": "1050"
    },
    {
        "name": "Ellerslie",
        "zip_code": "1051"
    },
    {
        "name": "Point Resolution",
        "zip_code": "1052"
    },
    {
        "name": "Penrose",
        "zip_code": "1060"
    },
    {
        "name": "Te Papapa",
        "zip_code": "1061"
    },
    {
        "name": "OTAHUHU",
        "zip_code": "1062"
    },
    {
        "name": "Kohimarama",
        "zip_code": "1071"
    },
    {
        "name": "Tamaki",
        "zip_code": "1072"
    },
    {
        "name": "Surfdale",
        "zip_code": "1081"
    },
    {
        "name": "Ostend",
        "zip_code": "1081"
    },
    {
        "name": "Mechanics Bay",
        "zip_code": "1140"
    },
    {
        "name": "Newmarket",
        "zip_code": "1141"
    },
    {
        "name": "Newton",
        "zip_code": "1142"
    },
    {
        "name": "Mechanics Bay",
        "zip_code": "1143"
    },
    {
        "name": "Freemans Bay",
        "zip_code": "1144"
    },
    {
        "name": "Grafton",
        "zip_code": "1145"
    },
    {
        "name": "Herne Bay",
        "zip_code": "1147"
    },
    {
        "name": "Auckland",
        "zip_code": "1148"
    },
    {
        "name": "Parnell",
        "zip_code": "1149"
    },
    {
        "name": "Auckland",
        "zip_code": "1150"
    },
    {
        "name": "Point Resolution",
        "zip_code": "1151"
    },
    {
        "name": "Western Springs",
        "zip_code": "1245"
    },
    {
        "name": "Mount Albert",
        "zip_code": "1246"
    },
    {
        "name": "Wesley",
        "zip_code": "1340"
    },
    {
        "name": "Balmoral",
        "zip_code": "1342"
    },
    {
        "name": "One Tree Hill",
        "zip_code": "1344"
    },
    {
        "name": "Royal Oak",
        "zip_code": "1345"
    },
    {
        "name": "Sandringham",
        "zip_code": "1346"
    },
    {
        "name": "One Tree Hill",
        "zip_code": "1347"
    },
    {
        "name": "Avondale",
        "zip_code": "1348"
    },
    {
        "name": "Epsom",
        "zip_code": "1349"
    },
    {
        "name": "Owairaka",
        "zip_code": "1350"
    },
    {
        "name": "Balmoral",
        "zip_code": "1351"
    },
    {
        "name": "Mount Eden",
        "zip_code": "1352"
    },
    {
        "name": "Three Kings",
        "zip_code": "1440"
    },
    {
        "name": "Lynfield",
        "zip_code": "1443"
    },
    {
        "name": "Waikowhai",
        "zip_code": "1445"
    },
    {
        "name": "Mount Eden",
        "zip_code": "1446"
    },
    {
        "name": "Greenlane",
        "zip_code": "1541"
    },
    {
        "name": "Ellerslie",
        "zip_code": "1542"
    },
    {
        "name": "Greenlane",
        "zip_code": "1543"
    },
    {
        "name": "Ellerslie",
        "zip_code": "1544"
    },
    {
        "name": "Panmure",
        "zip_code": "1545"
    },
    {
        "name": "Ellerslie",
        "zip_code": "1546"
    },
    {
        "name": "Otahuhu",
        "zip_code": "1640"
    },
    {
        "name": "Panmure",
        "zip_code": "1641"
    },
    {
        "name": "Mount Wellington",
        "zip_code": "1642"
    },
    {
        "name": "Onehunga",
        "zip_code": "1643"
    },
    {
        "name": "Saint Heliers",
        "zip_code": "1740"
    },
    {
        "name": "Panmure",
        "zip_code": "1741"
    },
    {
        "name": "Meadowbank",
        "zip_code": "1742"
    },
    {
        "name": "Point England",
        "zip_code": "1743"
    },
    {
        "name": "Mission Bay",
        "zip_code": "1744"
    },
    {
        "name": "Orakei",
        "zip_code": "1745"
    },
    {
        "name": "New Windsor",
        "zip_code": "1746"
    },
    {
        "name": "Oneroa",
        "zip_code": "1840"
    },
    {
        "name": "Onetangi",
        "zip_code": "1841"
    },
    {
        "name": "Blackpool",
        "zip_code": "1842"
    },
    {
        "name": "Ostend",
        "zip_code": "1843"
    },
    {
        "name": "Onetangi",
        "zip_code": "1971"
    },
    {
        "name": "Pakuranga Heights",
        "zip_code": "2010"
    },
    {
        "name": "Eastern Beach",
        "zip_code": "2012"
    },
    {
        "name": "East Tamaki",
        "zip_code": "2013"
    },
    {
        "name": "Shelly Park",
        "zip_code": "2014"
    },
    {
        "name": "East Tamaki",
        "zip_code": "2016"
    },
    {
        "name": "Beachlands",
        "zip_code": "2018"
    },
    {
        "name": "Mangere",
        "zip_code": "2022"
    },
    {
        "name": "Wiri",
        "zip_code": "2023"
    },
    {
        "name": "Mangere East",
        "zip_code": "2024"
    },
    {
        "name": "Wiri",
        "zip_code": "2025"
    },
    {
        "name": "Manurewa",
        "zip_code": "2102"
    },
    {
        "name": "Weymouth",
        "zip_code": "2103"
    },
    {
        "name": "Wiri",
        "zip_code": "2104"
    },
    {
        "name": "Manurewa East",
        "zip_code": "2105"
    },
    {
        "name": "Red Hill",
        "zip_code": "2110"
    },
    {
        "name": "Takanini",
        "zip_code": "2112"
    },
    {
        "name": "Papakura",
        "zip_code": "2113"
    },
    {
        "name": "Pukekohe",
        "zip_code": "2120"
    },
    {
        "name": "Waiau Pa",
        "zip_code": "2122"
    },
    {
        "name": "Waiuku",
        "zip_code": "2123"
    },
    {
        "name": "Pakuranga",
        "zip_code": "2140"
    },
    {
        "name": "East Tamaki",
        "zip_code": "2141"
    },
    {
        "name": "East Tamaki",
        "zip_code": "2142"
    },
    {
        "name": "Botany Downs",
        "zip_code": "2143"
    },
    {
        "name": "Eastern Beach",
        "zip_code": "2144"
    },
    {
        "name": "Shelly Park",
        "zip_code": "2145"
    },
    {
        "name": "Shelly Park",
        "zip_code": "2146"
    },
    {
        "name": "Beachlands",
        "zip_code": "2147"
    },
    {
        "name": "Maraetai",
        "zip_code": "2148"
    },
    {
        "name": "Whitford",
        "zip_code": "2149"
    },
    {
        "name": "Mangere",
        "zip_code": "2150"
    },
    {
        "name": "Favona",
        "zip_code": "2151"
    },
    {
        "name": "Mangere",
        "zip_code": "2153"
    },
    {
        "name": "Mangere",
        "zip_code": "2154"
    },
    {
        "name": "Papatoetoe",
        "zip_code": "2155"
    },
    {
        "name": "Papatoetoe",
        "zip_code": "2156"
    },
    {
        "name": "Wiri",
        "zip_code": "2157"
    },
    {
        "name": "Mangere East",
        "zip_code": "2158"
    },
    {
        "name": "Otara",
        "zip_code": "2159"
    },
    {
        "name": "Wiri",
        "zip_code": "2160"
    },
    {
        "name": "Homai",
        "zip_code": "2240"
    },
    {
        "name": "Wiri",
        "zip_code": "2241"
    },
    {
        "name": "Weymouth",
        "zip_code": "2242"
    },
    {
        "name": "Manurewa East",
        "zip_code": "2243"
    },
    {
        "name": "Pahurehure",
        "zip_code": "2244"
    },
    {
        "name": "Takanini",
        "zip_code": "2245"
    },
    {
        "name": "Pahurehure",
        "zip_code": "2246"
    },
    {
        "name": "Drury",
        "zip_code": "2247"
    },
    {
        "name": "Clevedon",
        "zip_code": "2248"
    },
    {
        "name": "Pukekohe",
        "zip_code": "2340"
    },
    {
        "name": "Waiuku",
        "zip_code": "2341"
    },
    {
        "name": "Bombay",
        "zip_code": "2343"
    },
    {
        "name": "Patumahoe",
        "zip_code": "2344"
    },
    {
        "name": "Waiau Pa",
        "zip_code": "2345"
    },
    {
        "name": "Waikopua",
        "zip_code": "2571"
    },
    {
        "name": "Whitford",
        "zip_code": "2576"
    },
    {
        "name": "Drury",
        "zip_code": "2577"
    },
    {
        "name": "Ramarama",
        "zip_code": "2578"
    },
    {
        "name": "Ararimu",
        "zip_code": "2579"
    },
    {
        "name": "Weymouth",
        "zip_code": "2580"
    },
    {
        "name": "Clevedon",
        "zip_code": "2582"
    },
    {
        "name": "Paparimu",
        "zip_code": "2583"
    },
    {
        "name": "Opaheke",
        "zip_code": "2584"
    },
    {
        "name": "Whakatiri",
        "zip_code": "2585"
    },
    {
        "name": "Ararimu",
        "zip_code": "2675"
    },
    {
        "name": "Paerata",
        "zip_code": "2676"
    },
    {
        "name": "Pukekohe East",
        "zip_code": "2677"
    },
    {
        "name": "Mauku",
        "zip_code": "2678"
    },
    {
        "name": "Waiau Pa",
        "zip_code": "2679"
    },
    {
        "name": "Glenbrook",
        "zip_code": "2681"
    },
    {
        "name": "Waipipi",
        "zip_code": "2683"
    },
    {
        "name": "Pollok",
        "zip_code": "2684"
    },
    {
        "name": "Te Kohanga",
        "zip_code": "2693"
    },
    {
        "name": "Opuatia",
        "zip_code": "2696"
    },
    {
        "name": "Te Kohanga",
        "zip_code": "2697"
    },
    {
        "name": "Ohinemutu",
        "zip_code": "3010"
    },
    {
        "name": "Sunnybrook",
        "zip_code": "3015"
    },
    {
        "name": "Mamaku",
        "zip_code": "3020"
    },
    {
        "name": "Murupara",
        "zip_code": "3025"
    },
    {
        "name": "Ngapuna",
        "zip_code": "3040"
    },
    {
        "name": "Ngongotaha",
        "zip_code": "3041"
    },
    {
        "name": "Owhata",
        "zip_code": "3042"
    },
    {
        "name": "Whakarewarewa",
        "zip_code": "3043"
    },
    {
        "name": "Glenholme",
        "zip_code": "3044"
    },
    {
        "name": "Ngapuna",
        "zip_code": "3045"
    },
    {
        "name": "Koutu",
        "zip_code": "3046"
    },
    {
        "name": "Mangakakahi",
        "zip_code": "3047"
    },
    {
        "name": "Tihiotonga",
        "zip_code": "3048"
    },
    {
        "name": "Mamaku",
        "zip_code": "3049"
    },
    {
        "name": "Reporoa",
        "zip_code": "3060"
    },
    {
        "name": "Murupara",
        "zip_code": "3062"
    },
    {
        "name": "Tarukenga",
        "zip_code": "3072"
    },
    {
        "name": "Waimangu",
        "zip_code": "3073"
    },
    {
        "name": "Tikitere",
        "zip_code": "3074"
    },
    {
        "name": "Guthrie",
        "zip_code": "3077"
    },
    {
        "name": "Ruatahuna",
        "zip_code": "3079"
    },
    {
        "name": "Tahorakui",
        "zip_code": "3081"
    },
    {
        "name": "Tahorakui",
        "zip_code": "3083"
    },
    {
        "name": "Tauranga",
        "zip_code": "3110"
    },
    {
        "name": "Hairini",
        "zip_code": "3112"
    },
    {
        "name": "Omokoroa Beach",
        "zip_code": "3114"
    },
    {
        "name": "Omanu",
        "zip_code": "3116"
    },
    {
        "name": "Papamoa Beach",
        "zip_code": "3118"
    },
    {
        "name": "Te Puke",
        "zip_code": "3119"
    },
    {
        "name": "Poroporo",
        "zip_code": "3120"
    },
    {
        "name": "Ohope Beach",
        "zip_code": "3121"
    },
    {
        "name": "Opotiki",
        "zip_code": "3122"
    },
    {
        "name": "Taneatua",
        "zip_code": "3123"
    },
    {
        "name": "Kawerau",
        "zip_code": "3127"
    },
    {
        "name": "Katikati",
        "zip_code": "3129"
    },
    {
        "name": "Tauranga",
        "zip_code": "3140"
    },
    {
        "name": "Tauranga",
        "zip_code": "3141"
    },
    {
        "name": "Greerton",
        "zip_code": "3142"
    },
    {
        "name": "Tauranga",
        "zip_code": "3143"
    },
    {
        "name": "Tauranga",
        "zip_code": "3144"
    },
    {
        "name": "Otumoetai",
        "zip_code": "3145"
    },
    {
        "name": "Judea",
        "zip_code": "3146"
    },
    {
        "name": "Bethlehem",
        "zip_code": "3147"
    },
    {
        "name": "Hairini",
        "zip_code": "3148"
    },
    {
        "name": "Omanu",
        "zip_code": "3149"
    },
    {
        "name": "Mount Maunganui",
        "zip_code": "3150"
    },
    {
        "name": "Kairua",
        "zip_code": "3151"
    },
    {
        "name": "Omanu Beach",
        "zip_code": "3152"
    },
    {
        "name": "Te Puke",
        "zip_code": "3153"
    },
    {
        "name": "Omokoroa Beach",
        "zip_code": "3154"
    },
    {
        "name": "Whakatane",
        "zip_code": "3158"
    },
    {
        "name": "Poroporo",
        "zip_code": "3159"
    },
    {
        "name": "Edgecumbe",
        "zip_code": "3160"
    },
    {
        "name": "Ohope Beach",
        "zip_code": "3161"
    },
    {
        "name": "Opotiki",
        "zip_code": "3162"
    },
    {
        "name": "Taneatua",
        "zip_code": "3163"
    },
    {
        "name": "Waimana",
        "zip_code": "3164"
    },
    {
        "name": "Te Teko",
        "zip_code": "3167"
    },
    {
        "name": "Matata",
        "zip_code": "3168"
    },
    {
        "name": "Kawerau",
        "zip_code": "3169"
    },
    {
        "name": "Lower Kaimai",
        "zip_code": "3171"
    },
    {
        "name": "Omokoroa Beach",
        "zip_code": "3172"
    },
    {
        "name": "Oropi",
        "zip_code": "3173"
    },
    {
        "name": "Upper Papamoa",
        "zip_code": "3175"
    },
    {
        "name": "Whakamarama",
        "zip_code": "3176"
    },
    {
        "name": "Athenree",
        "zip_code": "3177"
    },
    {
        "name": "Katikati",
        "zip_code": "3178"
    },
    {
        "name": "Te Puke",
        "zip_code": "3182"
    },
    {
        "name": "Upper Papamoa",
        "zip_code": "3183"
    },
    {
        "name": "Ohinepanea",
        "zip_code": "3186"
    },
    {
        "name": "Papamoa",
        "zip_code": "3187"
    },
    {
        "name": "Ngawaro",
        "zip_code": "3188"
    },
    {
        "name": "Paengaroa",
        "zip_code": "3189"
    },
    {
        "name": "Otangihaku",
        "zip_code": "3191"
    },
    {
        "name": "Kawerau",
        "zip_code": "3192"
    },
    {
        "name": "Edgecumbe",
        "zip_code": "3193"
    },
    {
        "name": "Awakaponga",
        "zip_code": "3194"
    },
    {
        "name": "Waimana",
        "zip_code": "3196"
    },
    {
        "name": "Toatoa",
        "zip_code": "3197"
    },
    {
        "name": "Waimana",
        "zip_code": "3198"
    },
    {
        "name": "Omaio",
        "zip_code": "3199"
    },
    {
        "name": "Kaimai",
        "zip_code": "3473"
    },
    {
        "name": "Waihi Beach",
        "zip_code": "3611"
    },
    {
        "name": "Waihi Beach",
        "zip_code": "3642"
    },
    {
        "name": "Kekerengu",
        "zip_code": "7260"
    },
    {
        "name": "Cheviot",
        "zip_code": "7310"
    },
    {
        "name": "Waiau",
        "zip_code": "7332"
    },
    {
        "name": "Hanmer Springs",
        "zip_code": "7334"
    },
    {
        "name": "Kaikoura Suburban",
        "zip_code": "7340"
    },
    {
        "name": "Cheviot",
        "zip_code": "7341"
    },
    {
        "name": "Waiau",
        "zip_code": "7343"
    },
    {
        "name": "Culverden",
        "zip_code": "7345"
    },
    {
        "name": "Hawarden",
        "zip_code": "7348"
    },
    {
        "name": "Hanmer Springs",
        "zip_code": "7360"
    },
    {
        "name": "Charwell Forks",
        "zip_code": "7373"
    },
    {
        "name": "Goose Bay",
        "zip_code": "7374"
    },
    {
        "name": "Waiau",
        "zip_code": "7379"
    },
    {
        "name": "Spotswood",
        "zip_code": "7381"
    },
    {
        "name": "Ethelton",
        "zip_code": "7382"
    },
    {
        "name": "Domett",
        "zip_code": "7383"
    },
    {
        "name": "Hawkeswood",
        "zip_code": "7384"
    },
    {
        "name": "Masons Flat",
        "zip_code": "7385"
    },
    {
        "name": "Tormore",
        "zip_code": "7387"
    },
    {
        "name": "Rotherham",
        "zip_code": "7391"
    },
    {
        "name": "Hanmer Springs",
        "zip_code": "7392"
    },
    {
        "name": "Hanmer Springs",
        "zip_code": "7395"
    },
    {
        "name": "Bells",
        "zip_code": "7400"
    },
    {
        "name": "Waikuku Beach",
        "zip_code": "7402"
    },
    {
        "name": "Amberley",
        "zip_code": "7410"
    },
    {
        "name": "Waikari",
        "zip_code": "7420"
    },
    {
        "name": "Oxford",
        "zip_code": "7430"
    },
    {
        "name": "Bells",
        "zip_code": "7440"
    },
    {
        "name": "Amberley",
        "zip_code": "7441"
    },
    {
        "name": "Waikari",
        "zip_code": "7442"
    },
    {
        "name": "Oxford",
        "zip_code": "7443"
    },
    {
        "name": "Cust",
        "zip_code": "7444"
    },
    {
        "name": "Sefton",
        "zip_code": "7445"
    },
    {
        "name": "Leithfield",
        "zip_code": "7446"
    },
    {
        "name": "Waipara",
        "zip_code": "7447"
    },
    {
        "name": "Waikuku Beach",
        "zip_code": "7448"
    },
    {
        "name": "West Eyreton",
        "zip_code": "7471"
    },
    {
        "name": "North Loburn",
        "zip_code": "7472"
    },
    {
        "name": "Waikuku",
        "zip_code": "7473"
    },
    {
        "name": "North Loburn",
        "zip_code": "7474"
    },
    {
        "name": "Amberley",
        "zip_code": "7481"
    },
    {
        "name": "Waipara",
        "zip_code": "7482"
    },
    {
        "name": "Omihi",
        "zip_code": "7483"
    },
    {
        "name": "Waikari",
        "zip_code": "7491"
    },
    {
        "name": "Oxford",
        "zip_code": "7495"
    },
    {
        "name": "Sheffield",
        "zip_code": "7500"
    },
    {
        "name": "Darfield",
        "zip_code": "7510"
    },
    {
        "name": "Akaroa",
        "zip_code": "7520"
    },
    {
        "name": "Sheffield",
        "zip_code": "7540"
    },
    {
        "name": "Darfield",
        "zip_code": "7541"
    },
    {
        "name": "Akaroa",
        "zip_code": "7542"
    },
    {
        "name": "Kirwee",
        "zip_code": "7543"
    },
    {
        "name": "Hororata",
        "zip_code": "7544"
    },
    {
        "name": "Duvauchelle",
        "zip_code": "7545"
    },
    {
        "name": "Little River",
        "zip_code": "7546"
    },
    {
        "name": "Doyleston",
        "zip_code": "7548"
    },
    {
        "name": "Hawkins",
        "zip_code": "7571"
    },
    {
        "name": "Lake Coleridge",
        "zip_code": "7572"
    },
    {
        "name": "Craigieburn",
        "zip_code": "7580"
    },
    {
        "name": "Akaroa",
        "zip_code": "7581"
    },
    {
        "name": "Wainui",
        "zip_code": "7582"
    },
    {
        "name": "Robinsons Bay",
        "zip_code": "7583"
    },
    {
        "name": "Ataahua",
        "zip_code": "7591"
    },
    {
        "name": "Burnham",
        "zip_code": "7600"
    },
    {
        "name": "Southbridge",
        "zip_code": "7602"
    },
    {
        "name": "Prebbleton",
        "zip_code": "7604"
    },
    {
        "name": "Lincoln",
        "zip_code": "7608"
    },
    {
        "name": "Woodend",
        "zip_code": "7610"
    },
    {
        "name": "Rolleston",
        "zip_code": "7614"
    },
    {
        "name": "Springston",
        "zip_code": "7616"
    },
    {
        "name": "Kaiapoi",
        "zip_code": "7630"
    },
    {
        "name": "Leeston",
        "zip_code": "7632"
    },
    {
        "name": "Lincoln",
        "zip_code": "7640"
    },
    {
        "name": "Woodend",
        "zip_code": "7641"
    },
    {
        "name": "Southbridge",
        "zip_code": "7642"
    },
    {
        "name": "Rolleston",
        "zip_code": "7643"
    },
    {
        "name": "Kaiapoi",
        "zip_code": "7644"
    },
    {
        "name": "Tai Tapu",
        "zip_code": "7645"
    },
    {
        "name": "Coalgate",
        "zip_code": "7646"
    },
    {
        "name": "Lincoln",
        "zip_code": "7647"
    },
    {
        "name": "Springfield",
        "zip_code": "7649"
    },
    {
        "name": "Leeston",
        "zip_code": "7656"
    },
    {
        "name": "Dunsandel",
        "zip_code": "7657"
    },
    {
        "name": "Coutts Island",
        "zip_code": "7670"
    },
    {
        "name": "Aylesbury",
        "zip_code": "7671"
    },
    {
        "name": "Motukarara",
        "zip_code": "7672"
    },
    {
        "name": "Whitecliffs",
        "zip_code": "7673"
    },
    {
        "name": "Springston South",
        "zip_code": "7674"
    },
    {
        "name": "Rolleston",
        "zip_code": "7675"
    },
    {
        "name": "Templeton",
        "zip_code": "7676"
    },
    {
        "name": "Springfield",
        "zip_code": "7681"
    },
    {
        "name": "Dunsandel",
        "zip_code": "7682"
    },
    {
        "name": "Southbridge",
        "zip_code": "7683"
    },
    {
        "name": "Flaxton",
        "zip_code": "7691"
    },
    {
        "name": "Wetheral",
        "zip_code": "7692"
    },
    {
        "name": "Allenton",
        "zip_code": "7700"
    },
    {
        "name": "Rakaia",
        "zip_code": "7710"
    },
    {
        "name": "Methven",
        "zip_code": "7730"
    },
    {
        "name": "Hampstead",
        "zip_code": "7740"
    },
    {
        "name": "Tinwald",
        "zip_code": "7741"
    },
    {
        "name": "Allenton",
        "zip_code": "7742"
    },
    {
        "name": "Rakaia",
        "zip_code": "7743"
    },
    {
        "name": "Methven",
        "zip_code": "7745"
    },
    {
        "name": "Mount Somers",
        "zip_code": "7746"
    },
    {
        "name": "Hinds",
        "zip_code": "7747"
    },
    {
        "name": "Mayfield",
        "zip_code": "7748"
    },
    {
        "name": "Staveley",
        "zip_code": "7771"
    },
    {
        "name": "Mitcham",
        "zip_code": "7772"
    },
    {
        "name": "Hinds",
        "zip_code": "7773"
    },
    {
        "name": "Flemington",
        "zip_code": "7774"
    },
    {
        "name": "Lismore",
        "zip_code": "7775"
    },
    {
        "name": "Lyndhurst",
        "zip_code": "7776"
    },
    {
        "name": "Seafield",
        "zip_code": "7777"
    },
    {
        "name": "Mayfield",
        "zip_code": "7778"
    },
    {
        "name": "Dorie",
        "zip_code": "7781"
    },
    {
        "name": "Highbank",
        "zip_code": "7782"
    },
    {
        "name": "Te Pirita",
        "zip_code": "7783"
    },
    {
        "name": "Somerton",
        "zip_code": "7784"
    },
    {
        "name": "Lake Coleridge",
        "zip_code": "7791"
    },
    {
        "name": "Twizel",
        "zip_code": "7901"
    },
    {
        "name": "Pleasant Point",
        "zip_code": "7903"
    },
    {
        "name": "Seaview",
        "zip_code": "7910"
    },
    {
        "name": "Pareora",
        "zip_code": "7912"
    },
    {
        "name": "Temuka",
        "zip_code": "7920"
    },
    {
        "name": "Waimate",
        "zip_code": "7924"
    },
    {
        "name": "Fairlie",
        "zip_code": "7925"
    },
    {
        "name": "Geraldine",
        "zip_code": "7930"
    },
    {
        "name": "Timaru",
        "zip_code": "7940"
    },
    {
        "name": "Puhuka",
        "zip_code": "7941"
    },
    {
        "name": "Parkside",
        "zip_code": "7942"
    },
    {
        "name": "Kensington",
        "zip_code": "7943"
    },
    {
        "name": "Twizel",
        "zip_code": "7944"
    },
    {
        "name": "Lake Tekapo",
        "zip_code": "7945"
    },
    {
        "name": "Glentanner",
        "zip_code": "7946"
    },
    {
        "name": "Pleasant Point",
        "zip_code": "7947"
    },
    {
        "name": "Temuka",
        "zip_code": "7948"
    },
    {
        "name": "Fairlie",
        "zip_code": "7949"
    },
    {
        "name": "Geraldine",
        "zip_code": "7956"
    },
    {
        "name": "Cave",
        "zip_code": "7957"
    },
    {
        "name": "Winchester",
        "zip_code": "7958"
    },
    {
        "name": "Waimate",
        "zip_code": "7960"
    },
    {
        "name": "Esk Valley",
        "zip_code": "7971"
    },
    {
        "name": "Southburn",
        "zip_code": "7972"
    },
    {
        "name": "Seadown",
        "zip_code": "7973"
    },
    {
        "name": "Claremont",
        "zip_code": "7974"
    },
    {
        "name": "Waihaorunga",
        "zip_code": "7977"
    },
    {
        "name": "Waimate",
        "zip_code": "7978"
    },
    {
        "name": "Waihao Forks",
        "zip_code": "7979"
    },
    {
        "name": "Morven",
        "zip_code": "7980"
    },
    {
        "name": "Hazelburn",
        "zip_code": "7982"
    },
    {
        "name": "Sutherlands",
        "zip_code": "7983"
    },
    {
        "name": "Mawaro",
        "zip_code": "7984"
    },
    {
        "name": "Waitohi Flat",
        "zip_code": "7985"
    },
    {
        "name": "Orton",
        "zip_code": "7986"
    },
    {
        "name": "Waikarua",
        "zip_code": "7987"
    },
    {
        "name": "Esk Valley",
        "zip_code": "7988"
    },
    {
        "name": "Sherwood Downs",
        "zip_code": "7990"
    },
    {
        "name": "Te Moana",
        "zip_code": "7991"
    },
    {
        "name": "Arundel",
        "zip_code": "7992"
    },
    {
        "name": "Glentanner",
        "zip_code": "7999"
    },
    {
        "name": "Christchurch",
        "zip_code": "8011"
    },
    {
        "name": "Christchurch",
        "zip_code": "8013"
    },
    {
        "name": "Saint Albans",
        "zip_code": "8014"
    },
    {
        "name": "Cashmere Hills",
        "zip_code": "8022"
    },
    {
        "name": "Hillsborough",
        "zip_code": "8023"
    },
    {
        "name": "Spreydon",
        "zip_code": "8024"
    },
    {
        "name": "Halswell",
        "zip_code": "8025"
    },
    {
        "name": "Fendalton",
        "zip_code": "8041"
    },
    {
        "name": "Hei Hei",
        "zip_code": "8042"
    },
    {
        "name": "Harewood",
        "zip_code": "8051"
    },
    {
        "name": "Papanui",
        "zip_code": "8052"
    },
    {
        "name": "Burnside",
        "zip_code": "8053"
    },
    {
        "name": "Aranui",
        "zip_code": "8061"
    },
    {
        "name": "Bromley",
        "zip_code": "8062"
    },
    {
        "name": "Sumner",
        "zip_code": "8081"
    },
    {
        "name": "Lyttelton",
        "zip_code": "8082"
    },
    {
        "name": "Ouruhia",
        "zip_code": "8083"
    },
    {
        "name": "Christchurch",
        "zip_code": "8140"
    },
    {
        "name": "Christchurch",
        "zip_code": "8141"
    },
    {
        "name": "Christchurch",
        "zip_code": "8142"
    },
    {
        "name": "Saint Albans",
        "zip_code": "8143"
    },
    {
        "name": "Christchurch",
        "zip_code": "8144"
    },
    {
        "name": "Opawa",
        "zip_code": "8145"
    },
    {
        "name": "Saint Albans",
        "zip_code": "8146"
    },
    {
        "name": "Linwood",
        "zip_code": "8147"
    },
    {
        "name": "Avonside",
        "zip_code": "8148"
    },
    {
        "name": "Spreydon",
        "zip_code": "8149"
    },
    {
        "name": "Sydenham",
        "zip_code": "8240"
    },
    {
        "name": "Woolston",
        "zip_code": "8241"
    },
    {
        "name": "Beckenham",
        "zip_code": "8242"
    },
    {
        "name": "Spreydon",
        "zip_code": "8243"
    },
    {
        "name": "Somerfield",
        "zip_code": "8244"
    },
    {
        "name": "Halswell",
        "zip_code": "8245"
    },
    {
        "name": "Hillsborough",
        "zip_code": "8246"
    },
    {
        "name": "Mount Pleasant",
        "zip_code": "8247"
    },
    {
        "name": "Riccarton",
        "zip_code": "8440"
    },
    {
        "name": "Hornby",
        "zip_code": "8441"
    },
    {
        "name": "Upper Riccarton",
        "zip_code": "8442"
    },
    {
        "name": "Wigram",
        "zip_code": "8443"
    },
    {
        "name": "Ilam",
        "zip_code": "8444"
    },
    {
        "name": "Templeton",
        "zip_code": "8445"
    },
    {
        "name": "Fendalton",
        "zip_code": "8540"
    },
    {
        "name": "Papanui",
        "zip_code": "8542"
    },
    {
        "name": "Harewood",
        "zip_code": "8543"
    },
    {
        "name": "Harewood",
        "zip_code": "8544"
    },
    {
        "name": "Burnside",
        "zip_code": "8545"
    },
    {
        "name": "Belfast",
        "zip_code": "8546"
    },
    {
        "name": "Dallington",
        "zip_code": "8640"
    },
    {
        "name": "New Brighton",
        "zip_code": "8641"
    },
    {
        "name": "Bromley",
        "zip_code": "8642"
    },
    {
        "name": "Aranui",
        "zip_code": "8643"
    },
    {
        "name": "Sumner",
        "zip_code": "8840"
    },
    {
        "name": "Lyttelton",
        "zip_code": "8841"
    },
    {
        "name": "North New Brighton",
        "zip_code": "8842"
    },
    {
        "name": "Diamond Harbour",
        "zip_code": "8941"
    },
    {
        "name": "Diamond Harbour",
        "zip_code": "8942"
    },
    {
        "name": "Allandale",
        "zip_code": "8971"
    },
    {
        "name": "Pigeon Bay",
        "zip_code": "8972"
    },
    {
        "name": "Duntroon",
        "zip_code": "9445"
    },
    {
        "name": "Kurow",
        "zip_code": "9446"
    },
    {
        "name": "Omarama",
        "zip_code": "9448"
    },
    {
        "name": "Kaingapai",
        "zip_code": "9498"
    },
    {
        "name": "Kaiti",
        "zip_code": "4010"
    },
    {
        "name": "Te Karaka",
        "zip_code": "4022"
    },
    {
        "name": "Ruatoria",
        "zip_code": "4032"
    },
    {
        "name": "Kaiti",
        "zip_code": "4040"
    },
    {
        "name": "Tamarau",
        "zip_code": "4041"
    },
    {
        "name": "Te Karaka",
        "zip_code": "4042"
    },
    {
        "name": "Ruatoria",
        "zip_code": "4043"
    },
    {
        "name": "Tiniroto",
        "zip_code": "4044"
    },
    {
        "name": "Patutahi",
        "zip_code": "4045"
    },
    {
        "name": "Tolaga Bay",
        "zip_code": "4046"
    },
    {
        "name": "Tokomaru",
        "zip_code": "4047"
    },
    {
        "name": "Te Puia",
        "zip_code": "4048"
    },
    {
        "name": "Rangitukia",
        "zip_code": "4049"
    },
    {
        "name": "Te Araroa",
        "zip_code": "4050"
    },
    {
        "name": "Matawai",
        "zip_code": "4051"
    },
    {
        "name": "Motu",
        "zip_code": "4052"
    },
    {
        "name": "Waerengaahika",
        "zip_code": "4071"
    },
    {
        "name": "Pehiri",
        "zip_code": "4072"
    },
    {
        "name": "Whangara",
        "zip_code": "4073"
    },
    {
        "name": "Rakauroa",
        "zip_code": "4075"
    },
    {
        "name": "Tolaga Bay",
        "zip_code": "4077"
    },
    {
        "name": "Tiniroto",
        "zip_code": "4078"
    },
    {
        "name": "Tokomaru",
        "zip_code": "4079"
    },
    {
        "name": "Waitakaro",
        "zip_code": "4081"
    },
    {
        "name": "Ruatoria",
        "zip_code": "4082"
    },
    {
        "name": "Pakihiroa",
        "zip_code": "4083"
    },
    {
        "name": "Whakaangiangi",
        "zip_code": "4086"
    },
    {
        "name": "Te Araroa",
        "zip_code": "4087"
    },
    {
        "name": "Ahititi",
        "zip_code": "4091"
    },
    {
        "name": "Otoko",
        "zip_code": "4092"
    },
    {
        "name": "Te Karaka",
        "zip_code": "4093"
    },
    {
        "name": "Whatatutu",
        "zip_code": "4094"
    },
    {
        "name": "Tarawera",
        "zip_code": "3360"
    },
    {
        "name": "Haumoana",
        "zip_code": "4102"
    },
    {
        "name": "Petane",
        "zip_code": "4104"
    },
    {
        "name": "North Clyde",
        "zip_code": "4108"
    },
    {
        "name": "Onekawa",
        "zip_code": "4110"
    },
    {
        "name": "Puk-kura",
        "zip_code": "4112"
    },
    {
        "name": "HASTINGS",
        "zip_code": "4120"
    },
    {
        "name": "Akina",
        "zip_code": "4122"
    },
    {
        "name": "Havelock North",
        "zip_code": "4130"
    },
    {
        "name": "Onekawa",
        "zip_code": "4140"
    },
    {
        "name": "Taradale",
        "zip_code": "4141"
    },
    {
        "name": "Pirimai",
        "zip_code": "4142"
    },
    {
        "name": "Napier South",
        "zip_code": "4143"
    },
    {
        "name": "Ahuriri",
        "zip_code": "4144"
    },
    {
        "name": "Greenmeadows",
        "zip_code": "4145"
    },
    {
        "name": "Pirimai",
        "zip_code": "4146"
    },
    {
        "name": "Tamatea",
        "zip_code": "4147"
    },
    {
        "name": "Clive",
        "zip_code": "4148"
    },
    {
        "name": "Petane",
        "zip_code": "4149"
    },
    {
        "name": "Saint Leonards",
        "zip_code": "4153"
    },
    {
        "name": "Flaxmere",
        "zip_code": "4154"
    },
    {
        "name": "Parkvale",
        "zip_code": "4155"
    },
    {
        "name": "Parkvale",
        "zip_code": "4156"
    },
    {
        "name": "Havelock North",
        "zip_code": "4157"
    },
    {
        "name": "Parkvale",
        "zip_code": "4158"
    },
    {
        "name": "Mayfair",
        "zip_code": "4159"
    },
    {
        "name": "Wairoa",
        "zip_code": "4160"
    },
    {
        "name": "Pahowai",
        "zip_code": "4161"
    },
    {
        "name": "Tutira",
        "zip_code": "4162"
    },
    {
        "name": "Frasertown",
        "zip_code": "4163"
    },
    {
        "name": "Tuai",
        "zip_code": "4164"
    },
    {
        "name": "Nuhaka",
        "zip_code": "4165"
    },
    {
        "name": "Mahia",
        "zip_code": "4166"
    },
    {
        "name": "Blackburn",
        "zip_code": "4171"
    },
    {
        "name": "Te Awanga",
        "zip_code": "4172"
    },
    {
        "name": "Te Hauke",
        "zip_code": "4174"
    },
    {
        "name": "Flaxmere",
        "zip_code": "4175"
    },
    {
        "name": "Poukawa",
        "zip_code": "4178"
    },
    {
        "name": "Puketitiri",
        "zip_code": "4179"
    },
    {
        "name": "Tutira",
        "zip_code": "4181"
    },
    {
        "name": "Te Pohue",
        "zip_code": "4182"
    },
    {
        "name": "Taradale",
        "zip_code": "4183"
    },
    {
        "name": "Puketitiri",
        "zip_code": "4184"
    },
    {
        "name": "Patoka",
        "zip_code": "4186"
    },
    {
        "name": "Kotemaori",
        "zip_code": "4188"
    },
    {
        "name": "Kotemaori",
        "zip_code": "4189"
    },
    {
        "name": "Raupunga",
        "zip_code": "4191"
    },
    {
        "name": "Wairoa",
        "zip_code": "4193"
    },
    {
        "name": "Tuai",
        "zip_code": "4195"
    },
    {
        "name": "Opoiti",
        "zip_code": "4196"
    },
    {
        "name": "Raupunga",
        "zip_code": "4197"
    },
    {
        "name": "Waitaniwha",
        "zip_code": "4198"
    },
    {
        "name": "Waipukurau",
        "zip_code": "4200"
    },
    {
        "name": "Otane",
        "zip_code": "4202"
    },
    {
        "name": "Takapau",
        "zip_code": "4203"
    },
    {
        "name": "Waipawa",
        "zip_code": "4210"
    },
    {
        "name": "Waipawa",
        "zip_code": "4240"
    },
    {
        "name": "Otane",
        "zip_code": "4241"
    },
    {
        "name": "Waipukurau",
        "zip_code": "4242"
    },
    {
        "name": "Takapau",
        "zip_code": "4243"
    },
    {
        "name": "Onga Onga",
        "zip_code": "4244"
    },
    {
        "name": "Porangahau",
        "zip_code": "4245"
    },
    {
        "name": "Patangata",
        "zip_code": "4271"
    },
    {
        "name": "Ruataniwha",
        "zip_code": "4272"
    },
    {
        "name": "Argyll East",
        "zip_code": "4273"
    },
    {
        "name": "Tikokino",
        "zip_code": "4274"
    },
    {
        "name": "Waipawa",
        "zip_code": "4275"
    },
    {
        "name": "Pukehou",
        "zip_code": "4276"
    },
    {
        "name": "Patangata",
        "zip_code": "4277"
    },
    {
        "name": "Blackburn",
        "zip_code": "4278"
    },
    {
        "name": "Blackburn",
        "zip_code": "4279"
    },
    {
        "name": "Maharakeke",
        "zip_code": "4281"
    },
    {
        "name": "Wanstead",
        "zip_code": "4282"
    },
    {
        "name": "Ruataniwha",
        "zip_code": "4283"
    },
    {
        "name": "Wallingford",
        "zip_code": "4284"
    },
    {
        "name": "Waipukurau",
        "zip_code": "4285"
    },
    {
        "name": "Ashley Clinton",
        "zip_code": "4286"
    },
    {
        "name": "Maharakeke",
        "zip_code": "4288"
    },
    {
        "name": "Porangahau",
        "zip_code": "4291"
    },
    {
        "name": "Porangahau",
        "zip_code": "4292"
    },
    {
        "name": "Porangahau",
        "zip_code": "4293"
    },
    {
        "name": "Waimarama",
        "zip_code": "4294"
    },
    {
        "name": "Elsthorpe",
        "zip_code": "4295"
    },
    {
        "name": "Taumarunui",
        "zip_code": "3920"
    },
    {
        "name": "Manunui",
        "zip_code": "3924"
    },
    {
        "name": "Ohura",
        "zip_code": "3926"
    },
    {
        "name": "Taumarunui",
        "zip_code": "3946"
    },
    {
        "name": "Ohura",
        "zip_code": "3947"
    },
    {
        "name": "National Park",
        "zip_code": "3948"
    },
    {
        "name": "Waitewhenua",
        "zip_code": "3979"
    },
    {
        "name": "Tatu",
        "zip_code": "3980"
    },
    {
        "name": "Oio",
        "zip_code": "3989"
    },
    {
        "name": "Upper Ruatiti",
        "zip_code": "3990"
    },
    {
        "name": "Aukopae",
        "zip_code": "3991"
    },
    {
        "name": "Hikumutu",
        "zip_code": "3992"
    },
    {
        "name": "Kirikau",
        "zip_code": "3993"
    },
    {
        "name": "Ngapuke",
        "zip_code": "3994"
    },
    {
        "name": "Matiere",
        "zip_code": "3995"
    },
    {
        "name": "Okahukura",
        "zip_code": "3996"
    },
    {
        "name": "Ongarue",
        "zip_code": "3997"
    },
    {
        "name": "Waimiha",
        "zip_code": "3998"
    },
    {
        "name": "Norsewood",
        "zip_code": "4287"
    },
    {
        "name": "Awapuni",
        "zip_code": "4412"
    },
    {
        "name": "Kelvin Grove",
        "zip_code": "4414"
    },
    {
        "name": "Hokowhitu",
        "zip_code": "4440"
    },
    {
        "name": "Terrace End",
        "zip_code": "4441"
    },
    {
        "name": "Takaro",
        "zip_code": "4442"
    },
    {
        "name": "West End",
        "zip_code": "4443"
    },
    {
        "name": "Terrace End",
        "zip_code": "4444"
    },
    {
        "name": "Awapuni",
        "zip_code": "4445"
    },
    {
        "name": "Hokowhitu",
        "zip_code": "4446"
    },
    {
        "name": "Ashhurst",
        "zip_code": "4470"
    },
    {
        "name": "Aokautere",
        "zip_code": "4471"
    },
    {
        "name": "Carnarvon",
        "zip_code": "4473"
    },
    {
        "name": "Tokomaru",
        "zip_code": "4474"
    },
    {
        "name": "Kairanga",
        "zip_code": "4475"
    },
    {
        "name": "Rongotea",
        "zip_code": "4476"
    },
    {
        "name": "Mangawhata",
        "zip_code": "4477"
    },
    {
        "name": "Milson",
        "zip_code": "4478"
    },
    {
        "name": "Sanson",
        "zip_code": "4479"
    },
    {
        "name": "Bunnythorpe",
        "zip_code": "4481"
    },
    {
        "name": "Aramoho",
        "zip_code": "4500"
    },
    {
        "name": "Gonville",
        "zip_code": "4501"
    },
    {
        "name": "Wanganui",
        "zip_code": "4540"
    },
    {
        "name": "Wanganui",
        "zip_code": "4541"
    },
    {
        "name": "Wanganui East",
        "zip_code": "4542"
    },
    {
        "name": "Gonville",
        "zip_code": "4543"
    },
    {
        "name": "Turakina South",
        "zip_code": "4547"
    },
    {
        "name": "Ratana",
        "zip_code": "4548"
    },
    {
        "name": "Brunswick",
        "zip_code": "4571"
    },
    {
        "name": "Wiritoa",
        "zip_code": "4572"
    },
    {
        "name": "Kakatahi",
        "zip_code": "4573"
    },
    {
        "name": "Mowhanau",
        "zip_code": "4574"
    },
    {
        "name": "Upokonui",
        "zip_code": "4575"
    },
    {
        "name": "Matahiwi",
        "zip_code": "4576"
    },
    {
        "name": "Kauangaroa",
        "zip_code": "4577"
    },
    {
        "name": "Ahuiti",
        "zip_code": "4578"
    },
    {
        "name": "Turakina",
        "zip_code": "4581"
    },
    {
        "name": "Okoia",
        "zip_code": "4582"
    },
    {
        "name": "Whakaihuwaka",
        "zip_code": "4584"
    },
    {
        "name": "Kakatahi",
        "zip_code": "4585"
    },
    {
        "name": "Kakatahi",
        "zip_code": "4586"
    },
    {
        "name": "Nukumaru",
        "zip_code": "4587"
    },
    {
        "name": "Ohakune",
        "zip_code": "4625"
    },
    {
        "name": "Raetihi",
        "zip_code": "4632"
    },
    {
        "name": "Raetihi",
        "zip_code": "4646"
    },
    {
        "name": "Ohakune",
        "zip_code": "4660"
    },
    {
        "name": "Rangataua",
        "zip_code": "4691"
    },
    {
        "name": "Raetihi",
        "zip_code": "4694"
    },
    {
        "name": "Te Ranga",
        "zip_code": "4696"
    },
    {
        "name": "FEILDING",
        "zip_code": "4702"
    },
    {
        "name": "Marton",
        "zip_code": "4710"
    },
    {
        "name": "Taihape",
        "zip_code": "4720"
    },
    {
        "name": "Hunterville",
        "zip_code": "4730"
    },
    {
        "name": "FEILDING",
        "zip_code": "4740"
    },
    {
        "name": "Marton",
        "zip_code": "4741"
    },
    {
        "name": "Taihape",
        "zip_code": "4742"
    },
    {
        "name": "Kimbolton",
        "zip_code": "4744"
    },
    {
        "name": "Hunterville",
        "zip_code": "4745"
    },
    {
        "name": "Mangaweka",
        "zip_code": "4746"
    },
    {
        "name": "Umutoi",
        "zip_code": "4771"
    },
    {
        "name": "Apiti",
        "zip_code": "4774"
    },
    {
        "name": "Colyton",
        "zip_code": "4775"
    },
    {
        "name": "Kiwitea",
        "zip_code": "4777"
    },
    {
        "name": "Waituna West",
        "zip_code": "4779"
    },
    {
        "name": "Rewa",
        "zip_code": "4780"
    },
    {
        "name": "Silverhope",
        "zip_code": "4781"
    },
    {
        "name": "Pukeroa",
        "zip_code": "4782"
    },
    {
        "name": "Pakihikura",
        "zip_code": "4783"
    },
    {
        "name": "Silverhope",
        "zip_code": "4784"
    },
    {
        "name": "Poukiore",
        "zip_code": "4785"
    },
    {
        "name": "Rewa",
        "zip_code": "4786"
    },
    {
        "name": "Marton",
        "zip_code": "4788"
    },
    {
        "name": "Marton",
        "zip_code": "4789"
    },
    {
        "name": "Raketapauma",
        "zip_code": "4791"
    },
    {
        "name": "Erehwon",
        "zip_code": "4792"
    },
    {
        "name": "Ohotu",
        "zip_code": "4793"
    },
    {
        "name": "Utiku",
        "zip_code": "4794"
    },
    {
        "name": "Waiouru Military Camp",
        "zip_code": "4795"
    },
    {
        "name": "Taihape",
        "zip_code": "4796"
    },
    {
        "name": "Ruahine",
        "zip_code": "4797"
    },
    {
        "name": "Ashhurst",
        "zip_code": "4810"
    },
    {
        "name": "Foxton",
        "zip_code": "4814"
    },
    {
        "name": "Foxton Beach",
        "zip_code": "4815"
    },
    {
        "name": "Ohakea",
        "zip_code": "4816"
    },
    {
        "name": "Sanson",
        "zip_code": "4817"
    },
    {
        "name": "Bulls",
        "zip_code": "4818"
    },
    {
        "name": "Longburn",
        "zip_code": "4820"
    },
    {
        "name": "Shannon",
        "zip_code": "4821"
    },
    {
        "name": "Tangimoana",
        "zip_code": "4822"
    },
    {
        "name": "Ashhurst",
        "zip_code": "4847"
    },
    {
        "name": "Foxton",
        "zip_code": "4848"
    },
    {
        "name": "Foxton Beach",
        "zip_code": "4849"
    },
    {
        "name": "Shannon",
        "zip_code": "4860"
    },
    {
        "name": "Sanson",
        "zip_code": "4862"
    },
    {
        "name": "Bulls",
        "zip_code": "4863"
    },
    {
        "name": "Tokomaru",
        "zip_code": "4864"
    },
    {
        "name": "Rongotea",
        "zip_code": "4865"
    },
    {
        "name": "Longburn",
        "zip_code": "4866"
    },
    {
        "name": "Bunnythorpe",
        "zip_code": "4867"
    },
    {
        "name": "Pohangina",
        "zip_code": "4884"
    },
    {
        "name": "Himatangi",
        "zip_code": "4891"
    },
    {
        "name": "Marotiri",
        "zip_code": "4893"
    },
    {
        "name": "Bulls",
        "zip_code": "4894"
    },
    {
        "name": "Eketahuna",
        "zip_code": "4900"
    },
    {
        "name": "Pahiatua",
        "zip_code": "4910"
    },
    {
        "name": "Woodville",
        "zip_code": "4920"
    },
    {
        "name": "Dannevirke",
        "zip_code": "4930"
    },
    {
        "name": "Eketahuna",
        "zip_code": "4940"
    },
    {
        "name": "Pahiatua",
        "zip_code": "4941"
    },
    {
        "name": "Dannevirke",
        "zip_code": "4942"
    },
    {
        "name": "Norsewood",
        "zip_code": "4943"
    },
    {
        "name": "Pongaroa",
        "zip_code": "4944"
    },
    {
        "name": "Woodville",
        "zip_code": "4945"
    },
    {
        "name": "Ti-tree Point",
        "zip_code": "4970"
    },
    {
        "name": "Waipatiki",
        "zip_code": "4971"
    },
    {
        "name": "Kiritaki",
        "zip_code": "4972"
    },
    {
        "name": "Waipatiki",
        "zip_code": "4973"
    },
    {
        "name": "Ngamoko",
        "zip_code": "4974"
    },
    {
        "name": "Tahoraiti",
        "zip_code": "4975"
    },
    {
        "name": "Raumati",
        "zip_code": "4976"
    },
    {
        "name": "Makotuku",
        "zip_code": "4977"
    },
    {
        "name": "Piripiri",
        "zip_code": "4978"
    },
    {
        "name": "Waione",
        "zip_code": "4979"
    },
    {
        "name": "Kaitawa",
        "zip_code": "4981"
    },
    {
        "name": "Ngaturi",
        "zip_code": "4982"
    },
    {
        "name": "Ballance",
        "zip_code": "4983"
    },
    {
        "name": "Konini",
        "zip_code": "4984"
    },
    {
        "name": "Makuri",
        "zip_code": "4985"
    },
    {
        "name": "Haunui",
        "zip_code": "4986"
    },
    {
        "name": "Konini",
        "zip_code": "4987"
    },
    {
        "name": "Mangamaire",
        "zip_code": "4988"
    },
    {
        "name": "Makuri",
        "zip_code": "4989"
    },
    {
        "name": "Waimiro",
        "zip_code": "4990"
    },
    {
        "name": "Waione",
        "zip_code": "4992"
    },
    {
        "name": "Tane",
        "zip_code": "4993"
    },
    {
        "name": "Eketahuna",
        "zip_code": "4994"
    },
    {
        "name": "Nireaha",
        "zip_code": "4995"
    },
    {
        "name": "Tiraumea",
        "zip_code": "4996"
    },
    {
        "name": "Hopelands",
        "zip_code": "4997"
    },
    {
        "name": "Papatawa",
        "zip_code": "4998"
    },
    {
        "name": "Woodville",
        "zip_code": "4999"
    },
    {
        "name": "Levin",
        "zip_code": "5510"
    },
    {
        "name": "Levin",
        "zip_code": "5540"
    },
    {
        "name": "Manakau",
        "zip_code": "5541"
    },
    {
        "name": "Ohau",
        "zip_code": "5570"
    },
    {
        "name": "Levin",
        "zip_code": "5571"
    },
    {
        "name": "Waitarere",
        "zip_code": "5572"
    },
    {
        "name": "Manakau",
        "zip_code": "5573"
    },
    {
        "name": "Waitarere",
        "zip_code": "5574"
    },
    {
        "name": "Koputaroa",
        "zip_code": "5575"
    },
    {
        "name": "Manakau",
        "zip_code": "5581"
    },
    {
        "name": "Havelock",
        "zip_code": "7100"
    },
    {
        "name": "Rai Valley",
        "zip_code": "7145"
    },
    {
        "name": "Havelock",
        "zip_code": "7150"
    },
    {
        "name": "Havelock",
        "zip_code": "7178"
    },
    {
        "name": "Tinline",
        "zip_code": "7192"
    },
    {
        "name": "Kapowai",
        "zip_code": "7193"
    },
    {
        "name": "Rai Valley",
        "zip_code": "7194"
    },
    {
        "name": "Tira-ora",
        "zip_code": "7195"
    },
    {
        "name": "Witherlea",
        "zip_code": "7201"
    },
    {
        "name": "Grovetown",
        "zip_code": "7202"
    },
    {
        "name": "Renwick",
        "zip_code": "7204"
    },
    {
        "name": "Renwick",
        "zip_code": "7206"
    },
    {
        "name": "Seddon",
        "zip_code": "7210"
    },
    {
        "name": "Picton",
        "zip_code": "7220"
    },
    {
        "name": "Witherlea",
        "zip_code": "7240"
    },
    {
        "name": "Blenheim",
        "zip_code": "7241"
    },
    {
        "name": "Witherlea",
        "zip_code": "7242"
    },
    {
        "name": "Renwick",
        "zip_code": "7243"
    },
    {
        "name": "Spring Creek",
        "zip_code": "7244"
    },
    {
        "name": "Tuamarina",
        "zip_code": "7246"
    },
    {
        "name": "Seddon",
        "zip_code": "7247"
    },
    {
        "name": "Ward",
        "zip_code": "7248"
    },
    {
        "name": "Picton",
        "zip_code": "7250"
    },
    {
        "name": "Waikawa",
        "zip_code": "7251"
    },
    {
        "name": "Hillersden",
        "zip_code": "7271"
    },
    {
        "name": "Renwick",
        "zip_code": "7272"
    },
    {
        "name": "Tuamarina",
        "zip_code": "7273"
    },
    {
        "name": "Upcot",
        "zip_code": "7274"
    },
    {
        "name": "Te Rou",
        "zip_code": "7275"
    },
    {
        "name": "Avondale",
        "zip_code": "7276"
    },
    {
        "name": "Waikawa",
        "zip_code": "7281"
    },
    {
        "name": "Manaroa",
        "zip_code": "7282"
    },
    {
        "name": "Whakatahuri",
        "zip_code": "7284"
    },
    {
        "name": "Taimate",
        "zip_code": "7285"
    },
    {
        "name": "Langridge",
        "zip_code": "7371"
    },
    {
        "name": "Nelson East",
        "zip_code": "7010"
    },
    {
        "name": "Stoke",
        "zip_code": "7011"
    },
    {
        "name": "Nelson East",
        "zip_code": "7040"
    },
    {
        "name": "Stoke",
        "zip_code": "7041"
    },
    {
        "name": "Nelson South",
        "zip_code": "7042"
    },
    {
        "name": "Port Nelson",
        "zip_code": "7043"
    },
    {
        "name": "Wakatu",
        "zip_code": "7044"
    },
    {
        "name": "Nelson",
        "zip_code": "7045"
    },
    {
        "name": "Nelson South",
        "zip_code": "7046"
    },
    {
        "name": "Nelson East",
        "zip_code": "7047"
    },
    {
        "name": "Hira",
        "zip_code": "7071"
    },
    {
        "name": "Woodhill",
        "zip_code": "0110"
    },
    {
        "name": "Whau Valley",
        "zip_code": "0112"
    },
    {
        "name": "Waro",
        "zip_code": "0114"
    },
    {
        "name": "Ruakaka",
        "zip_code": "0116"
    },
    {
        "name": "Riverside",
        "zip_code": "0140"
    },
    {
        "name": "Otangarei",
        "zip_code": "0141"
    },
    {
        "name": "Sherwood Rise",
        "zip_code": "0142"
    },
    {
        "name": "Morningside",
        "zip_code": "0143"
    },
    {
        "name": "Tikipunga",
        "zip_code": "0144"
    },
    {
        "name": "Kensington",
        "zip_code": "0145"
    },
    {
        "name": "Maungakaramea",
        "zip_code": "0146"
    },
    {
        "name": "Woodhill",
        "zip_code": "0147"
    },
    {
        "name": "Woodhill",
        "zip_code": "0148"
    },
    {
        "name": "Riverside",
        "zip_code": "0149"
    },
    {
        "name": "Hikurangi",
        "zip_code": "0150"
    },
    {
        "name": "Ruakaka",
        "zip_code": "0151"
    },
    {
        "name": "Maungatapere",
        "zip_code": "0152"
    },
    {
        "name": "Tutukaka",
        "zip_code": "0153"
    },
    {
        "name": "Ngunguru",
        "zip_code": "0154"
    },
    {
        "name": "Puwera",
        "zip_code": "0170"
    },
    {
        "name": "Mata",
        "zip_code": "0171"
    },
    {
        "name": "Parakao",
        "zip_code": "0172"
    },
    {
        "name": "Kiripaka",
        "zip_code": "0173"
    },
    {
        "name": "Whangarei Heads",
        "zip_code": "0174"
    },
    {
        "name": "Tahere",
        "zip_code": "0175"
    },
    {
        "name": "Moengawahine",
        "zip_code": "0176"
    },
    {
        "name": "Maungakaramea",
        "zip_code": "0178"
    },
    {
        "name": "Maungatapere",
        "zip_code": "0179"
    },
    {
        "name": "Marua",
        "zip_code": "0181"
    },
    {
        "name": "Hukerenui",
        "zip_code": "0182"
    },
    {
        "name": "Whangaruru North",
        "zip_code": "0184"
    },
    {
        "name": "Ruatangata East",
        "zip_code": "0185"
    },
    {
        "name": "Rukuwai",
        "zip_code": "0192"
    },
    {
        "name": "Waiotira",
        "zip_code": "0193"
    },
    {
        "name": "Opua",
        "zip_code": "0200"
    },
    {
        "name": "Russell",
        "zip_code": "0202"
    },
    {
        "name": "Kawakawa",
        "zip_code": "0210"
    },
    {
        "name": "Moerewa",
        "zip_code": "0211"
    },
    {
        "name": "Kerikeri",
        "zip_code": "0230"
    },
    {
        "name": "Opua",
        "zip_code": "0241"
    },
    {
        "name": "Russell",
        "zip_code": "0242"
    },
    {
        "name": "Kawakawa",
        "zip_code": "0243"
    },
    {
        "name": "Moerewa",
        "zip_code": "0244"
    },
    {
        "name": "Kerikeri",
        "zip_code": "0245"
    },
    {
        "name": "Waipapa",
        "zip_code": "0246"
    },
    {
        "name": "Paihia",
        "zip_code": "0247"
    },
    {
        "name": "Haruru",
        "zip_code": "0271"
    },
    {
        "name": "Manawaora",
        "zip_code": "0272"
    },
    {
        "name": "Pokere",
        "zip_code": "0281"
    },
    {
        "name": "Karetu",
        "zip_code": "0282"
    },
    {
        "name": "Waihaha",
        "zip_code": "0283"
    },
    {
        "name": "Puketona",
        "zip_code": "0293"
    },
    {
        "name": "Purerua",
        "zip_code": "0294"
    },
    {
        "name": "Waipapa",
        "zip_code": "0295"
    },
    {
        "name": "Dargaville",
        "zip_code": "0310"
    },
    {
        "name": "Dargaville",
        "zip_code": "0340"
    },
    {
        "name": "Te Kopura",
        "zip_code": "0341"
    },
    {
        "name": "Arapohue",
        "zip_code": "0370"
    },
    {
        "name": "Redhill",
        "zip_code": "0371"
    },
    {
        "name": "Kairara",
        "zip_code": "0372"
    },
    {
        "name": "Mamaranui",
        "zip_code": "0373"
    },
    {
        "name": "Arapohue",
        "zip_code": "0374"
    },
    {
        "name": "Tutamoe",
        "zip_code": "0376"
    },
    {
        "name": "Baylys Beach",
        "zip_code": "0377"
    },
    {
        "name": "Whatoro",
        "zip_code": "0379"
    },
    {
        "name": "Kirikopuni",
        "zip_code": "0381"
    },
    {
        "name": "Tangaihe",
        "zip_code": "0391"
    },
    {
        "name": "Kaikohe",
        "zip_code": "0405"
    },
    {
        "name": "Kaitaia",
        "zip_code": "0410"
    },
    {
        "name": "Taipa",
        "zip_code": "0420"
    },
    {
        "name": "Kaikohe",
        "zip_code": "0440"
    },
    {
        "name": "Kaitaia",
        "zip_code": "0441"
    },
    {
        "name": "Mangonui",
        "zip_code": "0442"
    },
    {
        "name": "Rawene",
        "zip_code": "0443"
    },
    {
        "name": "Omapere",
        "zip_code": "0444"
    },
    {
        "name": "Opononi",
        "zip_code": "0445"
    },
    {
        "name": "Waimamaku",
        "zip_code": "0446"
    },
    {
        "name": "Okaihau",
        "zip_code": "0447"
    },
    {
        "name": "Kaeo",
        "zip_code": "0448"
    },
    {
        "name": "Ahipara",
        "zip_code": "0449"
    },
    {
        "name": "Awanui",
        "zip_code": "0451"
    },
    {
        "name": "Kohukohu",
        "zip_code": "0453"
    },
    {
        "name": "Pukenui",
        "zip_code": "0460"
    },
    {
        "name": "Broadwood",
        "zip_code": "0462"
    },
    {
        "name": "Pakaraka",
        "zip_code": "0472"
    },
    {
        "name": "Waima",
        "zip_code": "0473"
    },
    {
        "name": "Tautoro",
        "zip_code": "0474"
    },
    {
        "name": "Marangai",
        "zip_code": "0475"
    },
    {
        "name": "Umawera",
        "zip_code": "0476"
    },
    {
        "name": "Kaeo",
        "zip_code": "0478"
    },
    {
        "name": "Saies",
        "zip_code": "0479"
    },
    {
        "name": "Manukau",
        "zip_code": "0481"
    },
    {
        "name": "Kaiaka",
        "zip_code": "0482"
    },
    {
        "name": "Lake Ohia",
        "zip_code": "0483"
    },
    {
        "name": "Te Kao",
        "zip_code": "0484"
    },
    {
        "name": "Waiharera",
        "zip_code": "0486"
    },
    {
        "name": "Broadwood",
        "zip_code": "0491"
    },
    {
        "name": "Panguru",
        "zip_code": "0492"
    },
    {
        "name": "Paraoanui",
        "zip_code": "0494"
    },
    {
        "name": "Pawarenga",
        "zip_code": "0496"
    },
    {
        "name": "Mangawhai Heads",
        "zip_code": "0505"
    },
    {
        "name": "Waipu",
        "zip_code": "0510"
    },
    {
        "name": "Rowsells",
        "zip_code": "0520"
    },
    {
        "name": "Ruawai",
        "zip_code": "0530"
    },
    {
        "name": "Mangawhai",
        "zip_code": "0540"
    },
    {
        "name": "Mangawhai Heads",
        "zip_code": "0541"
    },
    {
        "name": "Kaiwaka",
        "zip_code": "0542"
    },
    {
        "name": "Paparoa",
        "zip_code": "0543"
    },
    {
        "name": "Waipu",
        "zip_code": "0545"
    },
    {
        "name": "Rowsells",
        "zip_code": "0547"
    },
    {
        "name": "Ruawai",
        "zip_code": "0549"
    },
    {
        "name": "Matakohe",
        "zip_code": "0550"
    },
    {
        "name": "Mareretu",
        "zip_code": "0571"
    },
    {
        "name": "Kaiwaka",
        "zip_code": "0573"
    },
    {
        "name": "Waipu",
        "zip_code": "0582"
    },
    {
        "name": "Marohemo",
        "zip_code": "0583"
    },
    {
        "name": "Ranganui",
        "zip_code": "0587"
    },
    {
        "name": "Maungaturoto",
        "zip_code": "0588"
    },
    {
        "name": "Huarau",
        "zip_code": "0589"
    },
    {
        "name": "Ruawai",
        "zip_code": "0591"
    },
    {
        "name": "Rehia",
        "zip_code": "0592"
    },
    {
        "name": "Pahi",
        "zip_code": "0593"
    },
    {
        "name": "Matakohe",
        "zip_code": "0594"
    },
    {
        "name": "Topuni",
        "zip_code": "0975"
    },
    {
        "name": "Liberton",
        "zip_code": "9010"
    },
    {
        "name": "Mornington",
        "zip_code": "9011"
    },
    {
        "name": "Saint Kilda",
        "zip_code": "9012"
    },
    {
        "name": "Ocean Grove",
        "zip_code": "9013"
    },
    {
        "name": "Broad Bay",
        "zip_code": "9014"
    },
    {
        "name": "Waverley",
        "zip_code": "9016"
    },
    {
        "name": "Sunnyvale",
        "zip_code": "9018"
    },
    {
        "name": "Outram",
        "zip_code": "9019"
    },
    {
        "name": "Maia",
        "zip_code": "9022"
    },
    {
        "name": "Sawyers Bay",
        "zip_code": "9023"
    },
    {
        "name": "Mosgiel",
        "zip_code": "9024"
    },
    {
        "name": "Brighton",
        "zip_code": "9035"
    },
    {
        "name": "Maryhill",
        "zip_code": "9040"
    },
    {
        "name": "Opoho",
        "zip_code": "9041"
    },
    {
        "name": "Kaikorai",
        "zip_code": "9042"
    },
    {
        "name": "North Dunedin",
        "zip_code": "9043"
    },
    {
        "name": "Saint Kilda",
        "zip_code": "9044"
    },
    {
        "name": "Caversham",
        "zip_code": "9045"
    },
    {
        "name": "Tainui",
        "zip_code": "9046"
    },
    {
        "name": "Saint Clair",
        "zip_code": "9047"
    },
    {
        "name": "Portobello",
        "zip_code": "9048"
    },
    {
        "name": "Saint Kilda",
        "zip_code": "9049"
    },
    {
        "name": "Port Chalmers",
        "zip_code": "9050"
    },
    {
        "name": "Green Island",
        "zip_code": "9052"
    },
    {
        "name": "Mosgiel",
        "zip_code": "9053"
    },
    {
        "name": "Dunedin",
        "zip_code": "9054"
    },
    {
        "name": "Dunedin",
        "zip_code": "9058"
    },
    {
        "name": "Dunedin",
        "zip_code": "9059"
    },
    {
        "name": "Outram",
        "zip_code": "9062"
    },
    {
        "name": "Middlemarch",
        "zip_code": "9067"
    },
    {
        "name": "Waitati",
        "zip_code": "9069"
    },
    {
        "name": "Berwick",
        "zip_code": "9073"
    },
    {
        "name": "Clarks",
        "zip_code": "9074"
    },
    {
        "name": "Wingatui",
        "zip_code": "9076"
    },
    {
        "name": "Portobello",
        "zip_code": "9077"
    },
    {
        "name": "Mihiwaka",
        "zip_code": "9081"
    },
    {
        "name": "Aramoana",
        "zip_code": "9082"
    },
    {
        "name": "Mount Cargill",
        "zip_code": "9085"
    },
    {
        "name": "Kuri Bush",
        "zip_code": "9091"
    },
    {
        "name": "Mosgiel",
        "zip_code": "9092"
    },
    {
        "name": "Kaitangata",
        "zip_code": "9210"
    },
    {
        "name": "Milton",
        "zip_code": "9220"
    },
    {
        "name": "Balclutha",
        "zip_code": "9230"
    },
    {
        "name": "Stirling",
        "zip_code": "9231"
    },
    {
        "name": "Balclutha",
        "zip_code": "9240"
    },
    {
        "name": "Milton",
        "zip_code": "9241"
    },
    {
        "name": "Clydevale",
        "zip_code": "9242"
    },
    {
        "name": "Glenomaru",
        "zip_code": "9271"
    },
    {
        "name": "Hillend",
        "zip_code": "9272"
    },
    {
        "name": "Warepa",
        "zip_code": "9273"
    },
    {
        "name": "Greenfield",
        "zip_code": "9274"
    },
    {
        "name": "Kaitangata",
        "zip_code": "9281"
    },
    {
        "name": "Wangaloa",
        "zip_code": "9282"
    },
    {
        "name": "Milburn",
        "zip_code": "9291"
    },
    {
        "name": "Tokoiti",
        "zip_code": "9292"
    },
    {
        "name": "Frankton",
        "zip_code": "9300"
    },
    {
        "name": "Arrowtown",
        "zip_code": "9302"
    },
    {
        "name": "Lower Shotover",
        "zip_code": "9304"
    },
    {
        "name": "Wanaka",
        "zip_code": "9305"
    },
    {
        "name": "Cromwell",
        "zip_code": "9310"
    },
    {
        "name": "Bridge Hill",
        "zip_code": "9320"
    },
    {
        "name": "Clyde",
        "zip_code": "9330"
    },
    {
        "name": "Ranfurly",
        "zip_code": "9332"
    },
    {
        "name": "Bridge Hill",
        "zip_code": "9340"
    },
    {
        "name": "Clyde",
        "zip_code": "9341"
    },
    {
        "name": "Cromwell",
        "zip_code": "9342"
    },
    {
        "name": "Wanaka",
        "zip_code": "9343"
    },
    {
        "name": "Albert Town",
        "zip_code": "9344"
    },
    {
        "name": "Lake Hawea",
        "zip_code": "9345"
    },
    {
        "name": "Makarora",
        "zip_code": "9346"
    },
    {
        "name": "Tarras",
        "zip_code": "9347"
    },
    {
        "name": "Queenstown",
        "zip_code": "9348"
    },
    {
        "name": "Frankton",
        "zip_code": "9349"
    },
    {
        "name": "Glenorchy",
        "zip_code": "9350"
    },
    {
        "name": "Arrowtown",
        "zip_code": "9351"
    },
    {
        "name": "Omakau",
        "zip_code": "9352"
    },
    {
        "name": "Ranfurly",
        "zip_code": "9353"
    },
    {
        "name": "Naseby",
        "zip_code": "9354"
    },
    {
        "name": "Wedderburn",
        "zip_code": "9355"
    },
    {
        "name": "Upper Shotover",
        "zip_code": "9371"
    },
    {
        "name": "Glenorchy",
        "zip_code": "9372"
    },
    {
        "name": "Matakanui",
        "zip_code": "9376"
    },
    {
        "name": "Becks",
        "zip_code": "9377"
    },
    {
        "name": "Glendhu",
        "zip_code": "9381"
    },
    {
        "name": "Makarora Wharf",
        "zip_code": "9382"
    },
    {
        "name": "Lindis Crossing",
        "zip_code": "9383"
    },
    {
        "name": "Gibbston",
        "zip_code": "9384"
    },
    {
        "name": "Saint Bathans",
        "zip_code": "9386"
    },
    {
        "name": "Moa Creek",
        "zip_code": "9387"
    },
    {
        "name": "Clyde",
        "zip_code": "9391"
    },
    {
        "name": "Fruitlands",
        "zip_code": "9392"
    },
    {
        "name": "Chatto Creek",
        "zip_code": "9393"
    },
    {
        "name": "Gimmerburn",
        "zip_code": "9395"
    },
    {
        "name": "Naseby",
        "zip_code": "9396"
    },
    {
        "name": "Kokonga",
        "zip_code": "9397"
    },
    {
        "name": "Paerau",
        "zip_code": "9398"
    },
    {
        "name": "Oamaru",
        "zip_code": "9400"
    },
    {
        "name": "Waiareka Junction",
        "zip_code": "9401"
    },
    {
        "name": "Hampden",
        "zip_code": "9410"
    },
    {
        "name": "Hampden",
        "zip_code": "9442"
    },
    {
        "name": "Palmerston",
        "zip_code": "9443"
    },
    {
        "name": "Oamaru",
        "zip_code": "9444"
    },
    {
        "name": "Otematata",
        "zip_code": "9447"
    },
    {
        "name": "Seacliff",
        "zip_code": "9471"
    },
    {
        "name": "Waikouaiti",
        "zip_code": "9472"
    },
    {
        "name": "Stoneburn",
        "zip_code": "9481"
    },
    {
        "name": "Katiki",
        "zip_code": "9482"
    },
    {
        "name": "Macraes Flat",
        "zip_code": "9483"
    },
    {
        "name": "Tokarahi",
        "zip_code": "9491"
    },
    {
        "name": "Kauru Hill",
        "zip_code": "9492"
    },
    {
        "name": "Hilderthorpe",
        "zip_code": "9493"
    },
    {
        "name": "Island Cliff",
        "zip_code": "9494"
    },
    {
        "name": "Herbert",
        "zip_code": "9495"
    },
    {
        "name": "Roxburgh",
        "zip_code": "9500"
    },
    {
        "name": "Tapanui",
        "zip_code": "9522"
    },
    {
        "name": "Lawrence",
        "zip_code": "9532"
    },
    {
        "name": "Clinton",
        "zip_code": "9534"
    },
    {
        "name": "Owaka",
        "zip_code": "9535"
    },
    {
        "name": "Tapanui",
        "zip_code": "9542"
    },
    {
        "name": "Lawrence",
        "zip_code": "9543"
    },
    {
        "name": "Millers Flat",
        "zip_code": "9544"
    },
    {
        "name": "Owaka",
        "zip_code": "9546"
    },
    {
        "name": "Clinton",
        "zip_code": "9548"
    },
    {
        "name": "Roxburgh Hydro",
        "zip_code": "9571"
    },
    {
        "name": "Millers Flat",
        "zip_code": "9572"
    },
    {
        "name": "Clinton",
        "zip_code": "9583"
    },
    {
        "name": "Clinton",
        "zip_code": "9584"
    },
    {
        "name": "New Haven",
        "zip_code": "9585"
    },
    {
        "name": "Puketiro",
        "zip_code": "9586"
    },
    {
        "name": "Park Hill",
        "zip_code": "9587"
    },
    {
        "name": "Raes Junction",
        "zip_code": "9588"
    },
    {
        "name": "Beaumont",
        "zip_code": "9591"
    },
    {
        "name": "Waitahuna",
        "zip_code": "9593"
    },
    {
        "name": "Ngapuna",
        "zip_code": "9596"
    },
    {
        "name": "Rocklands",
        "zip_code": "9597"
    },
    {
        "name": "Ngapuna",
        "zip_code": "9598"
    },
    {
        "name": "Kingston",
        "zip_code": "9748"
    },
    {
        "name": "Conical Hills",
        "zip_code": "9771"
    },
    {
        "name": "Waikoikoi",
        "zip_code": "9775"
    },
    {
        "name": "Kingston",
        "zip_code": "9793"
    },
    {
        "name": "Te Anau",
        "zip_code": "9600"
    },
    {
        "name": "Otautau",
        "zip_code": "9610"
    },
    {
        "name": "Tuatapere",
        "zip_code": "9620"
    },
    {
        "name": "Nightcaps",
        "zip_code": "9630"
    },
    {
        "name": "Ohai",
        "zip_code": "9635"
    },
    {
        "name": "Te Anau",
        "zip_code": "9640"
    },
    {
        "name": "Otautau",
        "zip_code": "9641"
    },
    {
        "name": "Tuatapere",
        "zip_code": "9642"
    },
    {
        "name": "Manapouri",
        "zip_code": "9643"
    },
    {
        "name": "Nightcaps",
        "zip_code": "9644"
    },
    {
        "name": "Ohai",
        "zip_code": "9645"
    },
    {
        "name": "The Key",
        "zip_code": "9672"
    },
    {
        "name": "Te Anau",
        "zip_code": "9679"
    },
    {
        "name": "Eastern Bush",
        "zip_code": "9682"
    },
    {
        "name": "Fairfax",
        "zip_code": "9683"
    },
    {
        "name": "Ngaro",
        "zip_code": "9689"
    },
    {
        "name": "Wairoto",
        "zip_code": "9691"
    },
    {
        "name": "East Gore",
        "zip_code": "9710"
    },
    {
        "name": "Mataura",
        "zip_code": "9712"
    },
    {
        "name": "Winton",
        "zip_code": "9720"
    },
    {
        "name": "Lumsden",
        "zip_code": "9730"
    },
    {
        "name": "East Gore",
        "zip_code": "9740"
    },
    {
        "name": "Winton",
        "zip_code": "9741"
    },
    {
        "name": "Lumsden",
        "zip_code": "9742"
    },
    {
        "name": "Waikaka",
        "zip_code": "9743"
    },
    {
        "name": "Riversdale",
        "zip_code": "9744"
    },
    {
        "name": "Waikaia",
        "zip_code": "9745"
    },
    {
        "name": "Balfour",
        "zip_code": "9746"
    },
    {
        "name": "Mossburn",
        "zip_code": "9747"
    },
    {
        "name": "Athol",
        "zip_code": "9749"
    },
    {
        "name": "Garston",
        "zip_code": "9750"
    },
    {
        "name": "Dipton",
        "zip_code": "9752"
    },
    {
        "name": "Pukerau",
        "zip_code": "9772"
    },
    {
        "name": "Wendon Valley",
        "zip_code": "9773"
    },
    {
        "name": "Mataura",
        "zip_code": "9774"
    },
    {
        "name": "Riversdale",
        "zip_code": "9776"
    },
    {
        "name": "Waipounamu",
        "zip_code": "9777"
    },
    {
        "name": "Garston",
        "zip_code": "9778"
    },
    {
        "name": "Balfour",
        "zip_code": "9779"
    },
    {
        "name": "Lochiel",
        "zip_code": "9781"
    },
    {
        "name": "Otapiri Gorge",
        "zip_code": "9782"
    },
    {
        "name": "South Hillend",
        "zip_code": "9783"
    },
    {
        "name": "Dipton",
        "zip_code": "9791"
    },
    {
        "name": "Mossburn",
        "zip_code": "9792"
    },
    {
        "name": "Lumsden",
        "zip_code": "9794"
    },
    {
        "name": "Waverley",
        "zip_code": "9810"
    },
    {
        "name": "Tisbury",
        "zip_code": "9812"
    },
    {
        "name": "Bluff",
        "zip_code": "9814"
    },
    {
        "name": "Wallacetown",
        "zip_code": "9816"
    },
    {
        "name": "Halfmoon Bay (Oban)",
        "zip_code": "9818"
    },
    {
        "name": "Riverton",
        "zip_code": "9822"
    },
    {
        "name": "Edendale",
        "zip_code": "9825"
    },
    {
        "name": "Wyndham",
        "zip_code": "9831"
    },
    {
        "name": "Richmond",
        "zip_code": "9840"
    },
    {
        "name": "Glengarry",
        "zip_code": "9841"
    },
    {
        "name": "East End",
        "zip_code": "9842"
    },
    {
        "name": "Waikiwi",
        "zip_code": "9843"
    },
    {
        "name": "Strathern",
        "zip_code": "9844"
    },
    {
        "name": "Hawthorndale",
        "zip_code": "9845"
    },
    {
        "name": "Riverton",
        "zip_code": "9847"
    },
    {
        "name": "Edendale",
        "zip_code": "9848"
    },
    {
        "name": "Wyndham",
        "zip_code": "9849"
    },
    {
        "name": "Woodlands",
        "zip_code": "9871"
    },
    {
        "name": "Mabel Bush",
        "zip_code": "9872"
    },
    {
        "name": "Waianiwa",
        "zip_code": "9874"
    },
    {
        "name": "Fortrose",
        "zip_code": "9875"
    },
    {
        "name": "Makarewa",
        "zip_code": "9876"
    },
    {
        "name": "Awarua Plains",
        "zip_code": "9877"
    },
    {
        "name": "Otatara",
        "zip_code": "9879"
    },
    {
        "name": "Round Hill",
        "zip_code": "9881"
    },
    {
        "name": "Gummies Bush",
        "zip_code": "9883"
    },
    {
        "name": "Niagara",
        "zip_code": "9884"
    },
    {
        "name": "Glenham",
        "zip_code": "9891"
    },
    {
        "name": "Mokoreta",
        "zip_code": "9892"
    },
    {
        "name": "Kamahi",
        "zip_code": "9893"
    },
    {
        "name": "Westown",
        "zip_code": "4310"
    },
    {
        "name": "Fitzroy",
        "zip_code": "4312"
    },
    {
        "name": "Oakura",
        "zip_code": "4314"
    },
    {
        "name": "Waitara",
        "zip_code": "4320"
    },
    {
        "name": "Eltham",
        "zip_code": "4322"
    },
    {
        "name": "Inglewood",
        "zip_code": "4330"
    },
    {
        "name": "Stratford",
        "zip_code": "4332"
    },
    {
        "name": "Okato",
        "zip_code": "4335"
    },
    {
        "name": "Brooklands",
        "zip_code": "4340"
    },
    {
        "name": "Fitzroy",
        "zip_code": "4341"
    },
    {
        "name": "New Plymouth",
        "zip_code": "4342"
    },
    {
        "name": "Frankleigh Park",
        "zip_code": "4343"
    },
    {
        "name": "Moturoa",
        "zip_code": "4344"
    },
    {
        "name": "Oakura",
        "zip_code": "4345"
    },
    {
        "name": "Waitara",
        "zip_code": "4346"
    },
    {
        "name": "Inglewood",
        "zip_code": "4347"
    },
    {
        "name": "Okato",
        "zip_code": "4348"
    },
    {
        "name": "Urenui",
        "zip_code": "4349"
    },
    {
        "name": "Bell Block",
        "zip_code": "4351"
    },
    {
        "name": "Stratford",
        "zip_code": "4352"
    },
    {
        "name": "Eltham",
        "zip_code": "4353"
    },
    {
        "name": "Merrilands",
        "zip_code": "4360"
    },
    {
        "name": "Mangorei",
        "zip_code": "4371"
    },
    {
        "name": "Hillsborough",
        "zip_code": "4372"
    },
    {
        "name": "Lepperton",
        "zip_code": "4373"
    },
    {
        "name": "Oakura",
        "zip_code": "4374"
    },
    {
        "name": "Okoki",
        "zip_code": "4375"
    },
    {
        "name": "Uruti",
        "zip_code": "4377"
    },
    {
        "name": "Okau",
        "zip_code": "4378"
    },
    {
        "name": "Uruti",
        "zip_code": "4379"
    },
    {
        "name": "Okato",
        "zip_code": "4381"
    },
    {
        "name": "Sentry Hill",
        "zip_code": "4382"
    },
    {
        "name": "Tikorangi",
        "zip_code": "4383"
    },
    {
        "name": "Kaimiro",
        "zip_code": "4386"
    },
    {
        "name": "Tarata",
        "zip_code": "4387"
    },
    {
        "name": "Te Tawa",
        "zip_code": "4388"
    },
    {
        "name": "Waiongona",
        "zip_code": "4389"
    },
    {
        "name": "Ratapiko",
        "zip_code": "4390"
    },
    {
        "name": "Dawson Falls",
        "zip_code": "4391"
    },
    {
        "name": "Puniwhakau",
        "zip_code": "4392"
    },
    {
        "name": "Huinga",
        "zip_code": "4393"
    },
    {
        "name": "Tuna",
        "zip_code": "4394"
    },
    {
        "name": "Matau",
        "zip_code": "4395"
    },
    {
        "name": "Tahora",
        "zip_code": "4396"
    },
    {
        "name": "Tahora",
        "zip_code": "4397"
    },
    {
        "name": "Eltham",
        "zip_code": "4398"
    },
    {
        "name": "Moeroa",
        "zip_code": "4399"
    },
    {
        "name": "Waverley",
        "zip_code": "4510"
    },
    {
        "name": "White Tank",
        "zip_code": "4520"
    },
    {
        "name": "Waverley",
        "zip_code": "4544"
    },
    {
        "name": "White Tank",
        "zip_code": "4545"
    },
    {
        "name": "Waitotara",
        "zip_code": "4549"
    },
    {
        "name": "Tawhiwhi",
        "zip_code": "4588"
    },
    {
        "name": "Nukuhau",
        "zip_code": "4591"
    },
    {
        "name": "Mangawhio",
        "zip_code": "4592"
    },
    {
        "name": "Matukuroa",
        "zip_code": "4597"
    },
    {
        "name": "Hurleyville",
        "zip_code": "4598"
    },
    {
        "name": "Hawera",
        "zip_code": "4610"
    },
    {
        "name": "Manaia",
        "zip_code": "4612"
    },
    {
        "name": "Normanby",
        "zip_code": "4614"
    },
    {
        "name": "Opunake",
        "zip_code": "4616"
    },
    {
        "name": "Hawera",
        "zip_code": "4640"
    },
    {
        "name": "Manaia",
        "zip_code": "4641"
    },
    {
        "name": "Kaponga",
        "zip_code": "4642"
    },
    {
        "name": "Opunake",
        "zip_code": "4645"
    },
    {
        "name": "Okaiawa",
        "zip_code": "4671"
    },
    {
        "name": "Meremere",
        "zip_code": "4672"
    },
    {
        "name": "Te Roti",
        "zip_code": "4673"
    },
    {
        "name": "Ararata",
        "zip_code": "4674"
    },
    {
        "name": "Matapu",
        "zip_code": "4675"
    },
    {
        "name": "Kaupokonui",
        "zip_code": "4678"
    },
    {
        "name": "Riverlea",
        "zip_code": "4679"
    },
    {
        "name": "Oaonui",
        "zip_code": "4681"
    },
    {
        "name": "Waiteika",
        "zip_code": "4682"
    },
    {
        "name": "Upper Kahui",
        "zip_code": "4684"
    },
    {
        "name": "Parihaka Pa",
        "zip_code": "4685"
    },
    {
        "name": "Tuakau",
        "zip_code": "2121"
    },
    {
        "name": "Tuakau",
        "zip_code": "2342"
    },
    {
        "name": "Pokeno",
        "zip_code": "2440"
    },
    {
        "name": "Meremere",
        "zip_code": "2441"
    },
    {
        "name": "Kopuku",
        "zip_code": "2471"
    },
    {
        "name": "Pokeno",
        "zip_code": "2472"
    },
    {
        "name": "Kaiaua",
        "zip_code": "2473"
    },
    {
        "name": "Mercer",
        "zip_code": "2474"
    },
    {
        "name": "Otaua",
        "zip_code": "2682"
    },
    {
        "name": "Tuakau",
        "zip_code": "2694"
    },
    {
        "name": "Kaawa",
        "zip_code": "2695"
    },
    {
        "name": "Atiamuri",
        "zip_code": "3078"
    },
    {
        "name": "Te Rapa",
        "zip_code": "3200"
    },
    {
        "name": "Frankton Junction",
        "zip_code": "3204"
    },
    {
        "name": "Melville",
        "zip_code": "3206"
    },
    {
        "name": "Claudelands",
        "zip_code": "3210"
    },
    {
        "name": "Hamilton",
        "zip_code": "3214"
    },
    {
        "name": "Hamilton East",
        "zip_code": "3216"
    },
    {
        "name": "Temple View",
        "zip_code": "3218"
    },
    {
        "name": "Raglan",
        "zip_code": "3225"
    },
    {
        "name": "Hamilton West",
        "zip_code": "3240"
    },
    {
        "name": "Te Rapa",
        "zip_code": "3241"
    },
    {
        "name": "Hamilton West",
        "zip_code": "3242"
    },
    {
        "name": "Frankton Junction",
        "zip_code": "3243"
    },
    {
        "name": "Hamilton",
        "zip_code": "3244"
    },
    {
        "name": "Melville",
        "zip_code": "3245"
    },
    {
        "name": "Melville",
        "zip_code": "3246"
    },
    {
        "name": "Hamilton East",
        "zip_code": "3247"
    },
    {
        "name": "Claudelands",
        "zip_code": "3248"
    },
    {
        "name": "Te Rapa",
        "zip_code": "3249"
    },
    {
        "name": "Hamilton East",
        "zip_code": "3251"
    },
    {
        "name": "Claudelands",
        "zip_code": "3252"
    },
    {
        "name": "Newstead",
        "zip_code": "3253"
    },
    {
        "name": "Newstead",
        "zip_code": "3254"
    },
    {
        "name": "Hamilton East",
        "zip_code": "3255"
    },
    {
        "name": "Claudelands",
        "zip_code": "3256"
    },
    {
        "name": "Claudelands",
        "zip_code": "3257"
    },
    {
        "name": "Matangi",
        "zip_code": "3260"
    },
    {
        "name": "Whatawhata",
        "zip_code": "3261"
    },
    {
        "name": "Horotiu",
        "zip_code": "3262"
    },
    {
        "name": "Te Kowhai",
        "zip_code": "3263"
    },
    {
        "name": "Gordonton",
        "zip_code": "3264"
    },
    {
        "name": "Raglan",
        "zip_code": "3265"
    },
    {
        "name": "Te Uku",
        "zip_code": "3266"
    },
    {
        "name": "Gordonton",
        "zip_code": "3281"
    },
    {
        "name": "Rukuhia",
        "zip_code": "3282"
    },
    {
        "name": "Tamahere",
        "zip_code": "3283"
    },
    {
        "name": "Eureka",
        "zip_code": "3284"
    },
    {
        "name": "Aramiro",
        "zip_code": "3285"
    },
    {
        "name": "Te Kowhai",
        "zip_code": "3288"
    },
    {
        "name": "Whatawhata",
        "zip_code": "3289"
    },
    {
        "name": "Temple View",
        "zip_code": "3290"
    },
    {
        "name": "Waitetuna",
        "zip_code": "3293"
    },
    {
        "name": "Te Uku",
        "zip_code": "3295"
    },
    {
        "name": "Ruapuke",
        "zip_code": "3296"
    },
    {
        "name": "Raglan",
        "zip_code": "3297"
    },
    {
        "name": "Morrinsville",
        "zip_code": "3300"
    },
    {
        "name": "Waitoa",
        "zip_code": "3310"
    },
    {
        "name": "Te Aroha",
        "zip_code": "3320"
    },
    {
        "name": "Wharewaka",
        "zip_code": "3330"
    },
    {
        "name": "Wairakei",
        "zip_code": "3332"
    },
    {
        "name": "Turangi",
        "zip_code": "3334"
    },
    {
        "name": "Morrinsville",
        "zip_code": "3340"
    },
    {
        "name": "Waitoa",
        "zip_code": "3341"
    },
    {
        "name": "Te Aroha",
        "zip_code": "3342"
    },
    {
        "name": "Te Aroha",
        "zip_code": "3343"
    },
    {
        "name": "Taupo",
        "zip_code": "3351"
    },
    {
        "name": "Taupo",
        "zip_code": "3352"
    },
    {
        "name": "Turangi",
        "zip_code": "3353"
    },
    {
        "name": "Kiwitahi",
        "zip_code": "3371"
    },
    {
        "name": "Motumaoho",
        "zip_code": "3372"
    },
    {
        "name": "Tahuna",
        "zip_code": "3373"
    },
    {
        "name": "Te Puninga",
        "zip_code": "3374"
    },
    {
        "name": "Morrinsville",
        "zip_code": "3375"
    },
    {
        "name": "Oruanui",
        "zip_code": "3377"
    },
    {
        "name": "Waipahihi",
        "zip_code": "3378"
    },
    {
        "name": "Rangitaiki",
        "zip_code": "3379"
    },
    {
        "name": "Kuratau",
        "zip_code": "3381"
    },
    {
        "name": "Turangi",
        "zip_code": "3382"
    },
    {
        "name": "Manawaru",
        "zip_code": "3391"
    },
    {
        "name": "Mangaiti",
        "zip_code": "3392"
    },
    {
        "name": "Mangaiti",
        "zip_code": "3393"
    },
    {
        "name": "Matamata",
        "zip_code": "3400"
    },
    {
        "name": "Waharoa",
        "zip_code": "3401"
    },
    {
        "name": "Tirau",
        "zip_code": "3410"
    },
    {
        "name": "Putaruru",
        "zip_code": "3411"
    },
    {
        "name": "Arapuni",
        "zip_code": "3415"
    },
    {
        "name": "Tokoroa",
        "zip_code": "3420"
    },
    {
        "name": "Mangakino",
        "zip_code": "3421"
    },
    {
        "name": "Leamington",
        "zip_code": "3432"
    },
    {
        "name": "Leamington",
        "zip_code": "3434"
    },
    {
        "name": "Matamata",
        "zip_code": "3440"
    },
    {
        "name": "Waharoa",
        "zip_code": "3441"
    },
    {
        "name": "Tirau",
        "zip_code": "3442"
    },
    {
        "name": "Putaruru",
        "zip_code": "3443"
    },
    {
        "name": "Tokoroa",
        "zip_code": "3444"
    },
    {
        "name": "Mangakino",
        "zip_code": "3445"
    },
    {
        "name": "Leamington",
        "zip_code": "3450"
    },
    {
        "name": "Hautapu",
        "zip_code": "3451"
    },
    {
        "name": "Okauia",
        "zip_code": "3471"
    },
    {
        "name": "Hinuera",
        "zip_code": "3472"
    },
    {
        "name": "Waharoa",
        "zip_code": "3474"
    },
    {
        "name": "Walton",
        "zip_code": "3475"
    },
    {
        "name": "Te Waotu",
        "zip_code": "3481"
    },
    {
        "name": "Ngatira",
        "zip_code": "3482"
    },
    {
        "name": "Putaruru",
        "zip_code": "3483"
    },
    {
        "name": "Tirau",
        "zip_code": "3484"
    },
    {
        "name": "Okoroire",
        "zip_code": "3485"
    },
    {
        "name": "Kinleith",
        "zip_code": "3491"
    },
    {
        "name": "Mangakino",
        "zip_code": "3492"
    },
    {
        "name": "Bruntwood",
        "zip_code": "3493"
    },
    {
        "name": "Pukeatua",
        "zip_code": "3494"
    },
    {
        "name": "Leamington",
        "zip_code": "3495"
    },
    {
        "name": "Whitehall",
        "zip_code": "3496"
    },
    {
        "name": "Thames",
        "zip_code": "3500"
    },
    {
        "name": "Ngatea",
        "zip_code": "3503"
    },
    {
        "name": "Whangapoua",
        "zip_code": "3506"
    },
    {
        "name": "Tairua",
        "zip_code": "3508"
    },
    {
        "name": "Whitianga",
        "zip_code": "3510"
    },
    {
        "name": "Thames",
        "zip_code": "3540"
    },
    {
        "name": "Ngatea",
        "zip_code": "3541"
    },
    {
        "name": "Whitianga",
        "zip_code": "3542"
    },
    {
        "name": "Coromandel",
        "zip_code": "3543"
    },
    {
        "name": "Tairua",
        "zip_code": "3544"
    },
    {
        "name": "Turua",
        "zip_code": "3545"
    },
    {
        "name": "Pauanui",
        "zip_code": "3546"
    },
    {
        "name": "Colville",
        "zip_code": "3547"
    },
    {
        "name": "Turua",
        "zip_code": "3574"
    },
    {
        "name": "Tapu",
        "zip_code": "3575"
    },
    {
        "name": "Waitakaruru",
        "zip_code": "3576"
    },
    {
        "name": "Parawai",
        "zip_code": "3577"
    },
    {
        "name": "Nevesville",
        "zip_code": "3578"
    },
    {
        "name": "Hikuai",
        "zip_code": "3579"
    },
    {
        "name": "Ahimia",
        "zip_code": "3581"
    },
    {
        "name": "Te Rerenga",
        "zip_code": "3582"
    },
    {
        "name": "Kennedys Bay",
        "zip_code": "3583"
    },
    {
        "name": "Colville",
        "zip_code": "3584"
    },
    {
        "name": "Coroglen",
        "zip_code": "3591"
    },
    {
        "name": "Coroglen",
        "zip_code": "3592"
    },
    {
        "name": "Ngatea",
        "zip_code": "3597"
    },
    {
        "name": "Paeroa",
        "zip_code": "3600"
    },
    {
        "name": "Waihi",
        "zip_code": "3610"
    },
    {
        "name": "Whangamata",
        "zip_code": "3620"
    },
    {
        "name": "Paeroa",
        "zip_code": "3640"
    },
    {
        "name": "Waihi",
        "zip_code": "3641"
    },
    {
        "name": "Whangamata",
        "zip_code": "3643"
    },
    {
        "name": "Netherton",
        "zip_code": "3671"
    },
    {
        "name": "Netherton",
        "zip_code": "3672"
    },
    {
        "name": "Tirohia",
        "zip_code": "3673"
    },
    {
        "name": "Komata",
        "zip_code": "3674"
    },
    {
        "name": "Waihi",
        "zip_code": "3681"
    },
    {
        "name": "Waihi",
        "zip_code": "3682"
    },
    {
        "name": "Whangamata",
        "zip_code": "3691"
    },
    {
        "name": "Starrtown",
        "zip_code": "3700"
    },
    {
        "name": "Te Kauwhata",
        "zip_code": "3710"
    },
    {
        "name": "Ngaruawahia",
        "zip_code": "3720"
    },
    {
        "name": "Taupiri",
        "zip_code": "3721"
    },
    {
        "name": "Starrtown",
        "zip_code": "3740"
    },
    {
        "name": "Te Kauwhata",
        "zip_code": "3741"
    },
    {
        "name": "Ngaruawahia",
        "zip_code": "3742"
    },
    {
        "name": "Pukekapia",
        "zip_code": "3771"
    },
    {
        "name": "Ruawaro",
        "zip_code": "3772"
    },
    {
        "name": "Waerenga",
        "zip_code": "3781"
    },
    {
        "name": "Whangamarino",
        "zip_code": "3782"
    },
    {
        "name": "Waiterimu",
        "zip_code": "3784"
    },
    {
        "name": "Komakorau",
        "zip_code": "3791"
    },
    {
        "name": "Orini",
        "zip_code": "3792"
    },
    {
        "name": "Waingaro",
        "zip_code": "3793"
    },
    {
        "name": "Pepepe",
        "zip_code": "3794"
    },
    {
        "name": "Te Awamutu",
        "zip_code": "3800"
    },
    {
        "name": "Pirongia",
        "zip_code": "3802"
    },
    {
        "name": "Ohaupo",
        "zip_code": "3803"
    },
    {
        "name": "Te Awamutu",
        "zip_code": "3840"
    },
    {
        "name": "Kihikihi",
        "zip_code": "3841"
    },
    {
        "name": "Kawhia",
        "zip_code": "3843"
    },
    {
        "name": "Wharepuhunga",
        "zip_code": "3872"
    },
    {
        "name": "Te Kawa",
        "zip_code": "3873"
    },
    {
        "name": "Matapara",
        "zip_code": "3874"
    },
    {
        "name": "Te Mawhai",
        "zip_code": "3875"
    },
    {
        "name": "Pirongia",
        "zip_code": "3876"
    },
    {
        "name": "Matapara",
        "zip_code": "3877"
    },
    {
        "name": "Hauturu",
        "zip_code": "3878"
    },
    {
        "name": "Kihikihi",
        "zip_code": "3879"
    },
    {
        "name": "Pukeatua",
        "zip_code": "3880"
    },
    {
        "name": "Ohaupo",
        "zip_code": "3881"
    },
    {
        "name": "Rukuhia",
        "zip_code": "3882"
    },
    {
        "name": "Ngaroto",
        "zip_code": "3883"
    },
    {
        "name": "Oparau",
        "zip_code": "3885"
    },
    {
        "name": "Owhiro",
        "zip_code": "3886"
    },
    {
        "name": "Kawhia",
        "zip_code": "3889"
    },
    {
        "name": "Te Papatapu",
        "zip_code": "3894"
    },
    {
        "name": "Moerangi",
        "zip_code": "3895"
    },
    {
        "name": "Otorohanga",
        "zip_code": "3900"
    },
    {
        "name": "Te Kuiti",
        "zip_code": "3910"
    },
    {
        "name": "Piopio",
        "zip_code": "3912"
    },
    {
        "name": "Otorohanga",
        "zip_code": "3940"
    },
    {
        "name": "Te Kuiti",
        "zip_code": "3941"
    },
    {
        "name": "Piopio",
        "zip_code": "3942"
    },
    {
        "name": "Hangatiki",
        "zip_code": "3943"
    },
    {
        "name": "Benneydale",
        "zip_code": "3944"
    },
    {
        "name": "Mahoenui",
        "zip_code": "3945"
    },
    {
        "name": "Tongariro",
        "zip_code": "3949"
    },
    {
        "name": "Wairere Falls",
        "zip_code": "3970"
    },
    {
        "name": "Waitanguru",
        "zip_code": "3971"
    },
    {
        "name": "Maihiihi",
        "zip_code": "3972"
    },
    {
        "name": "Honikiwi",
        "zip_code": "3973"
    },
    {
        "name": "Te Kawa",
        "zip_code": "3974"
    },
    {
        "name": "Maihiihi",
        "zip_code": "3975"
    },
    {
        "name": "Hangatiki",
        "zip_code": "3976"
    },
    {
        "name": "Hangatiki",
        "zip_code": "3977"
    },
    {
        "name": "Mahoenui",
        "zip_code": "3978"
    },
    {
        "name": "Arapae",
        "zip_code": "3981"
    },
    {
        "name": "Puketutu",
        "zip_code": "3982"
    },
    {
        "name": "Kopaki",
        "zip_code": "3983"
    },
    {
        "name": "Waitanguru",
        "zip_code": "3985"
    },
    {
        "name": "Te Kuiti",
        "zip_code": "3986"
    },
    {
        "name": "Benneydale",
        "zip_code": "3987"
    },
    {
        "name": "Owhiro",
        "zip_code": "3988"
    },
    {
        "name": "Mokau",
        "zip_code": "4350"
    },
    {
        "name": "Awakino",
        "zip_code": "4376"
    },
    {
        "name": "Avalon",
        "zip_code": "5010"
    },
    {
        "name": "Taita",
        "zip_code": "5011"
    },
    {
        "name": "Petone",
        "zip_code": "5012"
    },
    {
        "name": "Muritai",
        "zip_code": "5013"
    },
    {
        "name": "Wainuiomata",
        "zip_code": "5014"
    },
    {
        "name": "Korokoro",
        "zip_code": "5016"
    },
    {
        "name": "Maoribank",
        "zip_code": "5018"
    },
    {
        "name": "Pinehaven",
        "zip_code": "5019"
    },
    {
        "name": "Elsdon",
        "zip_code": "5022"
    },
    {
        "name": "Waitangirua",
        "zip_code": "5024"
    },
    {
        "name": "Karehana Bay",
        "zip_code": "5026"
    },
    {
        "name": "Grenada North",
        "zip_code": "5028"
    },
    {
        "name": "Paraparaumu Beach",
        "zip_code": "5032"
    },
    {
        "name": "Paekakariki",
        "zip_code": "5034"
    },
    {
        "name": "Waikanae",
        "zip_code": "5036"
    },
    {
        "name": "Alicetown",
        "zip_code": "5040"
    },
    {
        "name": "Taita",
        "zip_code": "5041"
    },
    {
        "name": "Lower Hutt",
        "zip_code": "5042"
    },
    {
        "name": "Gracefield",
        "zip_code": "5043"
    },
    {
        "name": "Naenae",
        "zip_code": "5044"
    },
    {
        "name": "Petone",
        "zip_code": "5045"
    },
    {
        "name": "Petone",
        "zip_code": "5046"
    },
    {
        "name": "Eastbourne",
        "zip_code": "5047"
    },
    {
        "name": "Wainuiomata",
        "zip_code": "5048"
    },
    {
        "name": "Homedale",
        "zip_code": "5049"
    },
    {
        "name": "Maungaraki",
        "zip_code": "5050"
    },
    {
        "name": "Kingsley Heights",
        "zip_code": "5140"
    },
    {
        "name": "Stokes Valley",
        "zip_code": "5141"
    },
    {
        "name": "Silverstream",
        "zip_code": "5142"
    },
    {
        "name": "Trentham",
        "zip_code": "5143"
    },
    {
        "name": "Ranui Heights",
        "zip_code": "5240"
    },
    {
        "name": "Onepoto",
        "zip_code": "5242"
    },
    {
        "name": "Cannons Creek",
        "zip_code": "5243"
    },
    {
        "name": "Whitby",
        "zip_code": "5245"
    },
    {
        "name": "Paremata",
        "zip_code": "5247"
    },
    {
        "name": "Linden",
        "zip_code": "5249"
    },
    {
        "name": "Waikanae",
        "zip_code": "5250"
    },
    {
        "name": "Paraparaumu Beach",
        "zip_code": "5252"
    },
    {
        "name": "Paraparaumu",
        "zip_code": "5254"
    },
    {
        "name": "Raumati Beach",
        "zip_code": "5255"
    },
    {
        "name": "Paekakariki",
        "zip_code": "5258"
    },
    {
        "name": "Upper Hutt",
        "zip_code": "5371"
    },
    {
        "name": "Kaitoke",
        "zip_code": "5372"
    },
    {
        "name": "Homedale",
        "zip_code": "5373"
    },
    {
        "name": "Pukerua Bay",
        "zip_code": "5381"
    },
    {
        "name": "Reikorangi",
        "zip_code": "5391"
    },
    {
        "name": "Otaki",
        "zip_code": "5512"
    },
    {
        "name": "Otaki",
        "zip_code": "5542"
    },
    {
        "name": "Otaki",
        "zip_code": "5543"
    },
    {
        "name": "Te Horo",
        "zip_code": "5544"
    },
    {
        "name": "Featherston",
        "zip_code": "5710"
    },
    {
        "name": "Martinborough",
        "zip_code": "5711"
    },
    {
        "name": "Greytown",
        "zip_code": "5712"
    },
    {
        "name": "Carterton",
        "zip_code": "5713"
    },
    {
        "name": "Featherston",
        "zip_code": "5740"
    },
    {
        "name": "Martinborough",
        "zip_code": "5741"
    },
    {
        "name": "Greytown",
        "zip_code": "5742"
    },
    {
        "name": "Carterton",
        "zip_code": "5743"
    },
    {
        "name": "Kahutara",
        "zip_code": "5771"
    },
    {
        "name": "Pirinoa",
        "zip_code": "5772"
    },
    {
        "name": "Cross Creek",
        "zip_code": "5773"
    },
    {
        "name": "Pahautea",
        "zip_code": "5781"
    },
    {
        "name": "Waipawa",
        "zip_code": "5782"
    },
    {
        "name": "Martinborough",
        "zip_code": "5783"
    },
    {
        "name": "Hinakura",
        "zip_code": "5784"
    },
    {
        "name": "Carterton",
        "zip_code": "5791"
    },
    {
        "name": "Parkvale",
        "zip_code": "5792"
    },
    {
        "name": "Greytown",
        "zip_code": "5794"
    },
    {
        "name": "Masterton",
        "zip_code": "5810"
    },
    {
        "name": "Masterton",
        "zip_code": "5840"
    },
    {
        "name": "Masterton",
        "zip_code": "5842"
    },
    {
        "name": "Bideford",
        "zip_code": "5871"
    },
    {
        "name": "Riversdale Beach",
        "zip_code": "5872"
    },
    {
        "name": "Kopuaranga",
        "zip_code": "5881"
    },
    {
        "name": "Mauriceville",
        "zip_code": "5882"
    },
    {
        "name": "Homewood",
        "zip_code": "5883"
    },
    {
        "name": "Gladstone",
        "zip_code": "5884"
    },
    {
        "name": "Masterton",
        "zip_code": "5885"
    },
    {
        "name": "Upper Tauheru",
        "zip_code": "5886"
    },
    {
        "name": "Clareville",
        "zip_code": "5887"
    },
    {
        "name": "Solway",
        "zip_code": "5888"
    },
    {
        "name": "Tinui",
        "zip_code": "5889"
    },
    {
        "name": "Tauweru",
        "zip_code": "5890"
    },
    {
        "name": "Tinui",
        "zip_code": "5894"
    },
    {
        "name": "Mount Victoria",
        "zip_code": "6011"
    },
    {
        "name": "Karori",
        "zip_code": "6012"
    },
    {
        "name": "Wellington",
        "zip_code": "6021"
    },
    {
        "name": "Miramar",
        "zip_code": "6022"
    },
    {
        "name": "Owhiro Bay",
        "zip_code": "6023"
    },
    {
        "name": "Khandallah",
        "zip_code": "6035"
    },
    {
        "name": "Ohariu",
        "zip_code": "6037"
    },
    {
        "name": "Mount Victoria",
        "zip_code": "6140"
    },
    {
        "name": "Mount Victoria",
        "zip_code": "6141"
    },
    {
        "name": "Mount Victoria",
        "zip_code": "6142"
    },
    {
        "name": "Kelburn",
        "zip_code": "6143"
    },
    {
        "name": "Kaiwharawhara",
        "zip_code": "6144"
    },
    {
        "name": "Kelburn",
        "zip_code": "6145"
    },
    {
        "name": "Mount Victoria",
        "zip_code": "6146"
    },
    {
        "name": "Karori",
        "zip_code": "6147"
    },
    {
        "name": "Mount Victoria",
        "zip_code": "6148"
    },
    {
        "name": "Wellington",
        "zip_code": "6149"
    },
    {
        "name": "Kelburn",
        "zip_code": "6150"
    },
    {
        "name": "Kelburn",
        "zip_code": "6160"
    },
    {
        "name": "Rongotai",
        "zip_code": "6241"
    },
    {
        "name": "Berhampore",
        "zip_code": "6242"
    },
    {
        "name": "Miramar",
        "zip_code": "6243"
    },
    {
        "name": "Strathmore Park",
        "zip_code": "6244"
    },
    {
        "name": "Newlands",
        "zip_code": "6440"
    },
    {
        "name": "Ngaio",
        "zip_code": "6441"
    },
    {
        "name": "Newlands",
        "zip_code": "6442"
    },
    {
        "name": "Ngaio",
        "zip_code": "6443"
    },
    {
        "name": "Karori West",
        "zip_code": "6972"
    },
    {
        "name": "Runanga",
        "zip_code": "7802"
    },
    {
        "name": "Rewanui",
        "zip_code": "7803"
    },
    {
        "name": "Roa",
        "zip_code": "7804"
    },
    {
        "name": "Marsden",
        "zip_code": "7805"
    },
    {
        "name": "Hokitika",
        "zip_code": "7810"
    },
    {
        "name": "Kaniere",
        "zip_code": "7811"
    },
    {
        "name": "Ross",
        "zip_code": "7812"
    },
    {
        "name": "Hector",
        "zip_code": "7822"
    },
    {
        "name": "Granity",
        "zip_code": "7823"
    },
    {
        "name": "Carters Beach",
        "zip_code": "7825"
    },
    {
        "name": "Reefton",
        "zip_code": "7830"
    },
    {
        "name": "Kumara",
        "zip_code": "7832"
    },
    {
        "name": "Cobden",
        "zip_code": "7840"
    },
    {
        "name": "Runanga",
        "zip_code": "7841"
    },
    {
        "name": "Hokitika",
        "zip_code": "7842"
    },
    {
        "name": "Ahaura",
        "zip_code": "7843"
    },
    {
        "name": "Moana",
        "zip_code": "7845"
    },
    {
        "name": "Ikamatua",
        "zip_code": "7846"
    },
    {
        "name": "Springs Junction",
        "zip_code": "7847"
    },
    {
        "name": "Waimangaroa",
        "zip_code": "7848"
    },
    {
        "name": "Reefton",
        "zip_code": "7851"
    },
    {
        "name": "Franz Josef/Waiau",
        "zip_code": "7856"
    },
    {
        "name": "Whataroa",
        "zip_code": "7857"
    },
    {
        "name": "Weheka",
        "zip_code": "7859"
    },
    {
        "name": "Ross",
        "zip_code": "7860"
    },
    {
        "name": "Kumara",
        "zip_code": "7861"
    },
    {
        "name": "Charleston",
        "zip_code": "7865"
    },
    {
        "name": "Carters Beach",
        "zip_code": "7866"
    },
    {
        "name": "Hector",
        "zip_code": "7867"
    },
    {
        "name": "Ikamatua",
        "zip_code": "7871"
    },
    {
        "name": "Bell Hill",
        "zip_code": "7872"
    },
    {
        "name": "Barrytown",
        "zip_code": "7873"
    },
    {
        "name": "Aickens",
        "zip_code": "7875"
    },
    {
        "name": "Kowhitirangi",
        "zip_code": "7881"
    },
    {
        "name": "Goldsborough",
        "zip_code": "7882"
    },
    {
        "name": "Kowhitirangi",
        "zip_code": "7883"
    },
    {
        "name": "Harihari",
        "zip_code": "7884"
    },
    {
        "name": "Fergusons",
        "zip_code": "7885"
    },
    {
        "name": "Mokihinui Mine",
        "zip_code": "7891"
    },
    {
        "name": "Te Kuha",
        "zip_code": "7892"
    },
    {
        "name": "Oparara",
        "zip_code": "7893"
    },
    {
        "name": "Crushington",
        "zip_code": "7895"
    },
    {
        "name": "Mapua",
        "zip_code": "7005"
    },
    {
        "name": "Richmond",
        "zip_code": "7020"
    },
    {
        "name": "Brightwater",
        "zip_code": "7022"
    },
    {
        "name": "Wakefield",
        "zip_code": "7025"
    },
    {
        "name": "Mapua",
        "zip_code": "7048"
    },
    {
        "name": "Richmond",
        "zip_code": "7050"
    },
    {
        "name": "Brightwater",
        "zip_code": "7051"
    },
    {
        "name": "Wakefield",
        "zip_code": "7052"
    },
    {
        "name": "Saint Arnaud",
        "zip_code": "7053"
    },
    {
        "name": "Collingwood",
        "zip_code": "7054"
    },
    {
        "name": "Tapawera",
        "zip_code": "7055"
    },
    {
        "name": "Lake Rotoroa",
        "zip_code": "7072"
    },
    {
        "name": "Baton",
        "zip_code": "7073"
    },
    {
        "name": "Matakitaki",
        "zip_code": "7077"
    },
    {
        "name": "Richmond",
        "zip_code": "7081"
    },
    {
        "name": "Brightwater",
        "zip_code": "7091"
    },
    {
        "name": "Hiwipango",
        "zip_code": "7095"
    },
    {
        "name": "Motupiko",
        "zip_code": "7096"
    },
    {
        "name": "Takaka",
        "zip_code": "7110"
    },
    {
        "name": "Takaka",
        "zip_code": "7142"
    },
    {
        "name": "Upper Moutere",
        "zip_code": "7144"
    },
    {
        "name": "Riwaka",
        "zip_code": "7146"
    },
    {
        "name": "Mahana",
        "zip_code": "7173"
    },
    {
        "name": "Braeburn",
        "zip_code": "7175"
    },
    {
        "name": "Onekaka",
        "zip_code": "7182"
    },
    {
        "name": "East Takaka",
        "zip_code": "7183"
    },
    {
        "name": "Ngatimoti",
        "zip_code": "7196"
    },
    {
        "name": "Sandy Bay",
        "zip_code": "7197"
    },
    {
        "name": "Kairuru",
        "zip_code": "7198"
    },
    {
        "name": "Punaroma",
        "zip_code": "3076"
    },
    {
        "name": "Katikati",
        "zip_code": "3166"
    },
    {
        "name": "Waitoa",
        "zip_code": "3380"
    },
    {
        "name": "Summerhill",
        "zip_code": "4410"
    },
    {
        "name": "Summerhill",
        "zip_code": "4448"
    },
    {
        "name": "Cliff Road",
        "zip_code": "4787"
    },
    {
        "name": "Waiouru Military Camp",
        "zip_code": "4825"
    },
    {
        "name": "Waiouru Military Camp",
        "zip_code": "4826"
    },
    {
        "name": "Waiouru",
        "zip_code": "4861"
    },
    {
        "name": "Aohanga",
        "zip_code": "4991"
    },
    {
        "name": "Murchison",
        "zip_code": "7007"
    },
    {
        "name": "Murchison",
        "zip_code": "7049"
    },
    {
        "name": "Port Motueka",
        "zip_code": "7120"
    },
    {
        "name": "Port Motueka",
        "zip_code": "7143"
    },
    {
        "name": "Waioruarangi",
        "zip_code": "7300"
    },
    {
        "name": "Haast",
        "zip_code": "7844"
    },
    {
        "name": "Maruia",
        "zip_code": "7862"
    },
    {
        "name": "Harihari",
        "zip_code": "7863"
    },
    {
        "name": "Market Cross",
        "zip_code": "7864"
    },
    {
        "name": "Mahitahi",
        "zip_code": "7886"
    },
    {
        "name": "Mataura",
        "zip_code": "9356"
    },
    {
        "name": "Berwen",
        "zip_code": "9412"
    },
    {
        "name": "Palmerston",
        "zip_code": "9430"
    },
    {
        "name": "Wharekuri",
        "zip_code": "9435"
    },
    {
        "name": "Roxburgh",
        "zip_code": "9441"
    },
    {
        "name": "Waikouaiti",
        "zip_code": "9510"
    },
    {
        "name": "Waikouaiti",
        "zip_code": "9541"
    },
    {
        "name": "Half-moon Bay",
        "zip_code": "9846"
    }
]