[
    {
        "name": "Sui Gas Field Sibi",
        "zip_code": "80000"
    },
    {
        "name": "Dera Bugti",
        "zip_code": "80100"
    },
    {
        "name": "Manjhi Pur",
        "zip_code": "80200"
    },
    {
        "name": "Usta Muhammad",
        "zip_code": "80300"
    },
    {
        "name": "Dr.Azizullah Salakzai",
        "zip_code": "80310"
    },
    {
        "name": "Gandakha",
        "zip_code": "80400"
    },
    {
        "name": "Dera Allayyar",
        "zip_code": "80500"
    },
    {
        "name": "Sohbat Pur",
        "zip_code": "80600"
    },
    {
        "name": "Dear Murad Jamali",
        "zip_code": "80700"
    },
    {
        "name": "Chattar",
        "zip_code": "80800"
    },
    {
        "name": "Sardar Changez Khan",
        "zip_code": "80810"
    },
    {
        "name": "Abdul Ghafoor Lehri",
        "zip_code": "80820"
    },
    {
        "name": "Gandawa",
        "zip_code": "81050"
    },
    {
        "name": "Jhal Magsi",
        "zip_code": "81100"
    },
    {
        "name": "Bukhtarabad Domki",
        "zip_code": "81150"
    },
    {
        "name": "Lehri",
        "zip_code": "81200"
    },
    {
        "name": "Bhag",
        "zip_code": "81250"
    },
    {
        "name": "Khattan",
        "zip_code": "81260"
    },
    {
        "name": "Manjho Shori",
        "zip_code": "81270"
    },
    {
        "name": "Haji Shaher",
        "zip_code": "81300"
    },
    {
        "name": "Mithri Village",
        "zip_code": "81350"
    },
    {
        "name": "Dhadar",
        "zip_code": "81400"
    },
    {
        "name": "Rind Ali",
        "zip_code": "81410"
    },
    {
        "name": "Sanni",
        "zip_code": "81450"
    },
    {
        "name": "Kolpur",
        "zip_code": "81550"
    },
    {
        "name": "Sibi Gpo",
        "zip_code": "82000"
    },
    {
        "name": "Talli",
        "zip_code": "82010"
    },
    {
        "name": "Sibi Railway Colony",
        "zip_code": "82100"
    },
    {
        "name": "Sibi Petrol Pump",
        "zip_code": "82200"
    },
    {
        "name": "Harnai",
        "zip_code": "82300"
    },
    {
        "name": "Khost",
        "zip_code": "82310"
    },
    {
        "name": "Sharigh",
        "zip_code": "82400"
    },
    {
        "name": "Kohlu",
        "zip_code": "83000"
    },
    {
        "name": "Maiwand",
        "zip_code": "83100"
    },
    {
        "name": "Chutiali Shafir",
        "zip_code": "84100"
    },
    {
        "name": "Dukki",
        "zip_code": "84200"
    },
    {
        "name": "Sinjawi",
        "zip_code": "84300"
    },
    {
        "name": "Barkhan",
        "zip_code": "84400"
    },
    {
        "name": "Rakhni",
        "zip_code": "84500"
    },
    {
        "name": "Rara Sham",
        "zip_code": "84600"
    },
    {
        "name": "Drug",
        "zip_code": "84690"
    },
    {
        "name": "Musa Kel",
        "zip_code": "84700"
    },
    {
        "name": "Mekhtar",
        "zip_code": "84710"
    },
    {
        "name": "Loralai Gpo",
        "zip_code": "84800"
    },
    {
        "name": "Mohsinabad",
        "zip_code": "84810"
    },
    {
        "name": "Loralai Cantt.",
        "zip_code": "84820"
    },
    {
        "name": "Nahar Kot",
        "zip_code": "84830"
    },
    {
        "name": "Kach Jamal Bagar",
        "zip_code": "84840"
    },
    {
        "name": "Shah Karez",
        "zip_code": "84850"
    },
    {
        "name": "Rar Kan",
        "zip_code": "84900"
    },
    {
        "name": "Murgha",
        "zip_code": "85100"
    },
    {
        "name": "Zhob",
        "zip_code": "85200"
    },
    {
        "name": "Sherani",
        "zip_code": "85210"
    },
    {
        "name": "Sherani Bazar",
        "zip_code": "85220"
    },
    {
        "name": "Ganj Mohalla",
        "zip_code": "85230"
    },
    {
        "name": "Appozai",
        "zip_code": "85240"
    },
    {
        "name": "Qamar-Ud-Din Karez",
        "zip_code": "85300"
    },
    {
        "name": "Killa Saifullah",
        "zip_code": "85400"
    },
    {
        "name": "Muslim Bagh",
        "zip_code": "85500"
    },
    {
        "name": "Chaman",
        "zip_code": "86000"
    },
    {
        "name": "Killa Abadulllah",
        "zip_code": "86200"
    },
    {
        "name": "Killi Abdul Rehmanzai",
        "zip_code": "86210"
    },
    {
        "name": "Habibabad",
        "zip_code": "86220"
    },
    {
        "name": "Saranan",
        "zip_code": "86400"
    },
    {
        "name": "Killi Abdur Rehman Zai",
        "zip_code": "86410"
    },
    {
        "name": "Bostan",
        "zip_code": "86500"
    },
    {
        "name": "Khanozai",
        "zip_code": "86600"
    },
    {
        "name": "Killi Verchoom",
        "zip_code": "86650"
    },
    {
        "name": "Pishin",
        "zip_code": "86700"
    },
    {
        "name": "Hurram Zai",
        "zip_code": "86710"
    },
    {
        "name": "Manzari",
        "zip_code": "86720"
    },
    {
        "name": "Killi Malakyar",
        "zip_code": "86730"
    },
    {
        "name": "Barshore",
        "zip_code": "86800"
    },
    {
        "name": "Kuchlak",
        "zip_code": "87000"
    },
    {
        "name": "Baleli",
        "zip_code": "87100"
    },
    {
        "name": "Killi Minhas",
        "zip_code": "87110"
    },
    {
        "name": "Killi Tirkha",
        "zip_code": "87290"
    },
    {
        "name": "Quetta Gpo",
        "zip_code": "87300"
    },
    {
        "name": "Jinnah Town, Queeta",
        "zip_code": "87312"
    },
    {
        "name": "Hazar Gangi",
        "zip_code": "87320"
    },
    {
        "name": "Ali Town",
        "zip_code": "87340"
    },
    {
        "name": "Satellite Town Quetta",
        "zip_code": "87500"
    },
    {
        "name": "Sariab Road",
        "zip_code": "87550"
    },
    {
        "name": "Samungali",
        "zip_code": "87600"
    },
    {
        "name": "Quetta Air Port",
        "zip_code": "87650"
    },
    {
        "name": "Nawan Killi",
        "zip_code": "87710"
    },
    {
        "name": "Nasirabad",
        "zip_code": "87720"
    },
    {
        "name": "Infantory School",
        "zip_code": "87750"
    },
    {
        "name": "Staff College Quetta",
        "zip_code": "87800"
    },
    {
        "name": "Sariab",
        "zip_code": "87900"
    },
    {
        "name": "Sorange",
        "zip_code": "88050"
    },
    {
        "name": "Mastung Road",
        "zip_code": "88100"
    },
    {
        "name": "Digari",
        "zip_code": "88150"
    },
    {
        "name": "Mastung",
        "zip_code": "88200"
    },
    {
        "name": "Khad Kucha",
        "zip_code": "88210"
    },
    {
        "name": "Kirdgap",
        "zip_code": "88220"
    },
    {
        "name": "Dringarh",
        "zip_code": "88230"
    },
    {
        "name": "Kanak",
        "zip_code": "88240"
    },
    {
        "name": "Manochar",
        "zip_code": "88250"
    },
    {
        "name": "Johan",
        "zip_code": "88260"
    },
    {
        "name": "Kalat",
        "zip_code": "88300"
    },
    {
        "name": "Kalat Petrol Pump",
        "zip_code": "88310"
    },
    {
        "name": "Moola",
        "zip_code": "88320"
    },
    {
        "name": "Nichara",
        "zip_code": "88350"
    },
    {
        "name": "Pidran",
        "zip_code": "88360"
    },
    {
        "name": "Sorab Croos",
        "zip_code": "88370"
    },
    {
        "name": "Sorab",
        "zip_code": "88400"
    },
    {
        "name": "Umerabad Gidder",
        "zip_code": "88410"
    },
    {
        "name": "Basima",
        "zip_code": "88420"
    },
    {
        "name": "Nag",
        "zip_code": "88430"
    },
    {
        "name": "Zehri",
        "zip_code": "88450"
    },
    {
        "name": "Khuzdar Gpo",
        "zip_code": "89100"
    },
    {
        "name": "Buet",
        "zip_code": "89120"
    },
    {
        "name": "Chamrok",
        "zip_code": "89130"
    },
    {
        "name": "Tootak",
        "zip_code": "89140"
    },
    {
        "name": "Khuzdar Cantt.",
        "zip_code": "89150"
    },
    {
        "name": "Kuzdar Bazar",
        "zip_code": "89160"
    },
    {
        "name": "Khattan",
        "zip_code": "89170"
    },
    {
        "name": "Mashkey",
        "zip_code": "89200"
    },
    {
        "name": "Zeedi",
        "zip_code": "89230"
    },
    {
        "name": "Jinnah Camp",
        "zip_code": "89240"
    },
    {
        "name": "Wadh",
        "zip_code": "89250"
    },
    {
        "name": "Jibri",
        "zip_code": "89260"
    },
    {
        "name": "Ornach",
        "zip_code": "89270"
    },
    {
        "name": "Kalwan",
        "zip_code": "89300"
    },
    {
        "name": "Karakh",
        "zip_code": "89350"
    },
    {
        "name": "Bela",
        "zip_code": "90050"
    },
    {
        "name": "Uthal",
        "zip_code": "90150"
    },
    {
        "name": "Lakhra",
        "zip_code": "90160"
    },
    {
        "name": "Miani Beach",
        "zip_code": "90200"
    },
    {
        "name": "Sommiani (Winder)",
        "zip_code": "90210"
    },
    {
        "name": "Hub Chowki",
        "zip_code": "90250"
    },
    {
        "name": "Civic Centre Hub",
        "zip_code": "90260"
    },
    {
        "name": "Gadani",
        "zip_code": "90300"
    },
    {
        "name": "Balicha",
        "zip_code": "90350"
    },
    {
        "name": "Jiwani",
        "zip_code": "91100"
    },
    {
        "name": "Gawadar",
        "zip_code": "91200"
    },
    {
        "name": "Surbandar",
        "zip_code": "91210"
    },
    {
        "name": "Peshkan",
        "zip_code": "91220"
    },
    {
        "name": "Pasni",
        "zip_code": "91300"
    },
    {
        "name": "Ormara",
        "zip_code": "91400"
    },
    {
        "name": "Mand",
        "zip_code": "92100"
    },
    {
        "name": "Tump",
        "zip_code": "92300"
    },
    {
        "name": "Kalatuk",
        "zip_code": "92400"
    },
    {
        "name": "Shahi Tump",
        "zip_code": "92500"
    },
    {
        "name": "Turbat Gpo",
        "zip_code": "92600"
    },
    {
        "name": "Asiabad",
        "zip_code": "92610"
    },
    {
        "name": "Kuddan",
        "zip_code": "92650"
    },
    {
        "name": "Buleda",
        "zip_code": "92800"
    },
    {
        "name": "Solo Buleda",
        "zip_code": "92810"
    },
    {
        "name": "Nasirabad",
        "zip_code": "92900"
    },
    {
        "name": "Hoshab",
        "zip_code": "92910"
    },
    {
        "name": "Panjgur",
        "zip_code": "93000"
    },
    {
        "name": "Patak",
        "zip_code": "93100"
    },
    {
        "name": "Katagari",
        "zip_code": "93200"
    },
    {
        "name": "Washbood",
        "zip_code": "93210"
    },
    {
        "name": "Khudabandan",
        "zip_code": "93220"
    },
    {
        "name": "Tasap",
        "zip_code": "93230"
    },
    {
        "name": "Basima",
        "zip_code": "94050"
    },
    {
        "name": "Kharan",
        "zip_code": "94100"
    },
    {
        "name": "Washuk",
        "zip_code": "94110"
    },
    {
        "name": "Ladgasht",
        "zip_code": "94150"
    },
    {
        "name": "Koh Taftan",
        "zip_code": "95000"
    },
    {
        "name": "Yak Mach",
        "zip_code": "95040"
    },
    {
        "name": "Nokundi",
        "zip_code": "95050"
    },
    {
        "name": "Amori",
        "zip_code": "95060"
    },
    {
        "name": "Dalbandin",
        "zip_code": "95100"
    },
    {
        "name": "Padag",
        "zip_code": "95110"
    },
    {
        "name": "Chaghi",
        "zip_code": "95120"
    },
    {
        "name": "Brapcha",
        "zip_code": "95130"
    },
    {
        "name": "Ahmedwal",
        "zip_code": "95150"
    },
    {
        "name": "Nushki Gpo",
        "zip_code": "95200"
    },
    {
        "name": "Sar Mall",
        "zip_code": "95210"
    },
    {
        "name": "Ziarat",
        "zip_code": "96000"
    },
    {
        "name": "Ahmadoon",
        "zip_code": "96100"
    },
    {
        "name": "Mera Gram",
        "zip_code": "17000"
    },
    {
        "name": "Brep",
        "zip_code": "17010"
    },
    {
        "name": "Mastaj",
        "zip_code": "17020"
    },
    {
        "name": "Harichin",
        "zip_code": "17030"
    },
    {
        "name": "Booni",
        "zip_code": "17050"
    },
    {
        "name": "Booni Main Bazar",
        "zip_code": "17054"
    },
    {
        "name": "Darason",
        "zip_code": "17060"
    },
    {
        "name": "Gohkeer",
        "zip_code": "17070"
    },
    {
        "name": "Shah Gram",
        "zip_code": "17080"
    },
    {
        "name": "Shot Khara",
        "zip_code": "17090"
    },
    {
        "name": "Kosht",
        "zip_code": "17100"
    },
    {
        "name": "Reshun",
        "zip_code": "17110"
    },
    {
        "name": "Kaghuzai",
        "zip_code": "17120"
    },
    {
        "name": "Garam Chashma",
        "zip_code": "17130"
    },
    {
        "name": "Para Beg",
        "zip_code": "17140"
    },
    {
        "name": "Chitral Gpo",
        "zip_code": "17200"
    },
    {
        "name": "Ayun",
        "zip_code": "17210"
    },
    {
        "name": "Drosh",
        "zip_code": "17220"
    },
    {
        "name": "Broz",
        "zip_code": "17230"
    },
    {
        "name": "Sair Door",
        "zip_code": "17234"
    },
    {
        "name": "Nagar",
        "zip_code": "17240"
    },
    {
        "name": "Aranda",
        "zip_code": "17250"
    },
    {
        "name": "Ashrit",
        "zip_code": "17260"
    },
    {
        "name": "Daggar",
        "zip_code": "17290"
    },
    {
        "name": "Dir",
        "zip_code": "18000"
    },
    {
        "name": "Sharingal",
        "zip_code": "18050"
    },
    {
        "name": "Barawal Bandi",
        "zip_code": "18100"
    },
    {
        "name": "Darora",
        "zip_code": "18150"
    },
    {
        "name": "Wari",
        "zip_code": "18200"
    },
    {
        "name": "Shahibabad",
        "zip_code": "18210"
    },
    {
        "name": "Khall",
        "zip_code": "18250"
    },
    {
        "name": "Timargara",
        "zip_code": "18300"
    },
    {
        "name": "Lal Qilla",
        "zip_code": "18350"
    },
    {
        "name": "Dara Manial",
        "zip_code": "18400"
    },
    {
        "name": "Zaimdara",
        "zip_code": "18450"
    },
    {
        "name": "Munda",
        "zip_code": "18500"
    },
    {
        "name": "Mayar Jandol",
        "zip_code": "18550"
    },
    {
        "name": "Samar Bagh",
        "zip_code": "18600"
    },
    {
        "name": "Khar (Bajaur Agency)",
        "zip_code": "18650"
    },
    {
        "name": "Ziarat (Dir)",
        "zip_code": "18700"
    },
    {
        "name": "Ouch (Dir)",
        "zip_code": "18750"
    },
    {
        "name": "Pir Khel",
        "zip_code": "18760"
    },
    {
        "name": "Chakdara",
        "zip_code": "18800"
    },
    {
        "name": "Bahrain",
        "zip_code": "19010"
    },
    {
        "name": "Madyan",
        "zip_code": "19020"
    },
    {
        "name": "Fatehpur",
        "zip_code": "19030"
    },
    {
        "name": "Matta",
        "zip_code": "19040"
    },
    {
        "name": "Chuprial",
        "zip_code": "19044"
    },
    {
        "name": "Bara Darwesh Khela",
        "zip_code": "19050"
    },
    {
        "name": "Kabal",
        "zip_code": "19060"
    },
    {
        "name": "Davlai",
        "zip_code": "19070"
    },
    {
        "name": "Kana",
        "zip_code": "19080"
    },
    {
        "name": "Chakisar",
        "zip_code": "19090"
    },
    {
        "name": "Alpurai",
        "zip_code": "19100"
    },
    {
        "name": "Khawaza Khela",
        "zip_code": "19110"
    },
    {
        "name": "Charbagh",
        "zip_code": "19120"
    },
    {
        "name": "Mangora",
        "zip_code": "19130"
    },
    {
        "name": "Gulkada (Distt. Court)",
        "zip_code": "19132"
    },
    {
        "name": "Aman Kot",
        "zip_code": "19140"
    },
    {
        "name": "Aloch",
        "zip_code": "19150"
    },
    {
        "name": "Saidu Sharif Gpo",
        "zip_code": "19200"
    },
    {
        "name": "Damori",
        "zip_code": "19204"
    },
    {
        "name": "Rahim Abad",
        "zip_code": "19210"
    },
    {
        "name": "Hodigram",
        "zip_code": "19220"
    },
    {
        "name": "Ghalegi",
        "zip_code": "19230"
    },
    {
        "name": "Barikot",
        "zip_code": "19240"
    },
    {
        "name": "Zara Khela",
        "zip_code": "19250"
    },
    {
        "name": "Jewar",
        "zip_code": "19260"
    },
    {
        "name": "Tor Warsak",
        "zip_code": "19270"
    },
    {
        "name": "Pipal Bazar",
        "zip_code": "19280"
    },
    {
        "name": "Dassu",
        "zip_code": "20100"
    },
    {
        "name": "Pattan",
        "zip_code": "20200"
    },
    {
        "name": "Ranolia",
        "zip_code": "20300"
    },
    {
        "name": "Sholgaraha",
        "zip_code": "20400"
    },
    {
        "name": "Besham",
        "zip_code": "20500"
    },
    {
        "name": "Biari Ayub Khan",
        "zip_code": "21010"
    },
    {
        "name": "Muslim Abad",
        "zip_code": "21020"
    },
    {
        "name": "Thakot",
        "zip_code": "21030"
    },
    {
        "name": "Banna",
        "zip_code": "21032"
    },
    {
        "name": "Rashang",
        "zip_code": "21036"
    },
    {
        "name": "Battagram",
        "zip_code": "21040"
    },
    {
        "name": "Peshora",
        "zip_code": "21042"
    },
    {
        "name": "Batamohri",
        "zip_code": "21044"
    },
    {
        "name": "Saden Mira",
        "zip_code": "21046"
    },
    {
        "name": "Bansair",
        "zip_code": "21050"
    },
    {
        "name": "Koza Banda",
        "zip_code": "21060"
    },
    {
        "name": "Chohan",
        "zip_code": "21062"
    },
    {
        "name": "Chatar Plain",
        "zip_code": "21070"
    },
    {
        "name": "Bali Mang",
        "zip_code": "21080"
    },
    {
        "name": "Battal",
        "zip_code": "21090"
    },
    {
        "name": "Haji Abad",
        "zip_code": "21100"
    },
    {
        "name": "Baffa",
        "zip_code": "21110"
    },
    {
        "name": "Hazara University",
        "zip_code": "21120"
    },
    {
        "name": "Dhudial (Mansehra)",
        "zip_code": "21130"
    },
    {
        "name": "Shinkiari",
        "zip_code": "21140"
    },
    {
        "name": "Shinkiari Camp",
        "zip_code": "21150"
    },
    {
        "name": "Dadar",
        "zip_code": "21160"
    },
    {
        "name": "Jabori",
        "zip_code": "21170"
    },
    {
        "name": "Naran",
        "zip_code": "21200"
    },
    {
        "name": "Kaghan",
        "zip_code": "21210"
    },
    {
        "name": "Mohandri Bazar",
        "zip_code": "21220"
    },
    {
        "name": "Balakot",
        "zip_code": "21230"
    },
    {
        "name": "Ghari Habibullah",
        "zip_code": "21240"
    },
    {
        "name": "Batrasi Camp",
        "zip_code": "21250"
    },
    {
        "name": "Chakia",
        "zip_code": "21270"
    },
    {
        "name": "Mansehra Gpo",
        "zip_code": "21300"
    },
    {
        "name": "Chitta Batta",
        "zip_code": "21304"
    },
    {
        "name": "Mansehra City",
        "zip_code": "21310"
    },
    {
        "name": "Manglore",
        "zip_code": "21330"
    },
    {
        "name": "Bher Kund",
        "zip_code": "21340"
    },
    {
        "name": "Khaki",
        "zip_code": "21350"
    },
    {
        "name": "Muradpur",
        "zip_code": "21360"
    },
    {
        "name": "Parhena",
        "zip_code": "21370"
    },
    {
        "name": "Phulra",
        "zip_code": "21380"
    },
    {
        "name": "Lassan Nawab",
        "zip_code": "21390"
    },
    {
        "name": "Oghi",
        "zip_code": "21400"
    },
    {
        "name": "Sham Dhera",
        "zip_code": "21410"
    },
    {
        "name": "Qilagay",
        "zip_code": "21420"
    },
    {
        "name": "Dilbori",
        "zip_code": "21430"
    },
    {
        "name": "Belian",
        "zip_code": "21440"
    },
    {
        "name": "Sher Garh (Mansehra)",
        "zip_code": "21450"
    },
    {
        "name": "Darband",
        "zip_code": "21460"
    },
    {
        "name": "Qalanderabad",
        "zip_code": "22000"
    },
    {
        "name": "Abbottabad Gpo",
        "zip_code": "22010"
    },
    {
        "name": "Abbottabad Public School",
        "zip_code": "22030"
    },
    {
        "name": "Ayub Medical College Abbottabad",
        "zip_code": "22040"
    },
    {
        "name": "Mandian",
        "zip_code": "22044"
    },
    {
        "name": "Jhangi",
        "zip_code": "22050"
    },
    {
        "name": "Toba Camp",
        "zip_code": "22060"
    },
    {
        "name": "Kakul",
        "zip_code": "22070"
    },
    {
        "name": "Nawan Shahr",
        "zip_code": "22080"
    },
    {
        "name": "Sheikhul Bandi",
        "zip_code": "22090"
    },
    {
        "name": "Kuthiala",
        "zip_code": "22100"
    },
    {
        "name": "Richh Bhan",
        "zip_code": "22106"
    },
    {
        "name": "Pind Kargo Khan",
        "zip_code": "22110"
    },
    {
        "name": "Sherwan",
        "zip_code": "22120"
    },
    {
        "name": "Chamatti",
        "zip_code": "22130"
    },
    {
        "name": "Thandayani",
        "zip_code": "22150"
    },
    {
        "name": "Chamyali",
        "zip_code": "22160"
    },
    {
        "name": "Gamang",
        "zip_code": "22170"
    },
    {
        "name": "Boi",
        "zip_code": "22180"
    },
    {
        "name": "Dalola",
        "zip_code": "22190"
    },
    {
        "name": "Dhamtaur",
        "zip_code": "22200"
    },
    {
        "name": "Bagnotar",
        "zip_code": "22210"
    },
    {
        "name": "Tharyati",
        "zip_code": "22220"
    },
    {
        "name": "Biran Gali",
        "zip_code": "22230"
    },
    {
        "name": "Namli Maira",
        "zip_code": "22250"
    },
    {
        "name": "Nagri Bala",
        "zip_code": "22260"
    },
    {
        "name": "Kala Bagh (Hazara)",
        "zip_code": "22270"
    },
    {
        "name": "Nathia Gali",
        "zip_code": "22280"
    },
    {
        "name": "Bagan",
        "zip_code": "22290"
    },
    {
        "name": "Dunga Gali",
        "zip_code": "22300"
    },
    {
        "name": "Ayubia",
        "zip_code": "22310"
    },
    {
        "name": "Changla Gali",
        "zip_code": "22320"
    },
    {
        "name": "Khaira Gali",
        "zip_code": "22330"
    },
    {
        "name": "Nagri Totlial",
        "zip_code": "22350"
    },
    {
        "name": "Lora",
        "zip_code": "22360"
    },
    {
        "name": "Gambeer",
        "zip_code": "22370"
    },
    {
        "name": "Havelian",
        "zip_code": "22500"
    },
    {
        "name": "Pak Ordinance Factories Havilian",
        "zip_code": "22510"
    },
    {
        "name": "Havelian Ammunation Depot",
        "zip_code": "22520"
    },
    {
        "name": "Rajoya",
        "zip_code": "22530"
    },
    {
        "name": "Chando Maira",
        "zip_code": "22540"
    },
    {
        "name": "Nara",
        "zip_code": "22550"
    },
    {
        "name": "Maira Bala",
        "zip_code": "22560"
    },
    {
        "name": "Satura",
        "zip_code": "22570"
    },
    {
        "name": "Halli",
        "zip_code": "22580"
    },
    {
        "name": "Baldher",
        "zip_code": "22584"
    },
    {
        "name": "Sarai Saleh",
        "zip_code": "22590"
    },
    {
        "name": "Rehana",
        "zip_code": "22600"
    },
    {
        "name": "Hattar Industrial Estate",
        "zip_code": "22610"
    },
    {
        "name": "Haripur Gpo",
        "zip_code": "22620"
    },
    {
        "name": "Haripur Telephone Factory",
        "zip_code": "22630"
    },
    {
        "name": "Haripur Central Jail",
        "zip_code": "22640"
    },
    {
        "name": "Khanpur (Hazara)",
        "zip_code": "22650"
    },
    {
        "name": "Baghpur Dheri",
        "zip_code": "22652"
    },
    {
        "name": "Kot Najibullah",
        "zip_code": "22660"
    },
    {
        "name": "Kangra Township",
        "zip_code": "22680"
    },
    {
        "name": "Panian",
        "zip_code": "22690"
    },
    {
        "name": "Sarai Gaddai",
        "zip_code": "22694"
    },
    {
        "name": "Mankarai",
        "zip_code": "22700"
    },
    {
        "name": "Pind Hasham Khan",
        "zip_code": "22710"
    },
    {
        "name": "Sarai Niamat Khan",
        "zip_code": "22720"
    },
    {
        "name": "Chamhad",
        "zip_code": "22730"
    },
    {
        "name": "Kakotri",
        "zip_code": "22750"
    },
    {
        "name": "Jarral",
        "zip_code": "22760"
    },
    {
        "name": "Bir",
        "zip_code": "22770"
    },
    {
        "name": "Badhora",
        "zip_code": "22780"
    },
    {
        "name": "Khalabat Township",
        "zip_code": "22800"
    },
    {
        "name": "Kalangar",
        "zip_code": "22810"
    },
    {
        "name": "Gudwalian",
        "zip_code": "22830"
    },
    {
        "name": "Sirikot",
        "zip_code": "22840"
    },
    {
        "name": "Kandi Umer Khan",
        "zip_code": "22844"
    },
    {
        "name": "Tarbela Dam Colony",
        "zip_code": "22850"
    },
    {
        "name": "Ghazi",
        "zip_code": "22860"
    },
    {
        "name": "Dewan Suleman Farooq Industrial Area",
        "zip_code": "22870"
    },
    {
        "name": "Thana",
        "zip_code": "23000"
    },
    {
        "name": "Dheri Alla Dhand",
        "zip_code": "23010"
    },
    {
        "name": "Batkhela Gpo",
        "zip_code": "23020"
    },
    {
        "name": "Totakan",
        "zip_code": "23030"
    },
    {
        "name": "Gamseer",
        "zip_code": "23040"
    },
    {
        "name": "Malakand",
        "zip_code": "23050"
    },
    {
        "name": "Dargai",
        "zip_code": "23060"
    },
    {
        "name": "Baizu Kharki",
        "zip_code": "23090"
    },
    {
        "name": "Sher Garh",
        "zip_code": "23100"
    },
    {
        "name": "Hathian",
        "zip_code": "23120"
    },
    {
        "name": "Lund Khawar",
        "zip_code": "23130"
    },
    {
        "name": "Tazagram",
        "zip_code": "23140"
    },
    {
        "name": "Jalala",
        "zip_code": "23150"
    },
    {
        "name": "Umarabad",
        "zip_code": "23154"
    },
    {
        "name": "Takkar",
        "zip_code": "23164"
    },
    {
        "name": "Gharibabad",
        "zip_code": "23166"
    },
    {
        "name": "Gujar Garhi",
        "zip_code": "23170"
    },
    {
        "name": "Mardan Gpo",
        "zip_code": "23200"
    },
    {
        "name": "Mardan Sugar Research Institute",
        "zip_code": "23210"
    },
    {
        "name": "Bakhshali",
        "zip_code": "23220"
    },
    {
        "name": "Jamal Garhi",
        "zip_code": "23230"
    },
    {
        "name": "Katlang",
        "zip_code": "23240"
    },
    {
        "name": "Babu Zai",
        "zip_code": "23250"
    },
    {
        "name": "Kohi Barmol",
        "zip_code": "23260"
    },
    {
        "name": "Plai",
        "zip_code": "23270"
    },
    {
        "name": "Sattar Khan Colony",
        "zip_code": "23280"
    },
    {
        "name": "Mayar",
        "zip_code": "23290"
    },
    {
        "name": "Toru",
        "zip_code": "23300"
    },
    {
        "name": "Garhi Kapura",
        "zip_code": "23310"
    },
    {
        "name": "Yar Hussain",
        "zip_code": "23320"
    },
    {
        "name": "Dobian",
        "zip_code": "23330"
    },
    {
        "name": "Dogai",
        "zip_code": "23340"
    },
    {
        "name": "Gujrat (Mardan)",
        "zip_code": "23350"
    },
    {
        "name": "Sawal Dher",
        "zip_code": "23360"
    },
    {
        "name": "Rustam",
        "zip_code": "23370"
    },
    {
        "name": "Palo Dheri",
        "zip_code": "23380"
    },
    {
        "name": "Shah Baz Garhi",
        "zip_code": "23390"
    },
    {
        "name": "Ismaila",
        "zip_code": "23400"
    },
    {
        "name": "Kalu Khan",
        "zip_code": "23410"
    },
    {
        "name": "Nawan Killi",
        "zip_code": "23420"
    },
    {
        "name": "Sheikh Jana",
        "zip_code": "23422"
    },
    {
        "name": "Shewa",
        "zip_code": "23424"
    },
    {
        "name": "Sawabi",
        "zip_code": "23430"
    },
    {
        "name": "Totlai",
        "zip_code": "23434"
    },
    {
        "name": "Bamkhel",
        "zip_code": "23440"
    },
    {
        "name": "Maini",
        "zip_code": "23450"
    },
    {
        "name": "Gadoon Amazai",
        "zip_code": "23454"
    },
    {
        "name": "Topi",
        "zip_code": "23460"
    },
    {
        "name": "Right Bank (Tarbella)",
        "zip_code": "23470"
    },
    {
        "name": "Gandaf",
        "zip_code": "23480"
    },
    {
        "name": "Deval",
        "zip_code": "23490"
    },
    {
        "name": "Kotha",
        "zip_code": "23500"
    },
    {
        "name": "Zarobi",
        "zip_code": "23510"
    },
    {
        "name": "Kalabat",
        "zip_code": "23520"
    },
    {
        "name": "Marghuz",
        "zip_code": "23530"
    },
    {
        "name": "Zaida",
        "zip_code": "23540"
    },
    {
        "name": "Garmanara",
        "zip_code": "23550"
    },
    {
        "name": "Khunda",
        "zip_code": "23560"
    },
    {
        "name": "Lahor Chhota (Mardan)",
        "zip_code": "23570"
    },
    {
        "name": "Jalsai",
        "zip_code": "23580"
    },
    {
        "name": "Jalbai",
        "zip_code": "23600"
    },
    {
        "name": "Tordher",
        "zip_code": "23610"
    },
    {
        "name": "Jehan Gira",
        "zip_code": "23620"
    },
    {
        "name": "Panjpir",
        "zip_code": "23630"
    },
    {
        "name": "Ghulam Ishaq Khan Institute",
        "zip_code": "23640"
    },
    {
        "name": "Shah Mansoor",
        "zip_code": "23650"
    },
    {
        "name": "Mohabatabad",
        "zip_code": "23660"
    },
    {
        "name": "Khair Abad",
        "zip_code": "24000"
    },
    {
        "name": "Nizam Pur",
        "zip_code": "24010"
    },
    {
        "name": "Allah Bakhash Colony",
        "zip_code": "24020"
    },
    {
        "name": "Shaidu",
        "zip_code": "24030"
    },
    {
        "name": "Akora Khattak",
        "zip_code": "24040"
    },
    {
        "name": "Zara Miana",
        "zip_code": "24044"
    },
    {
        "name": "Pir Sabaq",
        "zip_code": "24050"
    },
    {
        "name": "Misri Banda",
        "zip_code": "24060"
    },
    {
        "name": "Raskai",
        "zip_code": "24070"
    },
    {
        "name": "Risal Pur",
        "zip_code": "24080"
    },
    {
        "name": "Risal Pur P.A.F",
        "zip_code": "24090"
    },
    {
        "name": "Nowshera Gpo",
        "zip_code": "24100"
    },
    {
        "name": "Nowshera City",
        "zip_code": "24110"
    },
    {
        "name": "Kheshki Payan",
        "zip_code": "24120"
    },
    {
        "name": "Ziarat Kaka Sahib",
        "zip_code": "24130"
    },
    {
        "name": "Manki Sharif",
        "zip_code": "24140"
    },
    {
        "name": "Feroz Sons Nowshera",
        "zip_code": "24160"
    },
    {
        "name": "Adamjee Paper Board Mills Nowshera",
        "zip_code": "24170"
    },
    {
        "name": "Pirpai",
        "zip_code": "24180"
    },
    {
        "name": "Aza Khel Payan",
        "zip_code": "24182"
    },
    {
        "name": "Aza Khel Bala",
        "zip_code": "24190"
    },
    {
        "name": "Dagai Banda",
        "zip_code": "24200"
    },
    {
        "name": "Pabbi",
        "zip_code": "24210"
    },
    {
        "name": "Pabbi Railway Station",
        "zip_code": "24220"
    },
    {
        "name": "Banda Mohib",
        "zip_code": "24230"
    },
    {
        "name": "Jallozai",
        "zip_code": "24240"
    },
    {
        "name": "Spin Khak",
        "zip_code": "24250"
    },
    {
        "name": "Dak Ismail Khel",
        "zip_code": "24260"
    },
    {
        "name": "Saleh Khana",
        "zip_code": "24270"
    },
    {
        "name": "Cherat",
        "zip_code": "24280"
    },
    {
        "name": "Urmar Payan",
        "zip_code": "24300"
    },
    {
        "name": "Banda Sheikh Ismail",
        "zip_code": "24302"
    },
    {
        "name": "Tarru Jabba",
        "zip_code": "24310"
    },
    {
        "name": "Akbar Pura",
        "zip_code": "24320"
    },
    {
        "name": "Tarnab Farm",
        "zip_code": "24330"
    },
    {
        "name": "Chamkani",
        "zip_code": "24350"
    },
    {
        "name": "Musa Zai",
        "zip_code": "24360"
    },
    {
        "name": "Pakha Ghulam",
        "zip_code": "24370"
    },
    {
        "name": "Daud Zai",
        "zip_code": "24400"
    },
    {
        "name": "Charsadda Gpo",
        "zip_code": "24420"
    },
    {
        "name": "Kamran Kalay",
        "zip_code": "24424"
    },
    {
        "name": "Nisatta",
        "zip_code": "24450"
    },
    {
        "name": "Sardheri Bazar",
        "zip_code": "24460"
    },
    {
        "name": "Sheikhabad",
        "zip_code": "24470"
    },
    {
        "name": "Rajjar",
        "zip_code": "24480"
    },
    {
        "name": "Taurangzai",
        "zip_code": "24490"
    },
    {
        "name": "Utmanzai",
        "zip_code": "24500"
    },
    {
        "name": "Amirabad",
        "zip_code": "24502"
    },
    {
        "name": "Mandori",
        "zip_code": "24504"
    },
    {
        "name": "Dhakhi",
        "zip_code": "24506"
    },
    {
        "name": "Shakoor",
        "zip_code": "24508"
    },
    {
        "name": "Umarzai",
        "zip_code": "24510"
    },
    {
        "name": "Hari Chand",
        "zip_code": "24520"
    },
    {
        "name": "Sherpao",
        "zip_code": "24530"
    },
    {
        "name": "Tangi",
        "zip_code": "24540"
    },
    {
        "name": "Abazai",
        "zip_code": "24550"
    },
    {
        "name": "Tarnab Cheena",
        "zip_code": "24600"
    },
    {
        "name": "Amba Dher",
        "zip_code": "24610"
    },
    {
        "name": "Kangra",
        "zip_code": "24620"
    },
    {
        "name": "Shabqadar Fort",
        "zip_code": "24630"
    },
    {
        "name": "Matta Mughal Khel",
        "zip_code": "24640"
    },
    {
        "name": "Ghalnai",
        "zip_code": "24650"
    },
    {
        "name": "Warsak Colony",
        "zip_code": "24680"
    },
    {
        "name": "Nasir Bagh",
        "zip_code": "24700"
    },
    {
        "name": "Regi",
        "zip_code": "24710"
    },
    {
        "name": "Peshawar Industrial Estate",
        "zip_code": "24720"
    },
    {
        "name": "Jamrud",
        "zip_code": "24730"
    },
    {
        "name": "Landi Kotal",
        "zip_code": "24740"
    },
    {
        "name": "Bara Fort",
        "zip_code": "24800"
    },
    {
        "name": "Mashoo Khel",
        "zip_code": "24810"
    },
    {
        "name": "Pawaka",
        "zip_code": "24820"
    },
    {
        "name": "Badhber Paf Camp",
        "zip_code": "24830"
    },
    {
        "name": "Badbher",
        "zip_code": "24840"
    },
    {
        "name": "Mathani",
        "zip_code": "24850"
    },
    {
        "name": "Sherkira",
        "zip_code": "24860"
    },
    {
        "name": "Peshawar Gpo",
        "zip_code": "25000"
    },
    {
        "name": "Hayatabad (Phase-I)",
        "zip_code": "25100"
    },
    {
        "name": "Peshawar Education Board",
        "zip_code": "25110"
    },
    {
        "name": "Peshawar University",
        "zip_code": "25120"
    },
    {
        "name": "Hayatabad Phase-Ii",
        "zip_code": "25124"
    },
    {
        "name": "Pak Forest Institute Peshawar",
        "zip_code": "25130"
    },
    {
        "name": "Tehkal Bala",
        "zip_code": "25140"
    },
    {
        "name": "Tehkal Payan",
        "zip_code": "25150"
    },
    {
        "name": "Peshawar C.T. Training School",
        "zip_code": "25160"
    },
    {
        "name": "Sakhi Chashma",
        "zip_code": "25170"
    },
    {
        "name": "Yaka Toot",
        "zip_code": "25200"
    },
    {
        "name": "Peshawar Poly Technical College",
        "zip_code": "25210"
    },
    {
        "name": "Landi Arbab",
        "zip_code": "25220"
    },
    {
        "name": "Sar Band",
        "zip_code": "25230"
    },
    {
        "name": "Kohat Gpo",
        "zip_code": "26000"
    },
    {
        "name": "Togh Bala",
        "zip_code": "26010"
    },
    {
        "name": "Sher Kot",
        "zip_code": "26014"
    },
    {
        "name": "Kohat Police Recruit Training Centre",
        "zip_code": "26020"
    },
    {
        "name": "Kohat Cadet College",
        "zip_code": "26030"
    },
    {
        "name": "Kohat Gunners Line",
        "zip_code": "26050"
    },
    {
        "name": "Kohat Satellite Town",
        "zip_code": "26054"
    },
    {
        "name": "Habib Abad",
        "zip_code": "26060"
    },
    {
        "name": "Kohat Board Of Education",
        "zip_code": "26064"
    },
    {
        "name": "Kohat J.D.M.T.Mills",
        "zip_code": "26070"
    },
    {
        "name": "Kohat P.A.F.",
        "zip_code": "26080"
    },
    {
        "name": "Kohat Officers Training School",
        "zip_code": "26090"
    },
    {
        "name": "Dara Adam Khel",
        "zip_code": "26100"
    },
    {
        "name": "Billi Tang",
        "zip_code": "26110"
    },
    {
        "name": "Seni Gumbat",
        "zip_code": "26120"
    },
    {
        "name": "Nasrat Khel",
        "zip_code": "26160"
    },
    {
        "name": "Uster Zai Payan",
        "zip_code": "26170"
    },
    {
        "name": "Hangu Police Training School",
        "zip_code": "26180"
    },
    {
        "name": "Hangu",
        "zip_code": "26190"
    },
    {
        "name": "Raisan",
        "zip_code": "26196"
    },
    {
        "name": "Togh Sarai",
        "zip_code": "26200"
    },
    {
        "name": "Zargeri",
        "zip_code": "26210"
    },
    {
        "name": "Kahi",
        "zip_code": "26220"
    },
    {
        "name": "Naryab",
        "zip_code": "26230"
    },
    {
        "name": "Doaba",
        "zip_code": "26240"
    },
    {
        "name": "Sarozai",
        "zip_code": "26250"
    },
    {
        "name": "Thull Fort",
        "zip_code": "26260"
    },
    {
        "name": "Thull City",
        "zip_code": "26270"
    },
    {
        "name": "Alizai",
        "zip_code": "26280"
    },
    {
        "name": "Sadda",
        "zip_code": "26290"
    },
    {
        "name": "Parachinar",
        "zip_code": "26300"
    },
    {
        "name": "Surgul",
        "zip_code": "26350"
    },
    {
        "name": "Gada Khel",
        "zip_code": "26352"
    },
    {
        "name": "Lachi",
        "zip_code": "26360"
    },
    {
        "name": "Shakar Dara",
        "zip_code": "26380"
    },
    {
        "name": "Teri",
        "zip_code": "26390"
    },
    {
        "name": "Banda Daud Shah",
        "zip_code": "26400"
    },
    {
        "name": "Dagar Nari",
        "zip_code": "26410"
    },
    {
        "name": "Sabir Abad",
        "zip_code": "27000"
    },
    {
        "name": "Mitha Khel",
        "zip_code": "27100"
    },
    {
        "name": "Karak Gpo",
        "zip_code": "27200"
    },
    {
        "name": "Mohabati Killa",
        "zip_code": "27210"
    },
    {
        "name": "Ghundi Mir Khan",
        "zip_code": "27220"
    },
    {
        "name": "Chokara",
        "zip_code": "27300"
    },
    {
        "name": "Thatti Nasrati",
        "zip_code": "27400"
    },
    {
        "name": "Bahadur Khel",
        "zip_code": "27410"
    },
    {
        "name": "Inzar Banda",
        "zip_code": "27500"
    },
    {
        "name": "Land Kamar",
        "zip_code": "27600"
    },
    {
        "name": "Latamber",
        "zip_code": "27800"
    },
    {
        "name": "Warana",
        "zip_code": "27810"
    },
    {
        "name": "Dab Begu Khel",
        "zip_code": "27900"
    },
    {
        "name": "Domel (Bannu)",
        "zip_code": "28010"
    },
    {
        "name": "Khadar Khan Khel",
        "zip_code": "28020"
    },
    {
        "name": "Nizam Bazar",
        "zip_code": "28030"
    },
    {
        "name": "Torka",
        "zip_code": "28040"
    },
    {
        "name": "Miryan",
        "zip_code": "28050"
    },
    {
        "name": "Bannu Gpo",
        "zip_code": "28100"
    },
    {
        "name": "Skindar Khel Bala",
        "zip_code": "28106"
    },
    {
        "name": "Hussainabad",
        "zip_code": "28108"
    },
    {
        "name": "Shabaz Azmat Khel",
        "zip_code": "28120"
    },
    {
        "name": "Awan Ghambeer",
        "zip_code": "28122"
    },
    {
        "name": "Mamesh Khel",
        "zip_code": "28140"
    },
    {
        "name": "Baka Khel",
        "zip_code": "28142"
    },
    {
        "name": "Pipal Bazar",
        "zip_code": "28150"
    },
    {
        "name": "Mir Ali",
        "zip_code": "28170"
    },
    {
        "name": "Mir Ali Adda",
        "zip_code": "28180"
    },
    {
        "name": "Sarai Miranshah",
        "zip_code": "28200"
    },
    {
        "name": "Boya",
        "zip_code": "28210"
    },
    {
        "name": "Data Khel",
        "zip_code": "28220"
    },
    {
        "name": "District Court Lakki",
        "zip_code": "28250"
    },
    {
        "name": "Razkak Cadet College",
        "zip_code": "28260"
    },
    {
        "name": "Razmak",
        "zip_code": "28270"
    },
    {
        "name": "Adda Mir Abbas",
        "zip_code": "28300"
    },
    {
        "name": "Bharat",
        "zip_code": "28310"
    },
    {
        "name": "Kakki",
        "zip_code": "28320"
    },
    {
        "name": "Takhti Khel",
        "zip_code": "28322"
    },
    {
        "name": "Ghori Wala",
        "zip_code": "28330"
    },
    {
        "name": "Bannu Al.Markaz Islami",
        "zip_code": "28334"
    },
    {
        "name": "Nar Muzaffar Khan",
        "zip_code": "28340"
    },
    {
        "name": "Sarai Naurang",
        "zip_code": "28350"
    },
    {
        "name": "Sarai Naurang Main Bazar",
        "zip_code": "28352"
    },
    {
        "name": "Sultanabad",
        "zip_code": "28354"
    },
    {
        "name": "Taja Zai",
        "zip_code": "28360"
    },
    {
        "name": "Titer Khel",
        "zip_code": "28364"
    },
    {
        "name": "Sarai Gambila",
        "zip_code": "28370"
    },
    {
        "name": "Tajori",
        "zip_code": "28380"
    },
    {
        "name": "Lande Wah",
        "zip_code": "28410"
    },
    {
        "name": "Lakki Marwat Gpo",
        "zip_code": "28420"
    },
    {
        "name": "Isa Khel",
        "zip_code": "28424"
    },
    {
        "name": "Shahbaz Khel",
        "zip_code": "28426"
    },
    {
        "name": "Abba Khel",
        "zip_code": "28440"
    },
    {
        "name": "Ghazni Khel",
        "zip_code": "28450"
    },
    {
        "name": "Dara Pezu",
        "zip_code": "28470"
    },
    {
        "name": "Bakka Khel",
        "zip_code": "28480"
    },
    {
        "name": "Chak Dadan",
        "zip_code": "28490"
    },
    {
        "name": "Lakki Headquarter Complex",
        "zip_code": "28500"
    },
    {
        "name": "Lakki Marwat Main Lorry Adda",
        "zip_code": "28510"
    },
    {
        "name": "Michan Khel Adda Lakki Marwat",
        "zip_code": "28520"
    },
    {
        "name": "Dalu Khel",
        "zip_code": "28530"
    },
    {
        "name": "Paniala",
        "zip_code": "29000"
    },
    {
        "name": "Wanda Khan Muhammad",
        "zip_code": "29010"
    },
    {
        "name": "Rehmani Khel",
        "zip_code": "29012"
    },
    {
        "name": "Yarik",
        "zip_code": "29020"
    },
    {
        "name": "Dera Ismail Khan Gpo",
        "zip_code": "29050"
    },
    {
        "name": "Dera Town Ship",
        "zip_code": "29060"
    },
    {
        "name": "Muryali",
        "zip_code": "29080"
    },
    {
        "name": "D.I Khan Polytechnical Institute",
        "zip_code": "29090"
    },
    {
        "name": "Din Pur",
        "zip_code": "29100"
    },
    {
        "name": "D.I Khan Agricultural Research Center",
        "zip_code": "29120"
    },
    {
        "name": "Kachi Paind Khan",
        "zip_code": "29130"
    },
    {
        "name": "Saddar Bazar Dera Ismail Khan",
        "zip_code": "29140"
    },
    {
        "name": "Fort Iqbal Garh",
        "zip_code": "29150"
    },
    {
        "name": "Paharpur",
        "zip_code": "29160"
    },
    {
        "name": "Band Kurai",
        "zip_code": "29162"
    },
    {
        "name": "Bilot",
        "zip_code": "29170"
    },
    {
        "name": "Kirri Khaisor",
        "zip_code": "29180"
    },
    {
        "name": "Kachamali Khel",
        "zip_code": "29184"
    },
    {
        "name": "Chishma Right Bank Canal D.I Khan",
        "zip_code": "29190"
    },
    {
        "name": "Mandhara",
        "zip_code": "29200"
    },
    {
        "name": "Rangpur",
        "zip_code": "29206"
    },
    {
        "name": "Kot Jai",
        "zip_code": "29210"
    },
    {
        "name": "Gomal University New Campus",
        "zip_code": "29220"
    },
    {
        "name": "Paroa",
        "zip_code": "29230"
    },
    {
        "name": "Ramak",
        "zip_code": "29232"
    },
    {
        "name": "Kiri Shamozai",
        "zip_code": "29240"
    },
    {
        "name": "Daraban",
        "zip_code": "29310"
    },
    {
        "name": "Musa Zai",
        "zip_code": "29320"
    },
    {
        "name": "Choudhwan",
        "zip_code": "29330"
    },
    {
        "name": "Darazinda",
        "zip_code": "29340"
    },
    {
        "name": "Kulachi",
        "zip_code": "29350"
    },
    {
        "name": "Takwara",
        "zip_code": "29380"
    },
    {
        "name": "Tank Gpo",
        "zip_code": "29400"
    },
    {
        "name": "Gomal Bazar",
        "zip_code": "29410"
    },
    {
        "name": "Gul Imam",
        "zip_code": "29420"
    },
    {
        "name": "Pai",
        "zip_code": "29430"
    },
    {
        "name": "Ama Khel",
        "zip_code": "29432"
    },
    {
        "name": "Mullazai",
        "zip_code": "29440"
    },
    {
        "name": "Manzai",
        "zip_code": "29460"
    },
    {
        "name": "Jandola",
        "zip_code": "29470"
    },
    {
        "name": "Sararogha",
        "zip_code": "29480"
    },
    {
        "name": "Ladha",
        "zip_code": "29490"
    },
    {
        "name": "Sarwakai",
        "zip_code": "29510"
    },
    {
        "name": "Wana",
        "zip_code": "29540"
    },
    {
        "name": "Mulaya",
        "zip_code": "22420"
    },
    {
        "name": "Bhakkar Gpo",
        "zip_code": "30000"
    },
    {
        "name": "Chak-",
        "zip_code": "30004"
    },
    {
        "name": "Sial",
        "zip_code": "30010"
    },
    {
        "name": "Sarai Mohajir",
        "zip_code": "30020"
    },
    {
        "name": "Haiderabad (Bhakkar)",
        "zip_code": "30030"
    },
    {
        "name": "Behal",
        "zip_code": "30040"
    },
    {
        "name": "Yousaf Shah",
        "zip_code": "30046"
    },
    {
        "name": "Chak 47/T.D.A.",
        "zip_code": "30050"
    },
    {
        "name": "Chak 67 Ml",
        "zip_code": "30052"
    },
    {
        "name": "Mankera",
        "zip_code": "30060"
    },
    {
        "name": "Darya Khan Railway Station",
        "zip_code": "30100"
    },
    {
        "name": "Dullewala",
        "zip_code": "30110"
    },
    {
        "name": "Panj Girain",
        "zip_code": "30120"
    },
    {
        "name": "Tibba Nainam Wala",
        "zip_code": "30130"
    },
    {
        "name": "Kallur Kot",
        "zip_code": "30140"
    },
    {
        "name": "Jandan Wala",
        "zip_code": "30150"
    },
    {
        "name": "Rodi",
        "zip_code": "30160"
    },
    {
        "name": "Chak 90/Ml",
        "zip_code": "31000"
    },
    {
        "name": "Fateh Pur",
        "zip_code": "31050"
    },
    {
        "name": "Karor",
        "zip_code": "31100"
    },
    {
        "name": "Shah Pur",
        "zip_code": "31150"
    },
    {
        "name": "Layyah Gpo",
        "zip_code": "31200"
    },
    {
        "name": "Chak No.270 Tda",
        "zip_code": "31250"
    },
    {
        "name": "Layyah Sugar Mills",
        "zip_code": "31300"
    },
    {
        "name": "Ladhana",
        "zip_code": "31350"
    },
    {
        "name": "Chak No.279 Tda",
        "zip_code": "31400"
    },
    {
        "name": "Chawk Azam",
        "zip_code": "31450"
    },
    {
        "name": "Choubara",
        "zip_code": "31500"
    },
    {
        "name": "Juman Shah",
        "zip_code": "31600"
    },
    {
        "name": "Kot Sultan",
        "zip_code": "31650"
    },
    {
        "name": "Karim Abad",
        "zip_code": "31660"
    },
    {
        "name": "Latra",
        "zip_code": "32000"
    },
    {
        "name": "Vehoa",
        "zip_code": "32010"
    },
    {
        "name": "Nutkani",
        "zip_code": "32020"
    },
    {
        "name": "Tibbi Qaisrani",
        "zip_code": "32030"
    },
    {
        "name": "Retra",
        "zip_code": "32040"
    },
    {
        "name": "Nari",
        "zip_code": "32050"
    },
    {
        "name": "Taunsa Sharif",
        "zip_code": "32100"
    },
    {
        "name": "Basti Buzdar",
        "zip_code": "32110"
    },
    {
        "name": "Mangrotha",
        "zip_code": "32120"
    },
    {
        "name": "Barthi",
        "zip_code": "32124"
    },
    {
        "name": "Kot Qaisrani",
        "zip_code": "32130"
    },
    {
        "name": "Sokar",
        "zip_code": "32140"
    },
    {
        "name": "Shadan Lund",
        "zip_code": "32150"
    },
    {
        "name": "Kala",
        "zip_code": "32160"
    },
    {
        "name": "Shah Saddar Din",
        "zip_code": "32170"
    },
    {
        "name": "Dera Ghazi Khan Gpo",
        "zip_code": "32200"
    },
    {
        "name": "Khyaban-E-Sarwar",
        "zip_code": "32210"
    },
    {
        "name": "Samina",
        "zip_code": "32230"
    },
    {
        "name": "D.G.Khan Cement Factory",
        "zip_code": "32250"
    },
    {
        "name": "D.G Khan Secondary Board",
        "zip_code": "32260"
    },
    {
        "name": "Sakhi Sarwar",
        "zip_code": "32300"
    },
    {
        "name": "Bughal Char",
        "zip_code": "32310"
    },
    {
        "name": "Fort Munroo",
        "zip_code": "32320"
    },
    {
        "name": "Kot Chutta",
        "zip_code": "32350"
    },
    {
        "name": "Choti",
        "zip_code": "32380"
    },
    {
        "name": "Mana",
        "zip_code": "32400"
    },
    {
        "name": "Basti Malana",
        "zip_code": "32410"
    },
    {
        "name": "Jalbani",
        "zip_code": "32420"
    },
    {
        "name": "Jhoke Utra",
        "zip_code": "32430"
    },
    {
        "name": "Jam Pur",
        "zip_code": "33000"
    },
    {
        "name": "Dajal",
        "zip_code": "33100"
    },
    {
        "name": "Muhammad Pur",
        "zip_code": "33300"
    },
    {
        "name": "Rajan Pur",
        "zip_code": "33500"
    },
    {
        "name": "Mithan Kot",
        "zip_code": "33600"
    },
    {
        "name": "Rojhan",
        "zip_code": "33700"
    },
    {
        "name": "Ahsan Pur",
        "zip_code": "34000"
    },
    {
        "name": "Dera Din Panah",
        "zip_code": "34010"
    },
    {
        "name": "Ch0wk Sarwar Shaheed",
        "zip_code": "34030"
    },
    {
        "name": "Kot Adu",
        "zip_code": "34050"
    },
    {
        "name": "Gas Tarbine Power Muzaffargarh",
        "zip_code": "34060"
    },
    {
        "name": "Sinawan",
        "zip_code": "34100"
    },
    {
        "name": "Mehmood Kot",
        "zip_code": "34110"
    },
    {
        "name": "Tharmal Power Station Muzaffargarh",
        "zip_code": "34114"
    },
    {
        "name": "Gujrat (Muzaffargarh)",
        "zip_code": "34120"
    },
    {
        "name": "Fazal Garh",
        "zip_code": "34130"
    },
    {
        "name": "Muzaffargarh Gpo",
        "zip_code": "34200"
    },
    {
        "name": "Fazal Nagar",
        "zip_code": "34210"
    },
    {
        "name": "Misali Middle Public School Pir Jihania",
        "zip_code": "34220"
    },
    {
        "name": "Basira",
        "zip_code": "34300"
    },
    {
        "name": "Qureshi",
        "zip_code": "34310"
    },
    {
        "name": "Khan Garh",
        "zip_code": "34350"
    },
    {
        "name": "Shah Jamal",
        "zip_code": "34370"
    },
    {
        "name": "Darain",
        "zip_code": "34380"
    },
    {
        "name": "Doaba",
        "zip_code": "34382"
    },
    {
        "name": "Mondka",
        "zip_code": "34384"
    },
    {
        "name": "Rohilan Wali",
        "zip_code": "34400"
    },
    {
        "name": "Shehar Sultan",
        "zip_code": "34410"
    },
    {
        "name": "Jatoi",
        "zip_code": "34430"
    },
    {
        "name": "Bet Mir Hazar Khan",
        "zip_code": "34440"
    },
    {
        "name": "Ali Pur",
        "zip_code": "34450"
    },
    {
        "name": "Khairpur Sadat",
        "zip_code": "34470"
    },
    {
        "name": "Sit Pur",
        "zip_code": "34480"
    },
    {
        "name": "Bhutta Pur",
        "zip_code": "34500"
    },
    {
        "name": "Khanpur Shumali",
        "zip_code": "34550"
    },
    {
        "name": "Sultan Colony",
        "zip_code": "34600"
    },
    {
        "name": "Rang Pur",
        "zip_code": "34650"
    },
    {
        "name": "Shor Kot Cantt.",
        "zip_code": "35010"
    },
    {
        "name": "Chak 327 Gb",
        "zip_code": "35012"
    },
    {
        "name": "P.A.F. Colony Shor Kot",
        "zip_code": "35020"
    },
    {
        "name": "P.A.F. Base Rafiqi Shor Kot",
        "zip_code": "35030"
    },
    {
        "name": "Shor Kot City",
        "zip_code": "35050"
    },
    {
        "name": "Kaki Nao",
        "zip_code": "35060"
    },
    {
        "name": "Garh Maha Raja",
        "zip_code": "35080"
    },
    {
        "name": "Ahamed Pur Sial",
        "zip_code": "35090"
    },
    {
        "name": "Waryam",
        "zip_code": "35100"
    },
    {
        "name": "Chak",
        "zip_code": "35110"
    },
    {
        "name": "Haveli Bahadur Shah",
        "zip_code": "35150"
    },
    {
        "name": "Kot Umardraz Khan",
        "zip_code": "35152"
    },
    {
        "name": "Rudo Sultan",
        "zip_code": "35160"
    },
    {
        "name": "Nawazish Naghar",
        "zip_code": "35170"
    },
    {
        "name": "Atharan Hazari",
        "zip_code": "35180"
    },
    {
        "name": "Jhang Gpo",
        "zip_code": "35200"
    },
    {
        "name": "Aliabad, Jhang",
        "zip_code": "35210"
    },
    {
        "name": "Dhill Bagh",
        "zip_code": "35300"
    },
    {
        "name": "Chak 175 /Jb",
        "zip_code": "35310"
    },
    {
        "name": "Bhawana",
        "zip_code": "35350"
    },
    {
        "name": "Jamia Ashrafia",
        "zip_code": "35360"
    },
    {
        "name": "Chiniot",
        "zip_code": "35400"
    },
    {
        "name": "Chenab Nagar",
        "zip_code": "35460"
    },
    {
        "name": "Lalian",
        "zip_code": "35470"
    },
    {
        "name": "Pir Punja",
        "zip_code": "35480"
    },
    {
        "name": "Chund Bharwana",
        "zip_code": "35500"
    },
    {
        "name": "Kot Shakir",
        "zip_code": "35510"
    },
    {
        "name": "Pirkot Sadhana",
        "zip_code": "35520"
    },
    {
        "name": "Shah Jewana Mandi",
        "zip_code": "35550"
    },
    {
        "name": "Shah Jewna City",
        "zip_code": "35560"
    },
    {
        "name": "Kot Essa Shah",
        "zip_code": "35570"
    },
    {
        "name": "Mari Shah Sakhira",
        "zip_code": "35580"
    },
    {
        "name": "Chak 316 Gb Qadir Abad",
        "zip_code": "36000"
    },
    {
        "name": "Toba Take Singh Gpo",
        "zip_code": "36050"
    },
    {
        "name": "Rajana Road",
        "zip_code": "36070"
    },
    {
        "name": "Chak 256 Gb",
        "zip_code": "36080"
    },
    {
        "name": "Jani Wala",
        "zip_code": "36100"
    },
    {
        "name": "Gojra",
        "zip_code": "36120"
    },
    {
        "name": "Chak 159 Gb",
        "zip_code": "36150"
    },
    {
        "name": "Chak 424/Jb",
        "zip_code": "36160"
    },
    {
        "name": "Pacca Anna",
        "zip_code": "36200"
    },
    {
        "name": "Chak 387 Gb",
        "zip_code": "36260"
    },
    {
        "name": "Gil Acri",
        "zip_code": "36270"
    },
    {
        "name": "Nawan Lahore",
        "zip_code": "36280"
    },
    {
        "name": "Gojra More",
        "zip_code": "36282"
    },
    {
        "name": "Pir Mahal",
        "zip_code": "36300"
    },
    {
        "name": "Sandhlian Wali",
        "zip_code": "36320"
    },
    {
        "name": "Chak 333 Gb",
        "zip_code": "36330"
    },
    {
        "name": "Kamalia Gpo",
        "zip_code": "36350"
    },
    {
        "name": "Malfatyana",
        "zip_code": "36360"
    },
    {
        "name": "Kamalia Sugar Mills",
        "zip_code": "36380"
    },
    {
        "name": "Jakhar",
        "zip_code": "36390"
    },
    {
        "name": "Mamu Kanjan",
        "zip_code": "37000"
    },
    {
        "name": "Murid Wala",
        "zip_code": "37020"
    },
    {
        "name": "Chak 206 Gb",
        "zip_code": "37040"
    },
    {
        "name": "Chak 207 Gb",
        "zip_code": "37050"
    },
    {
        "name": "Chak 482 Gb (Jagranwan)",
        "zip_code": "37060"
    },
    {
        "name": "Kanjwani",
        "zip_code": "37100"
    },
    {
        "name": "Garh",
        "zip_code": "37110"
    },
    {
        "name": "Chak 447 Gb",
        "zip_code": "37130"
    },
    {
        "name": "Pindi Shiekh Musa",
        "zip_code": "37140"
    },
    {
        "name": "Tandlian Wala",
        "zip_code": "37150"
    },
    {
        "name": "Chak 433 Gb",
        "zip_code": "37180"
    },
    {
        "name": "Rorala Road",
        "zip_code": "37200"
    },
    {
        "name": "Chak 128 Gb",
        "zip_code": "37220"
    },
    {
        "name": "Chak 353 Gb",
        "zip_code": "37224"
    },
    {
        "name": "Chak 66 Gb",
        "zip_code": "37230"
    },
    {
        "name": "Jaranwala",
        "zip_code": "37250"
    },
    {
        "name": "Buchiana",
        "zip_code": "37260"
    },
    {
        "name": "Ganga Pur",
        "zip_code": "37280"
    },
    {
        "name": "Chak 98/Gb",
        "zip_code": "37290"
    },
    {
        "name": "Samundri",
        "zip_code": "37300"
    },
    {
        "name": "Chak 45 Gb",
        "zip_code": "37340"
    },
    {
        "name": "Chak 267 Rb",
        "zip_code": "37360"
    },
    {
        "name": "Dich Kot",
        "zip_code": "37370"
    },
    {
        "name": "Chak 253 Rb",
        "zip_code": "37400"
    },
    {
        "name": "Chak 257 Rb",
        "zip_code": "37410"
    },
    {
        "name": "Chak 248 Rb",
        "zip_code": "37420"
    },
    {
        "name": "Dasuha",
        "zip_code": "37430"
    },
    {
        "name": "Satiana Banglow",
        "zip_code": "37450"
    },
    {
        "name": "P.A.F. Risalay Wala",
        "zip_code": "37510"
    },
    {
        "name": "Thjkri Wala",
        "zip_code": "37520"
    },
    {
        "name": "Chak 275 J.B",
        "zip_code": "37530"
    },
    {
        "name": "Chak 67 Jb",
        "zip_code": "37540"
    },
    {
        "name": "Chak 113 Gb",
        "zip_code": "37570"
    },
    {
        "name": "Chak 117 Jb",
        "zip_code": "37600"
    },
    {
        "name": "Chak 203 Rb",
        "zip_code": "37610"
    },
    {
        "name": "Chak 199 Rb",
        "zip_code": "37620"
    },
    {
        "name": "Khurrian Wala",
        "zip_code": "37630"
    },
    {
        "name": "Chak 103 Rb",
        "zip_code": "37660"
    },
    {
        "name": "Chak 189 Rb (Rasulpur)",
        "zip_code": "37690"
    },
    {
        "name": "Chak Jhumra",
        "zip_code": "37700"
    },
    {
        "name": "Chak 103 Jb",
        "zip_code": "37720"
    },
    {
        "name": "Burj Mandi",
        "zip_code": "37730"
    },
    {
        "name": "Chak 16 Jb",
        "zip_code": "37740"
    },
    {
        "name": "Sahuwala (Chak 132/Rb)",
        "zip_code": "37750"
    },
    {
        "name": "Faisalabad Gpo",
        "zip_code": "38000"
    },
    {
        "name": "Faisalabad Board Of Education",
        "zip_code": "38004"
    },
    {
        "name": "Faisalabad Millat Town",
        "zip_code": "38070"
    },
    {
        "name": "Faisalabad Millat Colony",
        "zip_code": "38080"
    },
    {
        "name": "Faisalabad Sitara Colony",
        "zip_code": "38086"
    },
    {
        "name": "Faisalabad Peoples Colony No.",
        "zip_code": "38090"
    },
    {
        "name": "Faisalabad Amin Pur Banglow",
        "zip_code": "38200"
    },
    {
        "name": "Chak 59 Jb",
        "zip_code": "38210"
    },
    {
        "name": "Chak 229 Rb",
        "zip_code": "38220"
    },
    {
        "name": "Chak 271 Rb",
        "zip_code": "38230"
    },
    {
        "name": "Chak 583 Gb",
        "zip_code": "38240"
    },
    {
        "name": "Faisalabad Nishat Abad",
        "zip_code": "38600"
    },
    {
        "name": "Gulistan Colony, Faisalabad",
        "zip_code": "38610"
    },
    {
        "name": "Faisalabad Noor Pur",
        "zip_code": "38700"
    },
    {
        "name": "Faisalabad Punjab Medical College",
        "zip_code": "38800"
    },
    {
        "name": "Ayub Agricultural Research Institute",
        "zip_code": "38850"
    },
    {
        "name": "Faisalabad Madina Town",
        "zip_code": "38860"
    },
    {
        "name": "Ghulam Muhammad Abad",
        "zip_code": "38900"
    },
    {
        "name": "Muridke",
        "zip_code": "39000"
    },
    {
        "name": "Mannoo Abad",
        "zip_code": "39010"
    },
    {
        "name": "Rayyanpura",
        "zip_code": "39018"
    },
    {
        "name": "Sheikhupura Service Industry",
        "zip_code": "39040"
    },
    {
        "name": "Narang Mandi",
        "zip_code": "39050"
    },
    {
        "name": "Adhian",
        "zip_code": "39060"
    },
    {
        "name": "Nankana Sahib",
        "zip_code": "39100"
    },
    {
        "name": "More Khunda",
        "zip_code": "39120"
    },
    {
        "name": "Bucheki",
        "zip_code": "39130"
    },
    {
        "name": "Sayyed Wala",
        "zip_code": "39150"
    },
    {
        "name": "Martin Pur",
        "zip_code": "39160"
    },
    {
        "name": "Manan Wala",
        "zip_code": "39170"
    },
    {
        "name": "Feroz Wattan",
        "zip_code": "39172"
    },
    {
        "name": "Warburton",
        "zip_code": "39180"
    },
    {
        "name": "Kot Abdul Malik",
        "zip_code": "39250"
    },
    {
        "name": "Monoo Pur",
        "zip_code": "39320"
    },
    {
        "name": "Kot Pindi Das",
        "zip_code": "39330"
    },
    {
        "name": "Qila Sheikhupura Gpo",
        "zip_code": "39350"
    },
    {
        "name": "Koryal Kalan",
        "zip_code": "39424"
    },
    {
        "name": "Ajnian Wala",
        "zip_code": "39450"
    },
    {
        "name": "Sharaq Pur",
        "zip_code": "39460"
    },
    {
        "name": "Mandi Faiz Abad",
        "zip_code": "39470"
    },
    {
        "name": "Farooqabad Mandi",
        "zip_code": "39500"
    },
    {
        "name": "Canal Colony Farooq Abad",
        "zip_code": "39510"
    },
    {
        "name": "Farooqabad",
        "zip_code": "39520"
    },
    {
        "name": "Bahalike",
        "zip_code": "39530"
    },
    {
        "name": "Safdar Abad",
        "zip_code": "39540"
    },
    {
        "name": "Khan Gah Dogran",
        "zip_code": "39560"
    },
    {
        "name": "Marh Balochan",
        "zip_code": "39570"
    },
    {
        "name": "Sangla Hill",
        "zip_code": "39600"
    },
    {
        "name": "Bhuleer Chak",
        "zip_code": "39610"
    },
    {
        "name": "Shah Kot",
        "zip_code": "39630"
    },
    {
        "name": "Panwan",
        "zip_code": "39650"
    },
    {
        "name": "Kot Nizamdin",
        "zip_code": "39660"
    },
    {
        "name": "Shah Nikdar",
        "zip_code": "40000"
    },
    {
        "name": "Sillan Wali",
        "zip_code": "40010"
    },
    {
        "name": "Farooka",
        "zip_code": "40040"
    },
    {
        "name": "Chak 46 S.B.",
        "zip_code": "40050"
    },
    {
        "name": "Chak 36 S.B.",
        "zip_code": "40060"
    },
    {
        "name": "Bulland Hill",
        "zip_code": "40080"
    },
    {
        "name": "Sargodha Gpo",
        "zip_code": "40100"
    },
    {
        "name": "Wijh",
        "zip_code": "40110"
    },
    {
        "name": "Ahmed Pur",
        "zip_code": "40120"
    },
    {
        "name": "Shaheenabad",
        "zip_code": "40130"
    },
    {
        "name": "Chak 64 S.B",
        "zip_code": "40140"
    },
    {
        "name": "Sargodha Secondary Board",
        "zip_code": "40160"
    },
    {
        "name": "University Of Sargodha",
        "zip_code": "40162"
    },
    {
        "name": "Sargodha Taxtile Mills",
        "zip_code": "40170"
    },
    {
        "name": "Sargodha P.A.F Base",
        "zip_code": "40180"
    },
    {
        "name": "Astana-E-Fazal",
        "zip_code": "40184"
    },
    {
        "name": "Sargodha Cantt",
        "zip_code": "40190"
    },
    {
        "name": "Sahiwal (Sargodha)",
        "zip_code": "40210"
    },
    {
        "name": "Gondal (Sargodha)",
        "zip_code": "40216"
    },
    {
        "name": "Sail Sharif",
        "zip_code": "40220"
    },
    {
        "name": "Sial Chowk",
        "zip_code": "40222"
    },
    {
        "name": "Nihang",
        "zip_code": "40230"
    },
    {
        "name": "Kirana Hill",
        "zip_code": "40250"
    },
    {
        "name": "Chak 111 Sb",
        "zip_code": "40260"
    },
    {
        "name": "Chak 88 S.B.",
        "zip_code": "40270"
    },
    {
        "name": "Bhagtan Wala",
        "zip_code": "40280"
    },
    {
        "name": "Kallas Sharif",
        "zip_code": "40290"
    },
    {
        "name": "Chak 86 S.B.",
        "zip_code": "40300"
    },
    {
        "name": "Chak 29 S.B.",
        "zip_code": "40310"
    },
    {
        "name": "Chak 34 N.B.",
        "zip_code": "40330"
    },
    {
        "name": "Hyderabad Town Sargodha",
        "zip_code": "40340"
    },
    {
        "name": "Mori",
        "zip_code": "40342"
    },
    {
        "name": "Jhawrian",
        "zip_code": "40350"
    },
    {
        "name": "Uttian",
        "zip_code": "40360"
    },
    {
        "name": "Dharima",
        "zip_code": "40370"
    },
    {
        "name": "Noon Sugar Mills Bhalwal",
        "zip_code": "40400"
    },
    {
        "name": "Bhalwal",
        "zip_code": "40410"
    },
    {
        "name": "Attabad, Sargodha",
        "zip_code": "40412"
    },
    {
        "name": "Alamabad",
        "zip_code": "40418"
    },
    {
        "name": "Manzoor Hayat Colony Bhalwal",
        "zip_code": "40420"
    },
    {
        "name": "Moazam Abad",
        "zip_code": "40430"
    },
    {
        "name": "Lalliani",
        "zip_code": "40440"
    },
    {
        "name": "Kot Moman",
        "zip_code": "40450"
    },
    {
        "name": "Midh Ranjha",
        "zip_code": "40460"
    },
    {
        "name": "Tangowali",
        "zip_code": "40462"
    },
    {
        "name": "Punja",
        "zip_code": "40464"
    },
    {
        "name": "Bhabra",
        "zip_code": "40470"
    },
    {
        "name": "Alipur Noon",
        "zip_code": "40500"
    },
    {
        "name": "Chak Mubarak",
        "zip_code": "40520"
    },
    {
        "name": "Chak Ram Das",
        "zip_code": "40520"
    },
    {
        "name": "Chak 10 M.L.",
        "zip_code": "40530"
    },
    {
        "name": "Bhera",
        "zip_code": "40540"
    },
    {
        "name": "Hazoorpur",
        "zip_code": "40542"
    },
    {
        "name": "Alipur Saidan",
        "zip_code": "40544"
    },
    {
        "name": "Miani",
        "zip_code": "40550"
    },
    {
        "name": "Hujjan",
        "zip_code": "40560"
    },
    {
        "name": "Phular Wan",
        "zip_code": "40570"
    },
    {
        "name": "Shah Pur Sadar",
        "zip_code": "40600"
    },
    {
        "name": "Shah Pur City",
        "zip_code": "40610"
    },
    {
        "name": "Jahanabad",
        "zip_code": "40614"
    },
    {
        "name": "Kandan",
        "zip_code": "40620"
    },
    {
        "name": "Khushab Gpo",
        "zip_code": "41000"
    },
    {
        "name": "Hussain Abad",
        "zip_code": "41010"
    },
    {
        "name": "Girote",
        "zip_code": "41020"
    },
    {
        "name": "Khura",
        "zip_code": "41022"
    },
    {
        "name": "Chowk Girote",
        "zip_code": "41024"
    },
    {
        "name": "Roda",
        "zip_code": "41030"
    },
    {
        "name": "Pail",
        "zip_code": "41050"
    },
    {
        "name": "Padhrar",
        "zip_code": "41060"
    },
    {
        "name": "Nawshera (Khushab)",
        "zip_code": "41100"
    },
    {
        "name": "Surraki",
        "zip_code": "41102"
    },
    {
        "name": "Ugali",
        "zip_code": "41104"
    },
    {
        "name": "Sodhi",
        "zip_code": "41110"
    },
    {
        "name": "Khabbekki",
        "zip_code": "41120"
    },
    {
        "name": "Dhadhar",
        "zip_code": "41122"
    },
    {
        "name": "Jabba",
        "zip_code": "41124"
    },
    {
        "name": "Mardwal",
        "zip_code": "41130"
    },
    {
        "name": "Angah",
        "zip_code": "41140"
    },
    {
        "name": "Uchhali",
        "zip_code": "41150"
    },
    {
        "name": "P. A. F. Sakesar",
        "zip_code": "41160"
    },
    {
        "name": "Kufri",
        "zip_code": "41162"
    },
    {
        "name": "Jahlar",
        "zip_code": "41170"
    },
    {
        "name": "Jauhar Abad",
        "zip_code": "41200"
    },
    {
        "name": "Hadali",
        "zip_code": "41210"
    },
    {
        "name": "Jabbi",
        "zip_code": "41220"
    },
    {
        "name": "Mitha Tiwana",
        "zip_code": "41250"
    },
    {
        "name": "Adhi Kot",
        "zip_code": "41260"
    },
    {
        "name": "Khushab Atomic Energy Commission",
        "zip_code": "41264"
    },
    {
        "name": "Nur Pur Thal",
        "zip_code": "41270"
    },
    {
        "name": "Jamali",
        "zip_code": "41280"
    },
    {
        "name": "Jaura Kalan",
        "zip_code": "41282"
    },
    {
        "name": "Qaid Abad",
        "zip_code": "41300"
    },
    {
        "name": "Bandial",
        "zip_code": "41310"
    },
    {
        "name": "Rangpur Baghor",
        "zip_code": "41320"
    },
    {
        "name": "Warchha Mandi",
        "zip_code": "41330"
    },
    {
        "name": "Rajar",
        "zip_code": "41340"
    },
    {
        "name": "Liaqat Abad",
        "zip_code": "42000"
    },
    {
        "name": "Alluwali",
        "zip_code": "42010"
    },
    {
        "name": "Dubb",
        "zip_code": "42012"
    },
    {
        "name": "Harnoli",
        "zip_code": "42020"
    },
    {
        "name": "Chashma Barrage Colony Mianwali",
        "zip_code": "42030"
    },
    {
        "name": "Kundian",
        "zip_code": "42050"
    },
    {
        "name": "Chak 4/Db",
        "zip_code": "42060"
    },
    {
        "name": "Wan Bhachran",
        "zip_code": "42100"
    },
    {
        "name": "Chapri",
        "zip_code": "42110"
    },
    {
        "name": "Shadia",
        "zip_code": "42120"
    },
    {
        "name": "Mianwali Gpo",
        "zip_code": "42200"
    },
    {
        "name": "Pakki Shah Mardan",
        "zip_code": "42204"
    },
    {
        "name": "Mianwali P.A.F Colony",
        "zip_code": "42206"
    },
    {
        "name": "Kallor",
        "zip_code": "42208"
    },
    {
        "name": "Musa Khel",
        "zip_code": "42210"
    },
    {
        "name": "Kalri",
        "zip_code": "42220"
    },
    {
        "name": "Chakrala",
        "zip_code": "42230"
    },
    {
        "name": "Dhiba Kar Sial",
        "zip_code": "42232"
    },
    {
        "name": "Dhurnaka",
        "zip_code": "42240"
    },
    {
        "name": "Rikhi",
        "zip_code": "42250"
    },
    {
        "name": "Chhidroo",
        "zip_code": "42260"
    },
    {
        "name": "Pai Khel",
        "zip_code": "42300"
    },
    {
        "name": "Ghundi",
        "zip_code": "42302"
    },
    {
        "name": "Swance",
        "zip_code": "42304"
    },
    {
        "name": "Mochh",
        "zip_code": "42310"
    },
    {
        "name": "Dillewali",
        "zip_code": "42312"
    },
    {
        "name": "Daud Khel",
        "zip_code": "42320"
    },
    {
        "name": "Iskandar Abad",
        "zip_code": "42340"
    },
    {
        "name": "Mari Indus",
        "zip_code": "42350"
    },
    {
        "name": "Kalabagh",
        "zip_code": "42360"
    },
    {
        "name": "Tabisar",
        "zip_code": "42370"
    },
    {
        "name": "Tola Bangi Khel",
        "zip_code": "42380"
    },
    {
        "name": "Kamar Mashani",
        "zip_code": "42400"
    },
    {
        "name": "Makerwal",
        "zip_code": "42410"
    },
    {
        "name": "Trag",
        "zip_code": "42420"
    },
    {
        "name": "Isa Khel",
        "zip_code": "42430"
    },
    {
        "name": "Makhad Road",
        "zip_code": "43000"
    },
    {
        "name": "Kani",
        "zip_code": "43002"
    },
    {
        "name": "Makhad Sharif",
        "zip_code": "43010"
    },
    {
        "name": "Injra",
        "zip_code": "43020"
    },
    {
        "name": "Naka Afghanan",
        "zip_code": "43030"
    },
    {
        "name": "Hadowali",
        "zip_code": "43040"
    },
    {
        "name": "Chabchhab",
        "zip_code": "43050"
    },
    {
        "name": "Nandrakabad",
        "zip_code": "43052"
    },
    {
        "name": "Lakarmar",
        "zip_code": "43060"
    },
    {
        "name": "Jhamat",
        "zip_code": "43070"
    },
    {
        "name": "Dakhnair",
        "zip_code": "43080"
    },
    {
        "name": "Malhowali",
        "zip_code": "43090"
    },
    {
        "name": "Jand",
        "zip_code": "43100"
    },
    {
        "name": "Kot Chhaji",
        "zip_code": "43110"
    },
    {
        "name": "Jalwal",
        "zip_code": "43112"
    },
    {
        "name": "Kandrala",
        "zip_code": "43114"
    },
    {
        "name": "Nara",
        "zip_code": "43120"
    },
    {
        "name": "Pindi Sarhal",
        "zip_code": "43122"
    },
    {
        "name": "Thatta",
        "zip_code": "43130"
    },
    {
        "name": "Basal",
        "zip_code": "43140"
    },
    {
        "name": "Kisran",
        "zip_code": "43200"
    },
    {
        "name": "Mithal",
        "zip_code": "43210"
    },
    {
        "name": "Domel",
        "zip_code": "43220"
    },
    {
        "name": "Maryala",
        "zip_code": "43222"
    },
    {
        "name": "Pind Sultani",
        "zip_code": "43230"
    },
    {
        "name": "Rangli",
        "zip_code": "43232"
    },
    {
        "name": "Ikhlas",
        "zip_code": "43240"
    },
    {
        "name": "Mianwala",
        "zip_code": "43244"
    },
    {
        "name": "Dhok Lahm",
        "zip_code": "43250"
    },
    {
        "name": "Surg",
        "zip_code": "43252"
    },
    {
        "name": "Pindi Gheb",
        "zip_code": "43260"
    },
    {
        "name": "Chhab",
        "zip_code": "43270"
    },
    {
        "name": "Nilhad",
        "zip_code": "43280"
    },
    {
        "name": "Khunda",
        "zip_code": "43300"
    },
    {
        "name": "Mirjal",
        "zip_code": "43320"
    },
    {
        "name": "Kahal",
        "zip_code": "43322"
    },
    {
        "name": "Gaggon",
        "zip_code": "43330"
    },
    {
        "name": "Kot Fateh Khan",
        "zip_code": "43340"
    },
    {
        "name": "Fateh Jang",
        "zip_code": "43350"
    },
    {
        "name": "Kamrial",
        "zip_code": "43360"
    },
    {
        "name": "Kanjur",
        "zip_code": "43364"
    },
    {
        "name": "Dhurnal",
        "zip_code": "43366"
    },
    {
        "name": "Ganda Kas",
        "zip_code": "43370"
    },
    {
        "name": "Khaur",
        "zip_code": "43380"
    },
    {
        "name": "Khaur Village",
        "zip_code": "43382"
    },
    {
        "name": "Kutbal",
        "zip_code": "43390"
    },
    {
        "name": "Hattar",
        "zip_code": "43394"
    },
    {
        "name": "Moorat",
        "zip_code": "43396"
    },
    {
        "name": "Jalalia",
        "zip_code": "43400"
    },
    {
        "name": "Gurgushti",
        "zip_code": "43410"
    },
    {
        "name": "Malak Mala",
        "zip_code": "43412"
    },
    {
        "name": "Behboodi",
        "zip_code": "43414"
    },
    {
        "name": "Shinka",
        "zip_code": "43420"
    },
    {
        "name": "Yasin Kalan",
        "zip_code": "43422"
    },
    {
        "name": "Barazai",
        "zip_code": "43430"
    },
    {
        "name": "Hazro",
        "zip_code": "43440"
    },
    {
        "name": "Kamalpur Musa",
        "zip_code": "43442"
    },
    {
        "name": "Raitla Mandi",
        "zip_code": "43444"
    },
    {
        "name": "Nartopa",
        "zip_code": "43450"
    },
    {
        "name": "Musa",
        "zip_code": "43460"
    },
    {
        "name": "Hameed",
        "zip_code": "43470"
    },
    {
        "name": "Saman",
        "zip_code": "43480"
    },
    {
        "name": "Shams Abad",
        "zip_code": "43490"
    },
    {
        "name": "Rangoo",
        "zip_code": "43500"
    },
    {
        "name": "Waisa",
        "zip_code": "43510"
    },
    {
        "name": "Sirka",
        "zip_code": "43520"
    },
    {
        "name": "Shadi Khan",
        "zip_code": "43530"
    },
    {
        "name": "Furmali",
        "zip_code": "43540"
    },
    {
        "name": "Mansar Camp",
        "zip_code": "43550"
    },
    {
        "name": "Attock Khurd",
        "zip_code": "43560"
    },
    {
        "name": "P.A.C. Kamra",
        "zip_code": "43570"
    },
    {
        "name": "Hattian",
        "zip_code": "43580"
    },
    {
        "name": "Attock Gpo",
        "zip_code": "43600"
    },
    {
        "name": "Barotha Wapda Colony",
        "zip_code": "43660"
    },
    {
        "name": "Sanjwal Pakistan Ordnance Factory",
        "zip_code": "43670"
    },
    {
        "name": "Mirza",
        "zip_code": "43680"
    },
    {
        "name": "Dawoodpur",
        "zip_code": "43700"
    },
    {
        "name": "Burhan",
        "zip_code": "43710"
    },
    {
        "name": "Mono Nagar",
        "zip_code": "43720"
    },
    {
        "name": "Hasan Abdal",
        "zip_code": "43730"
    },
    {
        "name": "Alro Lab",
        "zip_code": "43734"
    },
    {
        "name": "Bahtar",
        "zip_code": "43740"
    },
    {
        "name": "Boota",
        "zip_code": "43750"
    },
    {
        "name": "Rawalpindi Gpo",
        "zip_code": "46000"
    },
    {
        "name": "Rawalpindi Momin Pura",
        "zip_code": "46010"
    },
    {
        "name": "Rawalpindi Urdu Bazar",
        "zip_code": "46020"
    },
    {
        "name": "Rawalpindi Saidpur Road",
        "zip_code": "46030"
    },
    {
        "name": "Rawalpindi Asghar Mall",
        "zip_code": "46040"
    },
    {
        "name": "Rawalpindi Allama Iqbal Colony",
        "zip_code": "46050"
    },
    {
        "name": "Rawalpindi Westridge",
        "zip_code": "46060"
    },
    {
        "name": "Rawalpindi Kohinoor Colony",
        "zip_code": "46070"
    },
    {
        "name": "Rawalpindi General Headquarters",
        "zip_code": "46100"
    },
    {
        "name": "Murree Brewary Rawalpindi",
        "zip_code": "46120"
    },
    {
        "name": "Chaklala Village",
        "zip_code": "46202"
    },
    {
        "name": "Rawalpindi Chaklala Air Field",
        "zip_code": "46210"
    },
    {
        "name": "Rawalpindi Bahria Town (Phase 1, 2, 3, 4)",
        "zip_code": "46220"
    },
    {
        "name": "Rawalpindi Gulzar-E-Quaid",
        "zip_code": "46222"
    },
    {
        "name": "Rawalpindi Satellite Town",
        "zip_code": "46300"
    },
    {
        "name": "Rawalpindi Judicial Town",
        "zip_code": "46310"
    },
    {
        "name": "Rawalpindi Raja Town",
        "zip_code": "46320"
    },
    {
        "name": "Rawalpindi Fizaia Colony",
        "zip_code": "46330"
    },
    {
        "name": "Rawalpindi Pir Wadhai",
        "zip_code": "46350"
    },
    {
        "name": "Rawalpindi Dhamial Camp",
        "zip_code": "46500"
    },
    {
        "name": "Rawalpindi Kutchery",
        "zip_code": "46510"
    },
    {
        "name": "Rawalpindi Chak Jalal Din",
        "zip_code": "46520"
    },
    {
        "name": "Rawalpindi Attock Oil Company",
        "zip_code": "46600"
    },
    {
        "name": "Rawalpindi Bise Morgah",
        "zip_code": "46602"
    },
    {
        "name": "Askari 14, Rawalpindi",
        "zip_code": "46604"
    },
    {
        "name": "Rawalpindi Adyala Road",
        "zip_code": "46606"
    },
    {
        "name": "Rawalpindi High Court",
        "zip_code": "46610"
    },
    {
        "name": "Safari Valley (Bahria Phase 5, 6, 7, 8)",
        "zip_code": "46620"
    },
    {
        "name": "Wah",
        "zip_code": "47000"
    },
    {
        "name": "Losar Sharfoo",
        "zip_code": "47002"
    },
    {
        "name": "Lala Rukh Wah Cantt",
        "zip_code": "47010"
    },
    {
        "name": "Wah Cement Works",
        "zip_code": "47020"
    },
    {
        "name": "Pakistan Ordinance Factory Gudwal",
        "zip_code": "47030"
    },
    {
        "name": "Wah Cantt. Gpo",
        "zip_code": "47040"
    },
    {
        "name": "Lalazar Colony Wah",
        "zip_code": "47044"
    },
    {
        "name": "Wah West Park",
        "zip_code": "47046"
    },
    {
        "name": "Heavy Mechanical Complex Taxila",
        "zip_code": "47050"
    },
    {
        "name": "Usman Khatter",
        "zip_code": "47060"
    },
    {
        "name": "Ahata Farooqia",
        "zip_code": "47066"
    },
    {
        "name": "Taxila Cantt.",
        "zip_code": "47070"
    },
    {
        "name": "Taxila",
        "zip_code": "47080"
    },
    {
        "name": "Wah P.M.O Complex",
        "zip_code": "47086"
    },
    {
        "name": "Saddat Colony",
        "zip_code": "47090"
    },
    {
        "name": "Khurram Gujar",
        "zip_code": "47092"
    },
    {
        "name": "Tret",
        "zip_code": "47100"
    },
    {
        "name": "Samli Sanatorium",
        "zip_code": "47104"
    },
    {
        "name": "Ghora Gali",
        "zip_code": "47110"
    },
    {
        "name": "Lawrence College",
        "zip_code": "47114"
    },
    {
        "name": "Murree Clifdon",
        "zip_code": "47118"
    },
    {
        "name": "Chitta More",
        "zip_code": "47120"
    },
    {
        "name": "Barian Camp",
        "zip_code": "47124"
    },
    {
        "name": "Kuldana",
        "zip_code": "47130"
    },
    {
        "name": "Sunny Bank",
        "zip_code": "47140"
    },
    {
        "name": "Murree Gpo",
        "zip_code": "47150"
    },
    {
        "name": "Jhika Gali",
        "zip_code": "47180"
    },
    {
        "name": "Ghariai",
        "zip_code": "47184"
    },
    {
        "name": "Kashmiri Bazar",
        "zip_code": "47190"
    },
    {
        "name": "Dewal",
        "zip_code": "47194"
    },
    {
        "name": "Phagwari",
        "zip_code": "47200"
    },
    {
        "name": "Sehr Bagla",
        "zip_code": "47204"
    },
    {
        "name": "Upper Topa",
        "zip_code": "47210"
    },
    {
        "name": "Lower Topa",
        "zip_code": "47214"
    },
    {
        "name": "Phapril",
        "zip_code": "47216"
    },
    {
        "name": "Gulehra Gali",
        "zip_code": "47220"
    },
    {
        "name": "Mohra Sayyedan",
        "zip_code": "47224"
    },
    {
        "name": "Ban",
        "zip_code": "47230"
    },
    {
        "name": "Biah",
        "zip_code": "47232"
    },
    {
        "name": "Dhirkot Sattian",
        "zip_code": "47234"
    },
    {
        "name": "Dhanda",
        "zip_code": "47240"
    },
    {
        "name": "Mallot Sattian",
        "zip_code": "47250"
    },
    {
        "name": "Kotli Sattian",
        "zip_code": "47260"
    },
    {
        "name": "Durniyan",
        "zip_code": "47262"
    },
    {
        "name": "Kahuti Bazar",
        "zip_code": "47266"
    },
    {
        "name": "Lehtrar Bala",
        "zip_code": "47270"
    },
    {
        "name": "Kalan Basand",
        "zip_code": "47274"
    },
    {
        "name": "Surba",
        "zip_code": "47276"
    },
    {
        "name": "Kehrore",
        "zip_code": "47280"
    },
    {
        "name": "Sihal",
        "zip_code": "47290"
    },
    {
        "name": "Sangral",
        "zip_code": "47294"
    },
    {
        "name": "Kolian Hameed",
        "zip_code": "47296"
    },
    {
        "name": "Chakri",
        "zip_code": "47300"
    },
    {
        "name": "Dahgal",
        "zip_code": "47310"
    },
    {
        "name": "Sumbalgah",
        "zip_code": "47320"
    },
    {
        "name": "Khadiot",
        "zip_code": "47324"
    },
    {
        "name": "Kahuta Gpo",
        "zip_code": "47330"
    },
    {
        "name": "Hanesar",
        "zip_code": "47340"
    },
    {
        "name": "Panjar",
        "zip_code": "47350"
    },
    {
        "name": "Narh",
        "zip_code": "47360"
    },
    {
        "name": "Sour",
        "zip_code": "47364"
    },
    {
        "name": "Mowara",
        "zip_code": "47370"
    },
    {
        "name": "Matore",
        "zip_code": "47374"
    },
    {
        "name": "Maira (Rawalpindi)",
        "zip_code": "47376"
    },
    {
        "name": "Thoha Khalsa",
        "zip_code": "47380"
    },
    {
        "name": "Nara",
        "zip_code": "47384"
    },
    {
        "name": "Bagh Jamiri",
        "zip_code": "47390"
    },
    {
        "name": "Lehri",
        "zip_code": "47400"
    },
    {
        "name": "Khalol",
        "zip_code": "47410"
    },
    {
        "name": "Jewra",
        "zip_code": "47420"
    },
    {
        "name": "Nalla Musilmanan",
        "zip_code": "47430"
    },
    {
        "name": "Benahal Pattan",
        "zip_code": "47432"
    },
    {
        "name": "Doberan Kalan",
        "zip_code": "47440"
    },
    {
        "name": "Sakoot",
        "zip_code": "47444"
    },
    {
        "name": "Dhamali",
        "zip_code": "47450"
    },
    {
        "name": "Bhalakhar",
        "zip_code": "47460"
    },
    {
        "name": "Choha Khalsa",
        "zip_code": "47470"
    },
    {
        "name": "Sohat Bagial",
        "zip_code": "47474"
    },
    {
        "name": "Chakrali Budhal",
        "zip_code": "47476"
    },
    {
        "name": "Sir Suba Shah",
        "zip_code": "47480"
    },
    {
        "name": "Samote",
        "zip_code": "47490"
    },
    {
        "name": "Takal",
        "zip_code": "47500"
    },
    {
        "name": "Dharyala Sehgal",
        "zip_code": "47510"
    },
    {
        "name": "Kallar Sayydan",
        "zip_code": "47520"
    },
    {
        "name": "Thal Khalsa",
        "zip_code": "47522"
    },
    {
        "name": "Chowk Pindori",
        "zip_code": "47530"
    },
    {
        "name": "Sagri",
        "zip_code": "47540"
    },
    {
        "name": "Manghota Barahmnan",
        "zip_code": "47542"
    },
    {
        "name": "Tareel",
        "zip_code": "47546"
    },
    {
        "name": "Jhatta Hathial",
        "zip_code": "47550"
    },
    {
        "name": "Banda",
        "zip_code": "47560"
    },
    {
        "name": "Bhall",
        "zip_code": "47570"
    },
    {
        "name": "Udhowal",
        "zip_code": "47580"
    },
    {
        "name": "Chauntra",
        "zip_code": "47590"
    },
    {
        "name": "Tatral",
        "zip_code": "47592"
    },
    {
        "name": "Chak Beli Khan",
        "zip_code": "47600"
    },
    {
        "name": "Pindoori (Chak Bali Khan)",
        "zip_code": "47610"
    },
    {
        "name": "Mahuta Mohra",
        "zip_code": "47620"
    },
    {
        "name": "Paryal",
        "zip_code": "47630"
    },
    {
        "name": "Ruper Kalan",
        "zip_code": "47640"
    },
    {
        "name": "Bassali",
        "zip_code": "47650"
    },
    {
        "name": "Haraka",
        "zip_code": "47652"
    },
    {
        "name": "Jabbar Darvesh",
        "zip_code": "47660"
    },
    {
        "name": "Mandra",
        "zip_code": "47670"
    },
    {
        "name": "Kaliam Awan",
        "zip_code": "47680"
    },
    {
        "name": "Pothi",
        "zip_code": "47690"
    },
    {
        "name": "Sang",
        "zip_code": "47700"
    },
    {
        "name": "Mangote",
        "zip_code": "47710"
    },
    {
        "name": "Sukho",
        "zip_code": "47720"
    },
    {
        "name": "Kanyat Khalil",
        "zip_code": "47730"
    },
    {
        "name": "Daultala",
        "zip_code": "47740"
    },
    {
        "name": "Ahdi",
        "zip_code": "47750"
    },
    {
        "name": "Narali",
        "zip_code": "47760"
    },
    {
        "name": "Dhong",
        "zip_code": "47770"
    },
    {
        "name": "Jatli",
        "zip_code": "47780"
    },
    {
        "name": "Devi",
        "zip_code": "47784"
    },
    {
        "name": "Bhair Kalyal",
        "zip_code": "47790"
    },
    {
        "name": "Thekherian",
        "zip_code": "47800"
    },
    {
        "name": "Raman",
        "zip_code": "47810"
    },
    {
        "name": "Sayyad Kisran",
        "zip_code": "47820"
    },
    {
        "name": "Bhawlay Khurd",
        "zip_code": "47824"
    },
    {
        "name": "Punjgran Khurd",
        "zip_code": "47830"
    },
    {
        "name": "Gujar Khan Gpo",
        "zip_code": "47850"
    },
    {
        "name": "Gulyana",
        "zip_code": "47880"
    },
    {
        "name": "Chik Budhal",
        "zip_code": "47882"
    },
    {
        "name": "Mohra Noori",
        "zip_code": "47884"
    },
    {
        "name": "Sasral",
        "zip_code": "47890"
    },
    {
        "name": "Kuntrilla",
        "zip_code": "47900"
    },
    {
        "name": "Bewal",
        "zip_code": "47910"
    },
    {
        "name": "Mohra Bhuttian",
        "zip_code": "47920"
    },
    {
        "name": "Kinger",
        "zip_code": "47930"
    },
    {
        "name": "Thathi",
        "zip_code": "47940"
    },
    {
        "name": "Pindori",
        "zip_code": "47950"
    },
    {
        "name": "Kazian",
        "zip_code": "47960"
    },
    {
        "name": "Jand Mehloo",
        "zip_code": "47970"
    },
    {
        "name": "Missa Kaswal",
        "zip_code": "47980"
    },
    {
        "name": "Jarmot Kalan",
        "zip_code": "47990"
    },
    {
        "name": "Khingar Mamdal",
        "zip_code": "47994"
    },
    {
        "name": "Trap",
        "zip_code": "48000"
    },
    {
        "name": "Jabbi Shah Dilawar",
        "zip_code": "48020"
    },
    {
        "name": "Multan Khurd",
        "zip_code": "48030"
    },
    {
        "name": "Sang Wala",
        "zip_code": "48034"
    },
    {
        "name": "Tamman",
        "zip_code": "48040"
    },
    {
        "name": "Dandi Surhali",
        "zip_code": "48042"
    },
    {
        "name": "Budhial",
        "zip_code": "48050"
    },
    {
        "name": "Patwali",
        "zip_code": "48052"
    },
    {
        "name": "Akwal",
        "zip_code": "48060"
    },
    {
        "name": "Dhaular",
        "zip_code": "48062"
    },
    {
        "name": "Tehi",
        "zip_code": "48070"
    },
    {
        "name": "Jasial",
        "zip_code": "48072"
    },
    {
        "name": "Tatral",
        "zip_code": "48074"
    },
    {
        "name": "Kot Sarang",
        "zip_code": "48080"
    },
    {
        "name": "Talagang City",
        "zip_code": "48090"
    },
    {
        "name": "Talagang Gpo",
        "zip_code": "48100"
    },
    {
        "name": "Naka Kahut",
        "zip_code": "48110"
    },
    {
        "name": "Pira Fathial",
        "zip_code": "48120"
    },
    {
        "name": "Moorat",
        "zip_code": "48122"
    },
    {
        "name": "Balwal",
        "zip_code": "48130"
    },
    {
        "name": "Bilalabad",
        "zip_code": "48140"
    },
    {
        "name": "Saghar",
        "zip_code": "48150"
    },
    {
        "name": "Darote",
        "zip_code": "48154"
    },
    {
        "name": "Wanhar",
        "zip_code": "48160"
    },
    {
        "name": "Dhulli",
        "zip_code": "48170"
    },
    {
        "name": "Dhermond",
        "zip_code": "48180"
    },
    {
        "name": "Dhoke Masahib",
        "zip_code": "48182"
    },
    {
        "name": "Leti",
        "zip_code": "48190"
    },
    {
        "name": "Pachand",
        "zip_code": "48200"
    },
    {
        "name": "Kot Gullah",
        "zip_code": "48202"
    },
    {
        "name": "Dhurnal",
        "zip_code": "48210"
    },
    {
        "name": "Gatal",
        "zip_code": "48220"
    },
    {
        "name": "Kot Qazi",
        "zip_code": "48222"
    },
    {
        "name": "Danda Shah Balawal",
        "zip_code": "48230"
    },
    {
        "name": "Changa",
        "zip_code": "48240"
    },
    {
        "name": "Lawa",
        "zip_code": "48250"
    },
    {
        "name": "Jhatla",
        "zip_code": "48260"
    },
    {
        "name": "Thoha Mehram Khan",
        "zip_code": "48270"
    },
    {
        "name": "Chinji",
        "zip_code": "48280"
    },
    {
        "name": "Kotera",
        "zip_code": "48282"
    },
    {
        "name": "Bhilomar",
        "zip_code": "48290"
    },
    {
        "name": "Dandot",
        "zip_code": "48310"
    },
    {
        "name": "Dalelpur",
        "zip_code": "48312"
    },
    {
        "name": "Choa Saidan Shah",
        "zip_code": "48320"
    },
    {
        "name": "Wahalizer",
        "zip_code": "48322"
    },
    {
        "name": "Ara",
        "zip_code": "48326"
    },
    {
        "name": "Dulmial",
        "zip_code": "48330"
    },
    {
        "name": "Dheri Sydan",
        "zip_code": "48332"
    },
    {
        "name": "Dharial Kahoon",
        "zip_code": "48340"
    },
    {
        "name": "Wahula",
        "zip_code": "48350"
    },
    {
        "name": "Dalwal",
        "zip_code": "48360"
    },
    {
        "name": "Arrar",
        "zip_code": "48370"
    },
    {
        "name": "Khairpur (Chakwal)",
        "zip_code": "48380"
    },
    {
        "name": "Lehr Sultan Pur",
        "zip_code": "48400"
    },
    {
        "name": "Basharat",
        "zip_code": "48410"
    },
    {
        "name": "Saloi",
        "zip_code": "48420"
    },
    {
        "name": "Lehri Kakan",
        "zip_code": "48430"
    },
    {
        "name": "Dhidwal",
        "zip_code": "48500"
    },
    {
        "name": "Karriala",
        "zip_code": "48510"
    },
    {
        "name": "Bhallah",
        "zip_code": "48514"
    },
    {
        "name": "Dheedwal",
        "zip_code": "48516"
    },
    {
        "name": "Bhaun",
        "zip_code": "48520"
    },
    {
        "name": "Kalar Kahar",
        "zip_code": "48530"
    },
    {
        "name": "Bharpur",
        "zip_code": "48540"
    },
    {
        "name": "Jhamrah",
        "zip_code": "48550"
    },
    {
        "name": "Karuli",
        "zip_code": "48554"
    },
    {
        "name": "Istqlal Camp",
        "zip_code": "48556"
    },
    {
        "name": "Bochal Kalan",
        "zip_code": "48560"
    },
    {
        "name": "Dharukna",
        "zip_code": "48564"
    },
    {
        "name": "Sar Kalan",
        "zip_code": "48570"
    },
    {
        "name": "Buchal Khurd",
        "zip_code": "48580"
    },
    {
        "name": "Wasnal",
        "zip_code": "48582"
    },
    {
        "name": "Manara",
        "zip_code": "48584"
    },
    {
        "name": "Nur Pur",
        "zip_code": "48590"
    },
    {
        "name": "Sadwal",
        "zip_code": "48600"
    },
    {
        "name": "Rehna Sadat",
        "zip_code": "48604"
    },
    {
        "name": "Murid",
        "zip_code": "48610"
    },
    {
        "name": "Bhatti Gujar",
        "zip_code": "48620"
    },
    {
        "name": "Dharabi",
        "zip_code": "48624"
    },
    {
        "name": "Balkasar",
        "zip_code": "48630"
    },
    {
        "name": "Sidher",
        "zip_code": "48640"
    },
    {
        "name": "Thoa Bahadur",
        "zip_code": "48650"
    },
    {
        "name": "Oudherwal",
        "zip_code": "48660"
    },
    {
        "name": "Mundey",
        "zip_code": "48670"
    },
    {
        "name": "Bhagwal",
        "zip_code": "48680"
    },
    {
        "name": "Chamli",
        "zip_code": "48682"
    },
    {
        "name": "Roopwal",
        "zip_code": "48684"
    },
    {
        "name": "Minwal",
        "zip_code": "48690"
    },
    {
        "name": "Chak Bhaun",
        "zip_code": "48694"
    },
    {
        "name": "Dhudial (Chakwal)",
        "zip_code": "48700"
    },
    {
        "name": "Sang Kalan",
        "zip_code": "48704"
    },
    {
        "name": "Mangwal",
        "zip_code": "48720"
    },
    {
        "name": "Nila",
        "zip_code": "48730"
    },
    {
        "name": "Hasil",
        "zip_code": "48740"
    },
    {
        "name": "Bhin",
        "zip_code": "48750"
    },
    {
        "name": "Badshahan",
        "zip_code": "48760"
    },
    {
        "name": "Chak Malook",
        "zip_code": "48770"
    },
    {
        "name": "Thanil Kamal",
        "zip_code": "48780"
    },
    {
        "name": "Chakwal Gpo",
        "zip_code": "48800"
    },
    {
        "name": "Thanial Fatohi",
        "zip_code": "48802"
    },
    {
        "name": "Ghazi Abad",
        "zip_code": "48808"
    },
    {
        "name": "Tatral",
        "zip_code": "48810"
    },
    {
        "name": "Janga",
        "zip_code": "48812"
    },
    {
        "name": "Dewalian",
        "zip_code": "48820"
    },
    {
        "name": "Shahpur Sydan",
        "zip_code": "48824"
    },
    {
        "name": "Saigal Abad",
        "zip_code": "48830"
    },
    {
        "name": "Chakral",
        "zip_code": "48840"
    },
    {
        "name": "Sohawa Village",
        "zip_code": "48850"
    },
    {
        "name": "Chak Baqar Shah",
        "zip_code": "48860"
    },
    {
        "name": "Khan Pur (Chakwal)",
        "zip_code": "48870"
    },
    {
        "name": "Dumman",
        "zip_code": "48880"
    },
    {
        "name": "Pindi Gujran",
        "zip_code": "48890"
    },
    {
        "name": "Nichindi",
        "zip_code": "48900"
    },
    {
        "name": "Dharnuggi",
        "zip_code": "48902"
    },
    {
        "name": "Malhal Mughlan",
        "zip_code": "48910"
    },
    {
        "name": "Dhoda",
        "zip_code": "48912"
    },
    {
        "name": "Ghazial",
        "zip_code": "48914"
    },
    {
        "name": "Chohan",
        "zip_code": "48920"
    },
    {
        "name": "Chakora",
        "zip_code": "48930"
    },
    {
        "name": "Jand (Chakwal)",
        "zip_code": "48940"
    },
    {
        "name": "Laugah",
        "zip_code": "48950"
    },
    {
        "name": "Dhudhi Thall",
        "zip_code": "49000"
    },
    {
        "name": "Kundwal",
        "zip_code": "49010"
    },
    {
        "name": "Lilla",
        "zip_code": "49020"
    },
    {
        "name": "Saroba",
        "zip_code": "49024"
    },
    {
        "name": "Tobah",
        "zip_code": "49030"
    },
    {
        "name": "Pind Dadan Khan",
        "zip_code": "49040"
    },
    {
        "name": "Haran Pur",
        "zip_code": "49050"
    },
    {
        "name": "Khewra",
        "zip_code": "49060"
    },
    {
        "name": "Dandot Railway Station",
        "zip_code": "49064"
    },
    {
        "name": "Sauwal",
        "zip_code": "49070"
    },
    {
        "name": "Dhariala Jalap",
        "zip_code": "49080"
    },
    {
        "name": "Gharibwal Cement",
        "zip_code": "49090"
    },
    {
        "name": "Piananwal",
        "zip_code": "49100"
    },
    {
        "name": "Chak Jani",
        "zip_code": "49102"
    },
    {
        "name": "Pindi Saidpur",
        "zip_code": "49110"
    },
    {
        "name": "Jalal Pur Sharif",
        "zip_code": "49120"
    },
    {
        "name": "Nagial Chamkown Valley",
        "zip_code": "49122"
    },
    {
        "name": "Wagh",
        "zip_code": "49130"
    },
    {
        "name": "Dhaiwal",
        "zip_code": "49200"
    },
    {
        "name": "Pari Darweza",
        "zip_code": "49210"
    },
    {
        "name": "Surg Dhan",
        "zip_code": "49220"
    },
    {
        "name": "Sohawa",
        "zip_code": "49230"
    },
    {
        "name": "Pail Mirza",
        "zip_code": "49232"
    },
    {
        "name": "Miani Bala",
        "zip_code": "49234"
    },
    {
        "name": "Diwani Hazoori",
        "zip_code": "49240"
    },
    {
        "name": "Bishan Dore",
        "zip_code": "49250"
    },
    {
        "name": "Bakrala",
        "zip_code": "49260"
    },
    {
        "name": "Lehri",
        "zip_code": "49270"
    },
    {
        "name": "Tarkai",
        "zip_code": "49280"
    },
    {
        "name": "Domeli",
        "zip_code": "49300"
    },
    {
        "name": "Adrana",
        "zip_code": "49304"
    },
    {
        "name": "Mughalabad",
        "zip_code": "49306"
    },
    {
        "name": "Dial",
        "zip_code": "49310"
    },
    {
        "name": "Baragowah",
        "zip_code": "49320"
    },
    {
        "name": "Nagial",
        "zip_code": "49324"
    },
    {
        "name": "Kakrala",
        "zip_code": "49326"
    },
    {
        "name": "Padhri",
        "zip_code": "49328"
    },
    {
        "name": "Bangial",
        "zip_code": "49330"
    },
    {
        "name": "Bhogi Chak",
        "zip_code": "49332"
    },
    {
        "name": "Jandala",
        "zip_code": "49340"
    },
    {
        "name": "Bara Gran",
        "zip_code": "49350"
    },
    {
        "name": "Garh Mahal",
        "zip_code": "49360"
    },
    {
        "name": "Rohtas",
        "zip_code": "49370"
    },
    {
        "name": "Khukha",
        "zip_code": "49380"
    },
    {
        "name": "Sagri",
        "zip_code": "49390"
    },
    {
        "name": "Dina",
        "zip_code": "49400"
    },
    {
        "name": "Budhair",
        "zip_code": "49410"
    },
    {
        "name": "Baral Colony",
        "zip_code": "49420"
    },
    {
        "name": "Mangla Cantt",
        "zip_code": "49430"
    },
    {
        "name": "Chak Akka",
        "zip_code": "49460"
    },
    {
        "name": "Jammu Kashmir Muhajir Colony",
        "zip_code": "49480"
    },
    {
        "name": "Kala Gujran",
        "zip_code": "49490"
    },
    {
        "name": "Kala",
        "zip_code": "49500"
    },
    {
        "name": "Maira (Jhelum)",
        "zip_code": "49510"
    },
    {
        "name": "Pind Rajwal",
        "zip_code": "49512"
    },
    {
        "name": "Chak Daulat",
        "zip_code": "49520"
    },
    {
        "name": "Jhelum Gpo",
        "zip_code": "49600"
    },
    {
        "name": "Tahlian Wala",
        "zip_code": "49608"
    },
    {
        "name": "Alliance Textile Mills",
        "zip_code": "49610"
    },
    {
        "name": "Bilal Town",
        "zip_code": "49620"
    },
    {
        "name": "Sanghoi",
        "zip_code": "49700"
    },
    {
        "name": "Chotala",
        "zip_code": "49710"
    },
    {
        "name": "Toor",
        "zip_code": "49712"
    },
    {
        "name": "Dhoke Bidder",
        "zip_code": "49720"
    },
    {
        "name": "Chakri",
        "zip_code": "49730"
    },
    {
        "name": "Khalas Pur",
        "zip_code": "49740"
    },
    {
        "name": "Jamarghal",
        "zip_code": "49750"
    },
    {
        "name": "Changa Bangial",
        "zip_code": "49764"
    },
    {
        "name": "Sarai Alamgir",
        "zip_code": "50000"
    },
    {
        "name": "Khadriala",
        "zip_code": "50006"
    },
    {
        "name": "Aurangabad",
        "zip_code": "50010"
    },
    {
        "name": "Saadat Pur",
        "zip_code": "50020"
    },
    {
        "name": "Baisa Kalan",
        "zip_code": "50030"
    },
    {
        "name": "Bulani",
        "zip_code": "50040"
    },
    {
        "name": "Khohar",
        "zip_code": "50050"
    },
    {
        "name": "Kharian Cantt",
        "zip_code": "50070"
    },
    {
        "name": "Kharian City",
        "zip_code": "50090"
    },
    {
        "name": "Malakpur",
        "zip_code": "50094"
    },
    {
        "name": "Mohri",
        "zip_code": "50110"
    },
    {
        "name": "Chak Muhammad",
        "zip_code": "50120"
    },
    {
        "name": "Dhoria",
        "zip_code": "50130"
    },
    {
        "name": "Barnali",
        "zip_code": "50140"
    },
    {
        "name": "Sehna",
        "zip_code": "50150"
    },
    {
        "name": "Guliana",
        "zip_code": "50160"
    },
    {
        "name": "Malka",
        "zip_code": "50170"
    },
    {
        "name": "Randhir Bagrian",
        "zip_code": "50172"
    },
    {
        "name": "Thutha Rai Bahadar",
        "zip_code": "50180"
    },
    {
        "name": "Gotriala",
        "zip_code": "50182"
    },
    {
        "name": "Lala Musa",
        "zip_code": "50200"
    },
    {
        "name": "Dullan Wala",
        "zip_code": "50210"
    },
    {
        "name": "National Wood Industries Lala Musa",
        "zip_code": "50220"
    },
    {
        "name": "Jaurah",
        "zip_code": "50250"
    },
    {
        "name": "Sikariali",
        "zip_code": "50260"
    },
    {
        "name": "Karariwala Kalan",
        "zip_code": "50270"
    },
    {
        "name": "Dinga",
        "zip_code": "50280"
    },
    {
        "name": "Khori Alam",
        "zip_code": "50286"
    },
    {
        "name": "Haslanwala",
        "zip_code": "50290"
    },
    {
        "name": "Pindi Kalu",
        "zip_code": "50306"
    },
    {
        "name": "Chak Jano Khurd",
        "zip_code": "50310"
    },
    {
        "name": "B. G. Pur",
        "zip_code": "50330"
    },
    {
        "name": "Amra Kalan",
        "zip_code": "50340"
    },
    {
        "name": "Chak No.",
        "zip_code": "50350"
    },
    {
        "name": "Murala",
        "zip_code": "50354"
    },
    {
        "name": "Chellian Wala",
        "zip_code": "50360"
    },
    {
        "name": "Rasul",
        "zip_code": "50370"
    },
    {
        "name": "Rasul G.C.T.",
        "zip_code": "50380"
    },
    {
        "name": "Mong",
        "zip_code": "50390"
    },
    {
        "name": "Mandi Bahauddin Gpo",
        "zip_code": "50400"
    },
    {
        "name": "Mangat",
        "zip_code": "50410"
    },
    {
        "name": "Phalia",
        "zip_code": "50430"
    },
    {
        "name": "Helan",
        "zip_code": "50440"
    },
    {
        "name": "Dhrikan Kalan",
        "zip_code": "50450"
    },
    {
        "name": "Sohawa Bulani",
        "zip_code": "50470"
    },
    {
        "name": "Kathiala Sheikhan",
        "zip_code": "50480"
    },
    {
        "name": "Bosal",
        "zip_code": "50486"
    },
    {
        "name": "Mianwal",
        "zip_code": "50490"
    },
    {
        "name": "Gojra",
        "zip_code": "50500"
    },
    {
        "name": "Rukkan",
        "zip_code": "50510"
    },
    {
        "name": "Matsonabad",
        "zip_code": "50520"
    },
    {
        "name": "Malakwal",
        "zip_code": "50530"
    },
    {
        "name": "Mona Remount Depot",
        "zip_code": "50560"
    },
    {
        "name": "Miana Gondal",
        "zip_code": "50580"
    },
    {
        "name": "Devna Mandi (Basco)",
        "zip_code": "50600"
    },
    {
        "name": "Khokhar Gharbi",
        "zip_code": "50610"
    },
    {
        "name": "Kunjah",
        "zip_code": "50620"
    },
    {
        "name": "Mand",
        "zip_code": "50622"
    },
    {
        "name": "Langay",
        "zip_code": "50624"
    },
    {
        "name": "Mangowal",
        "zip_code": "50640"
    },
    {
        "name": "Jokalian",
        "zip_code": "50660"
    },
    {
        "name": "Shadiwal",
        "zip_code": "50680"
    },
    {
        "name": "Gujrat Gpo",
        "zip_code": "50700"
    },
    {
        "name": "Adowal",
        "zip_code": "50730"
    },
    {
        "name": "Sabowal",
        "zip_code": "50750"
    },
    {
        "name": "Moinuddin Pur",
        "zip_code": "50760"
    },
    {
        "name": "Sheikh Pur",
        "zip_code": "50764"
    },
    {
        "name": "Alipur",
        "zip_code": "50766"
    },
    {
        "name": "Jalal Pur Jattan",
        "zip_code": "50780"
    },
    {
        "name": "Chopala",
        "zip_code": "50790"
    },
    {
        "name": "Lakhan Wal",
        "zip_code": "50800"
    },
    {
        "name": "Tanda",
        "zip_code": "50810"
    },
    {
        "name": "Surakhpur",
        "zip_code": "50812"
    },
    {
        "name": "Bhagowal Kalan",
        "zip_code": "50820"
    },
    {
        "name": "Karianwala",
        "zip_code": "50830"
    },
    {
        "name": "Chak Kamala",
        "zip_code": "50840"
    },
    {
        "name": "Awan Sharif",
        "zip_code": "50870"
    },
    {
        "name": "Kawankh",
        "zip_code": "50880"
    },
    {
        "name": "Hajiwala",
        "zip_code": "50890"
    },
    {
        "name": "Dhodha Sharif",
        "zip_code": "50892"
    },
    {
        "name": "Fateh Pur",
        "zip_code": "50900"
    },
    {
        "name": "Daulat Nagar",
        "zip_code": "50910"
    },
    {
        "name": "Makiana",
        "zip_code": "50920"
    },
    {
        "name": "Nindowal",
        "zip_code": "50922"
    },
    {
        "name": "Buzurang Wal",
        "zip_code": "50930"
    },
    {
        "name": "Sabour",
        "zip_code": "50932"
    },
    {
        "name": "Nagrian",
        "zip_code": "50934"
    },
    {
        "name": "Bhakhre Wali",
        "zip_code": "50940"
    },
    {
        "name": "Pero Shah",
        "zip_code": "50950"
    },
    {
        "name": "Bhota",
        "zip_code": "50960"
    },
    {
        "name": "Bhaddar",
        "zip_code": "50964"
    },
    {
        "name": "Burch Basuha",
        "zip_code": "50970"
    },
    {
        "name": "Sidh",
        "zip_code": "50972"
    },
    {
        "name": "Kakrali",
        "zip_code": "50980"
    },
    {
        "name": "Samrala",
        "zip_code": "50982"
    },
    {
        "name": "Kotla",
        "zip_code": "50990"
    },
    {
        "name": "Sariya",
        "zip_code": "50994"
    },
    {
        "name": "Daska",
        "zip_code": "51010"
    },
    {
        "name": "Jamki",
        "zip_code": "51020"
    },
    {
        "name": "Bhopal Wala",
        "zip_code": "51030"
    },
    {
        "name": "Verowala",
        "zip_code": "51032"
    },
    {
        "name": "Ghunike",
        "zip_code": "51040"
    },
    {
        "name": "Ugoke",
        "zip_code": "51050"
    },
    {
        "name": "Sahowala",
        "zip_code": "51060"
    },
    {
        "name": "Sambrial",
        "zip_code": "51070"
    },
    {
        "name": "Begowala",
        "zip_code": "51080"
    },
    {
        "name": "Ghartal",
        "zip_code": "51090"
    },
    {
        "name": "Jatheki",
        "zip_code": "51100"
    },
    {
        "name": "Mandir Syedan",
        "zip_code": "51120"
    },
    {
        "name": "Kullowal",
        "zip_code": "51130"
    },
    {
        "name": "Mundeke Goraya",
        "zip_code": "51140"
    },
    {
        "name": "Kapurowali",
        "zip_code": "51150"
    },
    {
        "name": "Marala",
        "zip_code": "51200"
    },
    {
        "name": "Kotli Loharan East",
        "zip_code": "51210"
    },
    {
        "name": "Kotli Loharan West",
        "zip_code": "51220"
    },
    {
        "name": "Maraki Wal",
        "zip_code": "51230"
    },
    {
        "name": "Kharota Syedan",
        "zip_code": "51240"
    },
    {
        "name": "Bhirth",
        "zip_code": "51250"
    },
    {
        "name": "Bhoth",
        "zip_code": "51260"
    },
    {
        "name": "Chaprar",
        "zip_code": "51270"
    },
    {
        "name": "Saidpur",
        "zip_code": "51274"
    },
    {
        "name": "Phuklian",
        "zip_code": "51280"
    },
    {
        "name": "Sialkot Cantt.",
        "zip_code": "51300"
    },
    {
        "name": "Sialkot Gpo",
        "zip_code": "51310"
    },
    {
        "name": "Dallowali",
        "zip_code": "51320"
    },
    {
        "name": "Kotli Behram",
        "zip_code": "51330"
    },
    {
        "name": "Small Industries Estate",
        "zip_code": "51340"
    },
    {
        "name": "Fateh Garh",
        "zip_code": "51350"
    },
    {
        "name": "Gohadapur",
        "zip_code": "51360"
    },
    {
        "name": "Gondal",
        "zip_code": "51370"
    },
    {
        "name": "Malkey Klan",
        "zip_code": "51380"
    },
    {
        "name": "Lengriali",
        "zip_code": "51400"
    },
    {
        "name": "Bajra Garhi",
        "zip_code": "51402"
    },
    {
        "name": "Badiana",
        "zip_code": "51410"
    },
    {
        "name": "Chawinda",
        "zip_code": "51420"
    },
    {
        "name": "Mehrajke",
        "zip_code": "51430"
    },
    {
        "name": "Chobara",
        "zip_code": "51450"
    },
    {
        "name": "Khan Pur Syedan",
        "zip_code": "51460"
    },
    {
        "name": "Pasrur",
        "zip_code": "51480"
    },
    {
        "name": "Ban Gajwa",
        "zip_code": "51490"
    },
    {
        "name": "Satrah",
        "zip_code": "51500"
    },
    {
        "name": "Wadala Sandhuan",
        "zip_code": "51510"
    },
    {
        "name": "Nowshera Kakezian",
        "zip_code": "51520"
    },
    {
        "name": "Kalas Wala",
        "zip_code": "51530"
    },
    {
        "name": "Qila Ahmed Abad (Qila Sobha Singh)",
        "zip_code": "51540"
    },
    {
        "name": "Talwandi Bhindran",
        "zip_code": "51570"
    },
    {
        "name": "Nonar",
        "zip_code": "51580"
    },
    {
        "name": "Narowal Gpo",
        "zip_code": "51600"
    },
    {
        "name": "Sankhatra",
        "zip_code": "51650"
    },
    {
        "name": "Dhamthal",
        "zip_code": "51660"
    },
    {
        "name": "Zafar Wal",
        "zip_code": "51670"
    },
    {
        "name": "Badomali",
        "zip_code": "51700"
    },
    {
        "name": "Jassar",
        "zip_code": "51750"
    },
    {
        "name": "Kanjrur",
        "zip_code": "51760"
    },
    {
        "name": "Nurkot",
        "zip_code": "51770"
    },
    {
        "name": "Baramanga",
        "zip_code": "51780"
    },
    {
        "name": "Shakar Garh",
        "zip_code": "51800"
    },
    {
        "name": "Lessar Kalan",
        "zip_code": "51804"
    },
    {
        "name": "Naina Kot",
        "zip_code": "51820"
    },
    {
        "name": "Ikhlaspur",
        "zip_code": "51830"
    },
    {
        "name": "Sukho Chak",
        "zip_code": "51840"
    },
    {
        "name": "Wazirabad",
        "zip_code": "52000"
    },
    {
        "name": "Dhonkal",
        "zip_code": "52010"
    },
    {
        "name": "Nizam Abad",
        "zip_code": "52020"
    },
    {
        "name": "Sohdra",
        "zip_code": "52030"
    },
    {
        "name": "Khanki",
        "zip_code": "52050"
    },
    {
        "name": "Ahmad Nagar",
        "zip_code": "52070"
    },
    {
        "name": "Mohlanke",
        "zip_code": "52072"
    },
    {
        "name": "Kalaskey",
        "zip_code": "52074"
    },
    {
        "name": "Ali Pur Chatha",
        "zip_code": "52080"
    },
    {
        "name": "Rasul Nagar",
        "zip_code": "52090"
    },
    {
        "name": "Qasirabad Colony",
        "zip_code": "52100"
    },
    {
        "name": "Wanike Tarar",
        "zip_code": "52104"
    },
    {
        "name": "Hafiz Abad",
        "zip_code": "52110"
    },
    {
        "name": "Jhallan",
        "zip_code": "52120"
    },
    {
        "name": "Kohlowala",
        "zip_code": "52130"
    },
    {
        "name": "Wapda Town",
        "zip_code": "52132"
    },
    {
        "name": "Kassoki",
        "zip_code": "52140"
    },
    {
        "name": "Kaleke",
        "zip_code": "52150"
    },
    {
        "name": "Sukhe Ke Mandi",
        "zip_code": "52160"
    },
    {
        "name": "Jalalpur Nau",
        "zip_code": "52170"
    },
    {
        "name": "Pindi Bhatian",
        "zip_code": "52180"
    },
    {
        "name": "Ghakhar",
        "zip_code": "52200"
    },
    {
        "name": "Mitran Wali",
        "zip_code": "52220"
    },
    {
        "name": "Gujranwala Cantt",
        "zip_code": "52230"
    },
    {
        "name": "Zamama",
        "zip_code": "52240"
    },
    {
        "name": "Gujranwala Gpo",
        "zip_code": "52250"
    },
    {
        "name": "Wahdat Colony",
        "zip_code": "52254"
    },
    {
        "name": "Gujranwala Secondary Board",
        "zip_code": "52256"
    },
    {
        "name": "Gujranwala Peoples Colony",
        "zip_code": "52260"
    },
    {
        "name": "Talwandi Rahwali",
        "zip_code": "52280"
    },
    {
        "name": "Gujranwala Climax Abad",
        "zip_code": "52290"
    },
    {
        "name": "Gujranwala Anwar Industries",
        "zip_code": "52300"
    },
    {
        "name": "Jalil Town",
        "zip_code": "52302"
    },
    {
        "name": "Gondalan Wala",
        "zip_code": "52310"
    },
    {
        "name": "Ladhe Wala Waraich",
        "zip_code": "52320"
    },
    {
        "name": "Papnakha",
        "zip_code": "52326"
    },
    {
        "name": "Qila Didar Singh",
        "zip_code": "52330"
    },
    {
        "name": "Nithrike",
        "zip_code": "52334"
    },
    {
        "name": "Botala Sardar Jhanda Singh",
        "zip_code": "52340"
    },
    {
        "name": "Soharan Chatha",
        "zip_code": "52342"
    },
    {
        "name": "Budha Goraya",
        "zip_code": "52356"
    },
    {
        "name": "Qila Mian Singh",
        "zip_code": "52360"
    },
    {
        "name": "Sadhoke",
        "zip_code": "52368"
    },
    {
        "name": "Naushera Virkan",
        "zip_code": "52370"
    },
    {
        "name": "Tatley Aali",
        "zip_code": "52380"
    },
    {
        "name": "Muhaliwala",
        "zip_code": "52390"
    },
    {
        "name": "Aroop",
        "zip_code": "52400"
    },
    {
        "name": "Vaniawala",
        "zip_code": "52404"
    },
    {
        "name": "Nizam Pur Gujranwala",
        "zip_code": "52410"
    },
    {
        "name": "Emin Abad More",
        "zip_code": "52450"
    },
    {
        "name": "Emin Abad",
        "zip_code": "52460"
    },
    {
        "name": "Wando",
        "zip_code": "52464"
    },
    {
        "name": "Kamo Ke",
        "zip_code": "52470"
    },
    {
        "name": "Lahore Kahna Nau",
        "zip_code": "53100"
    },
    {
        "name": "Barki",
        "zip_code": "53200"
    },
    {
        "name": "Lahore Bata Pur",
        "zip_code": "53400"
    },
    {
        "name": "Jallo",
        "zip_code": "53500"
    },
    {
        "name": "Wagha Lahore",
        "zip_code": "53600"
    },
    {
        "name": "Niaz Beg Thokar",
        "zip_code": "53700"
    },
    {
        "name": "Lahore E.M.E Society P.O",
        "zip_code": "53710"
    },
    {
        "name": "Lahore Bahria Town",
        "zip_code": "53720"
    },
    {
        "name": "Chuhang",
        "zip_code": "53800"
    },
    {
        "name": "Lahore Gpo",
        "zip_code": "54000"
    },
    {
        "name": "Naulakha",
        "zip_code": "54010"
    },
    {
        "name": "Lahore Alflah",
        "zip_code": "54020"
    },
    {
        "name": "Lahore Aitcheson College",
        "zip_code": "54030"
    },
    {
        "name": "Shah Alam Market",
        "zip_code": "54100"
    },
    {
        "name": "Shahi Mohallah",
        "zip_code": "54110"
    },
    {
        "name": "Timber Market",
        "zip_code": "54120"
    },
    {
        "name": "Lahore Multan Road Post Office",
        "zip_code": "54500"
    },
    {
        "name": "Rewaz Garden",
        "zip_code": "54510"
    },
    {
        "name": "Lahore Pt & T Audit",
        "zip_code": "54550"
    },
    {
        "name": "Lahore Pmg Punjab Post Office",
        "zip_code": "54560"
    },
    {
        "name": "Lahore Allama Iqbal Town",
        "zip_code": "54570"
    },
    {
        "name": "Sabzazar",
        "zip_code": "54572"
    },
    {
        "name": "Lahore New University Campus",
        "zip_code": "54590"
    },
    {
        "name": "Lahore Ferozepur Road",
        "zip_code": "54600"
    },
    {
        "name": "Lahore Shadman Women Model P.O",
        "zip_code": "54610"
    },
    {
        "name": "Lahore Secondary Board",
        "zip_code": "54650"
    },
    {
        "name": "Lahore Gulberg Colony",
        "zip_code": "54660"
    },
    {
        "name": "Lahore Model Town",
        "zip_code": "54700"
    },
    {
        "name": "Lahore Ismail Nagar",
        "zip_code": "54760"
    },
    {
        "name": "Lahore Nishtar Town",
        "zip_code": "54762"
    },
    {
        "name": "Lahore Township Sector A-",
        "zip_code": "54770"
    },
    {
        "name": "Lahore Awan Coloney",
        "zip_code": "54780"
    },
    {
        "name": "Lahore Johar Town",
        "zip_code": "54782"
    },
    {
        "name": "River View, Lahore",
        "zip_code": "54784"
    },
    {
        "name": "Mansoora",
        "zip_code": "54790"
    },
    {
        "name": "Lahore Defence Housing Soicety",
        "zip_code": "54792"
    },
    {
        "name": "Lahore C.M.A. Cantt.",
        "zip_code": "54800"
    },
    {
        "name": "Lahore Cantt. Gpo",
        "zip_code": "54810"
    },
    {
        "name": "Moghalpura",
        "zip_code": "54840"
    },
    {
        "name": "Lahore Harbans Pura",
        "zip_code": "54850"
    },
    {
        "name": "Lahore Tajpura",
        "zip_code": "54870"
    },
    {
        "name": "Lahore Punjab Governor House",
        "zip_code": "54880"
    },
    {
        "name": "Lahore Engineering University",
        "zip_code": "54890"
    },
    {
        "name": "Chah Miran",
        "zip_code": "54900"
    },
    {
        "name": "Lahore Baghbanpura",
        "zip_code": "54920"
    },
    {
        "name": "Shahdara Bagh",
        "zip_code": "54950"
    },
    {
        "name": "Kanganpur",
        "zip_code": "55000"
    },
    {
        "name": "Usman Wala",
        "zip_code": "55010"
    },
    {
        "name": "Talwandi",
        "zip_code": "55020"
    },
    {
        "name": "Khudian",
        "zip_code": "55030"
    },
    {
        "name": "Kasur Gpo",
        "zip_code": "55050"
    },
    {
        "name": "Naseerabad Taxtile Mills",
        "zip_code": "55060"
    },
    {
        "name": "Ganda Singh Wala",
        "zip_code": "55100"
    },
    {
        "name": "Mustafabad Kasur",
        "zip_code": "55110"
    },
    {
        "name": "Raja Jang",
        "zip_code": "55140"
    },
    {
        "name": "Bhambha",
        "zip_code": "55142"
    },
    {
        "name": "Raiwind",
        "zip_code": "55150"
    },
    {
        "name": "Kangra, Kasur",
        "zip_code": "55154"
    },
    {
        "name": "Lahore Kohinoor Energy",
        "zip_code": "55160"
    },
    {
        "name": "Robby Taxtile Mill Kasur",
        "zip_code": "55170"
    },
    {
        "name": "Kot Radha Kishan",
        "zip_code": "55180"
    },
    {
        "name": "Clarkabad",
        "zip_code": "55190"
    },
    {
        "name": "Chhanga Manga",
        "zip_code": "55200"
    },
    {
        "name": "Balloki",
        "zip_code": "55210"
    },
    {
        "name": "Chunian",
        "zip_code": "55220"
    },
    {
        "name": "Ellahabad",
        "zip_code": "55230"
    },
    {
        "name": "Jamber Kalan",
        "zip_code": "55250"
    },
    {
        "name": "Bhai Pheru",
        "zip_code": "55260"
    },
    {
        "name": "Manga Mandi",
        "zip_code": "55270"
    },
    {
        "name": "Pattoki",
        "zip_code": "55300"
    },
    {
        "name": "Wan Radha Ram",
        "zip_code": "55360"
    },
    {
        "name": "Mandi Ahmed Abad",
        "zip_code": "56000"
    },
    {
        "name": "Basir Pur",
        "zip_code": "56010"
    },
    {
        "name": "Haveli Lakkha",
        "zip_code": "56020"
    },
    {
        "name": "Sulemanki Head Works",
        "zip_code": "56030"
    },
    {
        "name": "Akhtar Abad",
        "zip_code": "56100"
    },
    {
        "name": "Renala Khurd",
        "zip_code": "56130"
    },
    {
        "name": "Sher Garh",
        "zip_code": "56140"
    },
    {
        "name": "Anwar Shaeed Colony Renala Khurd",
        "zip_code": "56150"
    },
    {
        "name": "Hujra",
        "zip_code": "56170"
    },
    {
        "name": "Depalpur",
        "zip_code": "56180"
    },
    {
        "name": "Gogera",
        "zip_code": "56200"
    },
    {
        "name": "Jaboka",
        "zip_code": "56290"
    },
    {
        "name": "Okara Gpo",
        "zip_code": "56300"
    },
    {
        "name": "Chak 53/2-L",
        "zip_code": "56316"
    },
    {
        "name": "Okara 49/3 R",
        "zip_code": "56320"
    },
    {
        "name": "Chak No.49/3r",
        "zip_code": "56320"
    },
    {
        "name": "Chak No.36/2l",
        "zip_code": "56330"
    },
    {
        "name": "Military Farms Okara",
        "zip_code": "56350"
    },
    {
        "name": "Okara Cantonment",
        "zip_code": "56400"
    },
    {
        "name": "Okara Ammunition Depot",
        "zip_code": "56410"
    },
    {
        "name": "Sahiwal Gpo",
        "zip_code": "57000"
    },
    {
        "name": "Chak 90/9-L",
        "zip_code": "57030"
    },
    {
        "name": "Sahiwal Government College",
        "zip_code": "57040"
    },
    {
        "name": "Farid Town Sahiwal",
        "zip_code": "57050"
    },
    {
        "name": "Chak 85/6 R (Kot Khadim Ali Shah)",
        "zip_code": "57070"
    },
    {
        "name": "Noor Shah",
        "zip_code": "57080"
    },
    {
        "name": "Chak 91/6-R",
        "zip_code": "57100"
    },
    {
        "name": "Malka Hans",
        "zip_code": "57110"
    },
    {
        "name": "Chak 120/9-L",
        "zip_code": "57130"
    },
    {
        "name": "Chak Shafi",
        "zip_code": "57150"
    },
    {
        "name": "Harappa Railway Station",
        "zip_code": "57160"
    },
    {
        "name": "Harappa City",
        "zip_code": "57170"
    },
    {
        "name": "Chak-5/11l",
        "zip_code": "57174"
    },
    {
        "name": "Chak 145/9-L",
        "zip_code": "57180"
    },
    {
        "name": "Chichawatni",
        "zip_code": "57200"
    },
    {
        "name": "Ghazi Abad",
        "zip_code": "57210"
    },
    {
        "name": "Sheikh Fazal",
        "zip_code": "57214"
    },
    {
        "name": "Chak 168/9-L",
        "zip_code": "57230"
    },
    {
        "name": "Kassowal",
        "zip_code": "57300"
    },
    {
        "name": "Chak 120/13-Al",
        "zip_code": "57330"
    },
    {
        "name": "Chak 119/13-Al",
        "zip_code": "57340"
    },
    {
        "name": "Iqbal Nagar",
        "zip_code": "57350"
    },
    {
        "name": "Ninty (90) More, Sahiwal",
        "zip_code": "57360"
    },
    {
        "name": "Pak Pattan Sharif",
        "zip_code": "57400"
    },
    {
        "name": "Chak No.73/5-L (Moghal)",
        "zip_code": "57430"
    },
    {
        "name": "Chak Bedi",
        "zip_code": "57440"
    },
    {
        "name": "Arif Wala",
        "zip_code": "57450"
    },
    {
        "name": "Adda Gambeer",
        "zip_code": "57460"
    },
    {
        "name": "Al-Jamia",
        "zip_code": "57470"
    },
    {
        "name": "Qabula",
        "zip_code": "57480"
    },
    {
        "name": "Chal No.127/Eb",
        "zip_code": "57490"
    },
    {
        "name": "Mian Channu",
        "zip_code": "58000"
    },
    {
        "name": "Mian Channu Railway Station",
        "zip_code": "58030"
    },
    {
        "name": "Talamba",
        "zip_code": "58080"
    },
    {
        "name": "Kacha Khuh",
        "zip_code": "58100"
    },
    {
        "name": "Hanuman Garh",
        "zip_code": "58110"
    },
    {
        "name": "Khanewal Ammunition Depot",
        "zip_code": "58120"
    },
    {
        "name": "Khanewal Gpo",
        "zip_code": "58150"
    },
    {
        "name": "Peerowal",
        "zip_code": "58152"
    },
    {
        "name": "Khanewal Railway Station",
        "zip_code": "58160"
    },
    {
        "name": "Makhdoompur Phoharan",
        "zip_code": "58170"
    },
    {
        "name": "Abdul Hakim",
        "zip_code": "58180"
    },
    {
        "name": "Sarai Sidhu",
        "zip_code": "58190"
    },
    {
        "name": "Jahania",
        "zip_code": "58200"
    },
    {
        "name": "Chak 138/10 R",
        "zip_code": "58202"
    },
    {
        "name": "Thatha Sadiqabad",
        "zip_code": "58210"
    },
    {
        "name": "Chak 136/10-R",
        "zip_code": "58220"
    },
    {
        "name": "Kot Allah Singh",
        "zip_code": "58230"
    },
    {
        "name": "Punjab Small Industry",
        "zip_code": "58240"
    },
    {
        "name": "Kabir Wala",
        "zip_code": "58250"
    },
    {
        "name": "Mahni Sial",
        "zip_code": "58256"
    },
    {
        "name": "Punja Kassi",
        "zip_code": "58258"
    },
    {
        "name": "Kohiwala",
        "zip_code": "58260"
    },
    {
        "name": "Kukkar Hatta",
        "zip_code": "58270"
    },
    {
        "name": "Kadirpur Rawan",
        "zip_code": "59000"
    },
    {
        "name": "Tatepur",
        "zip_code": "59020"
    },
    {
        "name": "Piran Ghaib",
        "zip_code": "59030"
    },
    {
        "name": "Javed Nagar",
        "zip_code": "59050"
    },
    {
        "name": "Multan Fertilizer Project",
        "zip_code": "59060"
    },
    {
        "name": "Suraj Miani",
        "zip_code": "59070"
    },
    {
        "name": "Makhdum Rashid",
        "zip_code": "59100"
    },
    {
        "name": "Kutabpur",
        "zip_code": "59110"
    },
    {
        "name": "Dunya Pur",
        "zip_code": "59120"
    },
    {
        "name": "Lar",
        "zip_code": "59130"
    },
    {
        "name": "Basti Malook",
        "zip_code": "59150"
    },
    {
        "name": "Ismailabad",
        "zip_code": "59200"
    },
    {
        "name": "Sikandar Abad",
        "zip_code": "59210"
    },
    {
        "name": "Shujabad",
        "zip_code": "59220"
    },
    {
        "name": "Matotli",
        "zip_code": "59240"
    },
    {
        "name": "Jalalpur Pirwala",
        "zip_code": "59250"
    },
    {
        "name": "Khan Bela",
        "zip_code": "59260"
    },
    {
        "name": "Bahadar Pur",
        "zip_code": "59300"
    },
    {
        "name": "Kotali Nijabat",
        "zip_code": "59310"
    },
    {
        "name": "Lodhran",
        "zip_code": "59320"
    },
    {
        "name": "Dhanot",
        "zip_code": "59330"
    },
    {
        "name": "Kahror Pakka",
        "zip_code": "59340"
    },
    {
        "name": "Multan Gpo",
        "zip_code": "60000"
    },
    {
        "name": "Galay Wala",
        "zip_code": "60010"
    },
    {
        "name": "Chak-379/Wb",
        "zip_code": "60030"
    },
    {
        "name": "Multan Army Aviation Base",
        "zip_code": "60050"
    },
    {
        "name": "Budhla Sant",
        "zip_code": "60060"
    },
    {
        "name": "Mumtaz Abad",
        "zip_code": "60600"
    },
    {
        "name": "New Multan",
        "zip_code": "60650"
    },
    {
        "name": "Gulgasht Colony",
        "zip_code": "60700"
    },
    {
        "name": "Secondary Board",
        "zip_code": "60750"
    },
    {
        "name": "Bahauddin Zakaria University",
        "zip_code": "60800"
    },
    {
        "name": "Industrial Estate",
        "zip_code": "60900"
    },
    {
        "name": "Gaggo",
        "zip_code": "61000"
    },
    {
        "name": "Burewala",
        "zip_code": "61010"
    },
    {
        "name": "Burewala Katchehry",
        "zip_code": "61040"
    },
    {
        "name": "Dawood Abad",
        "zip_code": "61050"
    },
    {
        "name": "Machhian Wala",
        "zip_code": "61070"
    },
    {
        "name": "Vehari Gpo",
        "zip_code": "61100"
    },
    {
        "name": "Luddan",
        "zip_code": "61110"
    },
    {
        "name": "Vehari Peoples Colony",
        "zip_code": "61120"
    },
    {
        "name": "Garha More",
        "zip_code": "61150"
    },
    {
        "name": "Mitru",
        "zip_code": "61160"
    },
    {
        "name": "Tiba Sultanpur",
        "zip_code": "61170"
    },
    {
        "name": "Chowk Methla",
        "zip_code": "61172"
    },
    {
        "name": "Dokota",
        "zip_code": "61180"
    },
    {
        "name": "Mailsi",
        "zip_code": "61200"
    },
    {
        "name": "Dilawar Farm Sargana",
        "zip_code": "61202"
    },
    {
        "name": "Mailsi Colony",
        "zip_code": "61210"
    },
    {
        "name": "Karampur",
        "zip_code": "61220"
    },
    {
        "name": "Jalla Jim",
        "zip_code": "61230"
    },
    {
        "name": "Sardar Pur Jhandeer",
        "zip_code": "61240"
    },
    {
        "name": "Fort Morot",
        "zip_code": "62000"
    },
    {
        "name": "Chak 117/M",
        "zip_code": "62004"
    },
    {
        "name": "Fort Abbas",
        "zip_code": "62020"
    },
    {
        "name": "Chak 297/Hr",
        "zip_code": "62024"
    },
    {
        "name": "Chak 227/R-",
        "zip_code": "62030"
    },
    {
        "name": "Khichi Wala",
        "zip_code": "62040"
    },
    {
        "name": "Faqir Wali",
        "zip_code": "62050"
    },
    {
        "name": "Chak 132/6-R",
        "zip_code": "62070"
    },
    {
        "name": "Chak 69/4-R",
        "zip_code": "62080"
    },
    {
        "name": "Haroon Abad",
        "zip_code": "62100"
    },
    {
        "name": "Dunga Bunga",
        "zip_code": "62110"
    },
    {
        "name": "Ram Pura",
        "zip_code": "62120"
    },
    {
        "name": "Mandi Sadiq Ganj",
        "zip_code": "62210"
    },
    {
        "name": "Minchin Abad",
        "zip_code": "62230"
    },
    {
        "name": "Sadiqia",
        "zip_code": "62250"
    },
    {
        "name": "Bahawal Nagar Gpo",
        "zip_code": "62300"
    },
    {
        "name": "Takht Mahal",
        "zip_code": "62310"
    },
    {
        "name": "Madarisa",
        "zip_code": "62320"
    },
    {
        "name": "Chishtian",
        "zip_code": "62350"
    },
    {
        "name": "Dahran Wala",
        "zip_code": "62380"
    },
    {
        "name": "Bakhshan Khan",
        "zip_code": "62400"
    },
    {
        "name": "Hasil Pur Mandi",
        "zip_code": "63000"
    },
    {
        "name": "Chhonawala",
        "zip_code": "63020"
    },
    {
        "name": "Pallah",
        "zip_code": "63030"
    },
    {
        "name": "Qaim Pur",
        "zip_code": "63040"
    },
    {
        "name": "Jamalpur Edso",
        "zip_code": "63050"
    },
    {
        "name": "Jamalpur",
        "zip_code": "63050"
    },
    {
        "name": "Khairpur Tamiwali",
        "zip_code": "63060"
    },
    {
        "name": "Dera Bakha",
        "zip_code": "63070"
    },
    {
        "name": "Bahawalpur Cantt",
        "zip_code": "63080"
    },
    {
        "name": "Inaiti",
        "zip_code": "63090"
    },
    {
        "name": "Bahawalpur Gpo",
        "zip_code": "63100"
    },
    {
        "name": "Bahawalpur Intermediate Secondry Board",
        "zip_code": "63170"
    },
    {
        "name": "Sadiq Public School Bahawalpur",
        "zip_code": "63180"
    },
    {
        "name": "Yazman",
        "zip_code": "63210"
    },
    {
        "name": "Chak 117/D.B",
        "zip_code": "63230"
    },
    {
        "name": "Head Rajkan",
        "zip_code": "63236"
    },
    {
        "name": "Samasatta",
        "zip_code": "63250"
    },
    {
        "name": "Khanqah Mubarik",
        "zip_code": "63270"
    },
    {
        "name": "Ashraf Sugar Mills Bahawalpur",
        "zip_code": "63274"
    },
    {
        "name": "Mubarikpur",
        "zip_code": "63290"
    },
    {
        "name": "Noorpur Nauranga",
        "zip_code": "63300"
    },
    {
        "name": "Hatheji",
        "zip_code": "63320"
    },
    {
        "name": "Ahmad Pur East",
        "zip_code": "63350"
    },
    {
        "name": "Sahiwala",
        "zip_code": "63354"
    },
    {
        "name": "Sadiq Garh Palace",
        "zip_code": "63360"
    },
    {
        "name": "Kotla Musa Khan",
        "zip_code": "63400"
    },
    {
        "name": "Uch Sharif",
        "zip_code": "63410"
    },
    {
        "name": "Panjnad",
        "zip_code": "63420"
    },
    {
        "name": "Chani Goth",
        "zip_code": "63450"
    },
    {
        "name": "Liaqat Pur",
        "zip_code": "64000"
    },
    {
        "name": "Allah Abad",
        "zip_code": "64020"
    },
    {
        "name": "Trinda Muhammad Panah",
        "zip_code": "64030"
    },
    {
        "name": "Khan Bela",
        "zip_code": "64040"
    },
    {
        "name": "Feroza",
        "zip_code": "64070"
    },
    {
        "name": "Hysons Sugar Mills Jetha Bhutta",
        "zip_code": "64080"
    },
    {
        "name": "Khan Pur",
        "zip_code": "64100"
    },
    {
        "name": "Sohja",
        "zip_code": "64120"
    },
    {
        "name": "Zahir Peer",
        "zip_code": "64130"
    },
    {
        "name": "Chachran Sharif",
        "zip_code": "64140"
    },
    {
        "name": "Bagho Bahr",
        "zip_code": "64160"
    },
    {
        "name": "Kot Somaba",
        "zip_code": "64170"
    },
    {
        "name": "Tarinda R.S.",
        "zip_code": "64180"
    },
    {
        "name": "Rahimyar Khan Gpo",
        "zip_code": "64200"
    },
    {
        "name": "Chak 102/P",
        "zip_code": "64220"
    },
    {
        "name": "Pull Sunny",
        "zip_code": "64230"
    },
    {
        "name": "Wapda Scarp Colony",
        "zip_code": "64300"
    },
    {
        "name": "Iqbalabad",
        "zip_code": "64310"
    },
    {
        "name": "Mian Wali Qureshian",
        "zip_code": "64320"
    },
    {
        "name": "Sadik Abad",
        "zip_code": "64350"
    },
    {
        "name": "Jamal Din Wali",
        "zip_code": "64370"
    },
    {
        "name": "Ahmadpur Lama",
        "zip_code": "64380"
    },
    {
        "name": "Bhong",
        "zip_code": "64384"
    },
    {
        "name": "Bangla Manthar",
        "zip_code": "64410"
    },
    {
        "name": "Machi Goth",
        "zip_code": "64450"
    },
    {
        "name": "Sanjar Pur",
        "zip_code": "64460"
    },
    {
        "name": "Kot Subzal",
        "zip_code": "64470"
    },
    {
        "name": "Jandraka",
        "zip_code": "65280"
    },
    {
        "name": "Dharki",
        "zip_code": "65010"
    },
    {
        "name": "Fertilizer Factory Dharki",
        "zip_code": "65020"
    },
    {
        "name": "Ubauro",
        "zip_code": "65030"
    },
    {
        "name": "Khambara",
        "zip_code": "65034"
    },
    {
        "name": "Mirpur Mathelo",
        "zip_code": "65040"
    },
    {
        "name": "Pak Saudi Fertilizar Mirpur Mathelo",
        "zip_code": "65050"
    },
    {
        "name": "Dad Laghari",
        "zip_code": "65052"
    },
    {
        "name": "Jarwar",
        "zip_code": "65060"
    },
    {
        "name": "Khanpur Mahar",
        "zip_code": "65070"
    },
    {
        "name": "Adil Pur",
        "zip_code": "65080"
    },
    {
        "name": "Sarhad",
        "zip_code": "65100"
    },
    {
        "name": "Ghotki",
        "zip_code": "65110"
    },
    {
        "name": "Pano Akil",
        "zip_code": "65120"
    },
    {
        "name": "Pannu Akil Cantt.",
        "zip_code": "65130"
    },
    {
        "name": "Haleji Sharif",
        "zip_code": "65140"
    },
    {
        "name": "Saleh Pat",
        "zip_code": "65150"
    },
    {
        "name": "Thrachani",
        "zip_code": "65168"
    },
    {
        "name": "Rohri",
        "zip_code": "65170"
    },
    {
        "name": "Rohri Cement Works",
        "zip_code": "65180"
    },
    {
        "name": "Sukkur Gpo",
        "zip_code": "65200"
    },
    {
        "name": "Sukkur Board Of Secondary Education",
        "zip_code": "65210"
    },
    {
        "name": "Berrari",
        "zip_code": "65220"
    },
    {
        "name": "Babarloi",
        "zip_code": "65270"
    },
    {
        "name": "Kandira",
        "zip_code": "65300"
    },
    {
        "name": "Paf Airport",
        "zip_code": "65310"
    },
    {
        "name": "Arain Road",
        "zip_code": "65320"
    },
    {
        "name": "Bagarji",
        "zip_code": "65330"
    },
    {
        "name": "Piryalo",
        "zip_code": "66000"
    },
    {
        "name": "Khair Pur Gpo",
        "zip_code": "66020"
    },
    {
        "name": "Pri Jo Goth",
        "zip_code": "66030"
    },
    {
        "name": "Ahmed Pur",
        "zip_code": "66040"
    },
    {
        "name": "Kot Digi",
        "zip_code": "66060"
    },
    {
        "name": "Chundiko",
        "zip_code": "66062"
    },
    {
        "name": "Gambat",
        "zip_code": "66070"
    },
    {
        "name": "Agra",
        "zip_code": "66074"
    },
    {
        "name": "F.S.Mills Gambat",
        "zip_code": "66080"
    },
    {
        "name": "Khurra",
        "zip_code": "66090"
    },
    {
        "name": "Rani Pur",
        "zip_code": "66100"
    },
    {
        "name": "Consolidated Sugar Mills Rani Pur",
        "zip_code": "66104"
    },
    {
        "name": "Sobho Dera",
        "zip_code": "66110"
    },
    {
        "name": "Kumb",
        "zip_code": "66120"
    },
    {
        "name": "Buzdar",
        "zip_code": "66130"
    },
    {
        "name": "Mirwah",
        "zip_code": "66150"
    },
    {
        "name": "Thehri",
        "zip_code": "66160"
    },
    {
        "name": "Sorah",
        "zip_code": "66170"
    },
    {
        "name": "Hingoraja",
        "zip_code": "66190"
    },
    {
        "name": "Setharja",
        "zip_code": "66200"
    },
    {
        "name": "Chang",
        "zip_code": "66300"
    },
    {
        "name": "Mahrabpur",
        "zip_code": "67000"
    },
    {
        "name": "Kotri Kabir",
        "zip_code": "67010"
    },
    {
        "name": "Tando Mir Ali",
        "zip_code": "67020"
    },
    {
        "name": "Khan Wahan",
        "zip_code": "67030"
    },
    {
        "name": "Tunia Baga Shah",
        "zip_code": "67034"
    },
    {
        "name": "Aqil Shah",
        "zip_code": "67040"
    },
    {
        "name": "Mohabat Dero",
        "zip_code": "67060"
    },
    {
        "name": "Darbelo",
        "zip_code": "67070"
    },
    {
        "name": "Tharu Shah",
        "zip_code": "67080"
    },
    {
        "name": "Bhorti",
        "zip_code": "67084"
    },
    {
        "name": "Mithiani",
        "zip_code": "67100"
    },
    {
        "name": "New Jatoi",
        "zip_code": "67110"
    },
    {
        "name": "Sadoja",
        "zip_code": "67120"
    },
    {
        "name": "Moro",
        "zip_code": "67130"
    },
    {
        "name": "Mubbarik Ali Buriro",
        "zip_code": "67150"
    },
    {
        "name": "Qamarabad",
        "zip_code": "67160"
    },
    {
        "name": "Noor Jhanian",
        "zip_code": "67180"
    },
    {
        "name": "Daulatpur",
        "zip_code": "67190"
    },
    {
        "name": "Qazi Ahmed",
        "zip_code": "67200"
    },
    {
        "name": "Shadi Khan Chandio",
        "zip_code": "67204"
    },
    {
        "name": "Sakrand",
        "zip_code": "67210"
    },
    {
        "name": "Goth Chaudhary Shah Nawaz",
        "zip_code": "67220"
    },
    {
        "name": "Agricultur Institute Nawabshah",
        "zip_code": "67230"
    },
    {
        "name": "Lakha Road",
        "zip_code": "67300"
    },
    {
        "name": "Bhiria Road",
        "zip_code": "67310"
    },
    {
        "name": "Lalbani",
        "zip_code": "67314"
    },
    {
        "name": "Bhiria City",
        "zip_code": "67320"
    },
    {
        "name": "Allah Ditto Bhambhro",
        "zip_code": "67322"
    },
    {
        "name": "Padidan",
        "zip_code": "67330"
    },
    {
        "name": "Padidan Town",
        "zip_code": "67340"
    },
    {
        "name": "Kalhora",
        "zip_code": "67350"
    },
    {
        "name": "Ghargochho",
        "zip_code": "67360"
    },
    {
        "name": "Naushero Feroz",
        "zip_code": "67370"
    },
    {
        "name": "Phul",
        "zip_code": "67380"
    },
    {
        "name": "Darya Khan Mari",
        "zip_code": "67390"
    },
    {
        "name": "Bandhi",
        "zip_code": "67400"
    },
    {
        "name": "Daur",
        "zip_code": "67410"
    },
    {
        "name": "Haberi",
        "zip_code": "67420"
    },
    {
        "name": "Nusrat 60 Mile Mori",
        "zip_code": "67430"
    },
    {
        "name": "Nawabshah Gpo",
        "zip_code": "67450"
    },
    {
        "name": "Buchari",
        "zip_code": "67470"
    },
    {
        "name": "Mehran University Of Engineering",
        "zip_code": "67480"
    },
    {
        "name": "Jam Sahib",
        "zip_code": "67500"
    },
    {
        "name": "Gupchani",
        "zip_code": "67510"
    },
    {
        "name": "Sarhari",
        "zip_code": "68010"
    },
    {
        "name": "Lundo",
        "zip_code": "68020"
    },
    {
        "name": "Shahdadpur",
        "zip_code": "68030"
    },
    {
        "name": "Police Training School Shahdadpur",
        "zip_code": "68040"
    },
    {
        "name": "Tando Adam",
        "zip_code": "68050"
    },
    {
        "name": "Berani",
        "zip_code": "68060"
    },
    {
        "name": "Jam Nawaz Ali",
        "zip_code": "68070"
    },
    {
        "name": "Nauabad",
        "zip_code": "68080"
    },
    {
        "name": "Sanghar Gpo",
        "zip_code": "68100"
    },
    {
        "name": "Gujri",
        "zip_code": "68120"
    },
    {
        "name": "Chak",
        "zip_code": "68122"
    },
    {
        "name": "Tando Mitha Khan",
        "zip_code": "68140"
    },
    {
        "name": "Shahpur Chakar",
        "zip_code": "68200"
    },
    {
        "name": "Khadro",
        "zip_code": "68210"
    },
    {
        "name": "Deh-22 Jamro",
        "zip_code": "68214"
    },
    {
        "name": "Sinjhoro",
        "zip_code": "68220"
    },
    {
        "name": "Jhol",
        "zip_code": "68230"
    },
    {
        "name": "Junejo Model Form Farm",
        "zip_code": "68300"
    },
    {
        "name": "Kandiari",
        "zip_code": "68310"
    },
    {
        "name": "Khipro",
        "zip_code": "68330"
    },
    {
        "name": "Tando Waso",
        "zip_code": "68340"
    },
    {
        "name": "Hathungo",
        "zip_code": "68350"
    },
    {
        "name": "Mirpur Khas Gpo",
        "zip_code": "69000"
    },
    {
        "name": "Muhammad Medical College",
        "zip_code": "69012"
    },
    {
        "name": "Satelitte Town Mirpur Khas",
        "zip_code": "69020"
    },
    {
        "name": "Shadi Pal",
        "zip_code": "69050"
    },
    {
        "name": "Pitharo",
        "zip_code": "69060"
    },
    {
        "name": "Dhoro Naro",
        "zip_code": "69070"
    },
    {
        "name": "Muhammad Salam Palli",
        "zip_code": "69080"
    },
    {
        "name": "Chhor",
        "zip_code": "69090"
    },
    {
        "name": "New Chhor",
        "zip_code": "69094"
    },
    {
        "name": "Umar Kot",
        "zip_code": "69100"
    },
    {
        "name": "Khokrapar",
        "zip_code": "69120"
    },
    {
        "name": "Samar Road",
        "zip_code": "69150"
    },
    {
        "name": "Kunri",
        "zip_code": "69160"
    },
    {
        "name": "Chachro",
        "zip_code": "69170"
    },
    {
        "name": "Nabi Sir Road",
        "zip_code": "69200"
    },
    {
        "name": "Talhi",
        "zip_code": "69210"
    },
    {
        "name": "Nau Kot",
        "zip_code": "69220"
    },
    {
        "name": "Mithi",
        "zip_code": "69230"
    },
    {
        "name": "Islam Kot",
        "zip_code": "69240"
    },
    {
        "name": "Nagar Parkar",
        "zip_code": "69260"
    },
    {
        "name": "Diplo",
        "zip_code": "69280"
    },
    {
        "name": "Kot Mirjan Muhammad",
        "zip_code": "69300"
    },
    {
        "name": "Jhudo",
        "zip_code": "69310"
    },
    {
        "name": "Tando Jan Muhammad",
        "zip_code": "69320"
    },
    {
        "name": "Digri",
        "zip_code": "69330"
    },
    {
        "name": "Kot Guhlam Mohammad",
        "zip_code": "69340"
    },
    {
        "name": "Samaro",
        "zip_code": "69350"
    },
    {
        "name": "Mirwah Gorchani",
        "zip_code": "69370"
    },
    {
        "name": "Tando Allahyar",
        "zip_code": "70010"
    },
    {
        "name": "Rashidabad",
        "zip_code": "70012"
    },
    {
        "name": "Missan Wadi",
        "zip_code": "70014"
    },
    {
        "name": "Mehran Sugar Mills (Tando Allahyar)",
        "zip_code": "70020"
    },
    {
        "name": "Goth Shahnawaz",
        "zip_code": "70030"
    },
    {
        "name": "Nasarpur",
        "zip_code": "70040"
    },
    {
        "name": "Tando Jam",
        "zip_code": "70050"
    },
    {
        "name": "Sindh Agriculture University Tando Jam",
        "zip_code": "70060"
    },
    {
        "name": "Tando Qaiser",
        "zip_code": "70070"
    },
    {
        "name": "Chamber",
        "zip_code": "70080"
    },
    {
        "name": "Oderolal R.S.",
        "zip_code": "70090"
    },
    {
        "name": "Oderolal Village",
        "zip_code": "70092"
    },
    {
        "name": "Saeedabad",
        "zip_code": "70100"
    },
    {
        "name": "Sikandarabad",
        "zip_code": "70104"
    },
    {
        "name": "Mansora Hyderabad",
        "zip_code": "70110"
    },
    {
        "name": "Hala",
        "zip_code": "70120"
    },
    {
        "name": "Hala Old",
        "zip_code": "70130"
    },
    {
        "name": "Bhit Shah",
        "zip_code": "70140"
    },
    {
        "name": "Matiari",
        "zip_code": "70150"
    },
    {
        "name": "Sheikh Bharkio",
        "zip_code": "70200"
    },
    {
        "name": "Husri",
        "zip_code": "70210"
    },
    {
        "name": "Tando Mohammad Khan",
        "zip_code": "70220"
    },
    {
        "name": "Hyderabad Gpo",
        "zip_code": "71000"
    },
    {
        "name": "Qasimabad",
        "zip_code": "71100"
    },
    {
        "name": "Hyderabad Cantt.",
        "zip_code": "71110"
    },
    {
        "name": "Hyderabad City",
        "zip_code": "71500"
    },
    {
        "name": "Latifabad",
        "zip_code": "71800"
    },
    {
        "name": "Sindh Regimental Centre Hyderabad",
        "zip_code": "71850"
    },
    {
        "name": "Sindh Industrial Trading Estate Hyderabad",
        "zip_code": "71900"
    },
    {
        "name": "Matli",
        "zip_code": "72010"
    },
    {
        "name": "Kario Ghanwar",
        "zip_code": "72020"
    },
    {
        "name": "Tando Ghulam Ali",
        "zip_code": "72050"
    },
    {
        "name": "New Dambalo",
        "zip_code": "72052"
    },
    {
        "name": "Badho Kambrani",
        "zip_code": "72060"
    },
    {
        "name": "Talhar",
        "zip_code": "72100"
    },
    {
        "name": "Rajo Khanani",
        "zip_code": "72110"
    },
    {
        "name": "Tando Bago",
        "zip_code": "72120"
    },
    {
        "name": "Pangrio",
        "zip_code": "72130"
    },
    {
        "name": "Badin",
        "zip_code": "72200"
    },
    {
        "name": "P.A.F. Badin",
        "zip_code": "72210"
    },
    {
        "name": "Tando Ikram",
        "zip_code": "72220"
    },
    {
        "name": "Nando Shahar",
        "zip_code": "72250"
    },
    {
        "name": "Fauji Sugar Mills Khoski",
        "zip_code": "72260"
    },
    {
        "name": "Khadhan",
        "zip_code": "72270"
    },
    {
        "name": "Jhok Sharif",
        "zip_code": "73010"
    },
    {
        "name": "Bulri Shah Karim",
        "zip_code": "73020"
    },
    {
        "name": "Sindh Abadgar Sugar Mills T.M. Khan",
        "zip_code": "73024"
    },
    {
        "name": "Mirpur Bathoro",
        "zip_code": "73030"
    },
    {
        "name": "Darro",
        "zip_code": "73040"
    },
    {
        "name": "Sujawal",
        "zip_code": "73050"
    },
    {
        "name": "Dewan Sugar Mills Thatta",
        "zip_code": "73052"
    },
    {
        "name": "Jati",
        "zip_code": "73060"
    },
    {
        "name": "Chuhar Jamali",
        "zip_code": "73070"
    },
    {
        "name": "Ladiun",
        "zip_code": "73080"
    },
    {
        "name": "Nooriabad",
        "zip_code": "73090"
    },
    {
        "name": "Towler Village Nooriabad",
        "zip_code": "73094"
    },
    {
        "name": "Jhimpir R.S.",
        "zip_code": "73100"
    },
    {
        "name": "Jang Shahi",
        "zip_code": "73110"
    },
    {
        "name": "Kinjhar Lake",
        "zip_code": "73120"
    },
    {
        "name": "Thatta",
        "zip_code": "73130"
    },
    {
        "name": "Hashimabad",
        "zip_code": "73150"
    },
    {
        "name": "Vur",
        "zip_code": "73170"
    },
    {
        "name": "Dhabeji",
        "zip_code": "73200"
    },
    {
        "name": "Gharo",
        "zip_code": "73210"
    },
    {
        "name": "Filter Plant Gharo",
        "zip_code": "73220"
    },
    {
        "name": "Mirpur Sakro",
        "zip_code": "73240"
    },
    {
        "name": "Garho",
        "zip_code": "73242"
    },
    {
        "name": "Wapda Residency Colony Lakhra",
        "zip_code": "73260"
    },
    {
        "name": "Karachi City Gpo",
        "zip_code": "74000"
    },
    {
        "name": "Karachi Gpo",
        "zip_code": "74200"
    },
    {
        "name": "Karachi Saddar Gpo",
        "zip_code": "74400"
    },
    {
        "name": "Karachi Nazimabad",
        "zip_code": "74600"
    },
    {
        "name": "Karachi Alhydri Gpo",
        "zip_code": "74700"
    },
    {
        "name": "New Town Gpo",
        "zip_code": "74800"
    },
    {
        "name": "Korangi Gpo",
        "zip_code": "74900"
    },
    {
        "name": "Pak. Steel Mills Karachi",
        "zip_code": "75000"
    },
    {
        "name": "Pak. Steel Mills Township Karachi",
        "zip_code": "75010"
    },
    {
        "name": "Port Qasim",
        "zip_code": "75020"
    },
    {
        "name": "Pak. Machine Tool Factory Karachi",
        "zip_code": "75030"
    },
    {
        "name": "Murad Memon Goth (Kp-974)",
        "zip_code": "75040"
    },
    {
        "name": "Malir City",
        "zip_code": "75050"
    },
    {
        "name": "Malir Cantt",
        "zip_code": "75070"
    },
    {
        "name": "Malir Colony",
        "zip_code": "75080"
    },
    {
        "name": "Model Colony Korangi",
        "zip_code": "75100"
    },
    {
        "name": "Quaidabad",
        "zip_code": "75120"
    },
    {
        "name": "Export Processing Zone (Kp-1863)",
        "zip_code": "75150"
    },
    {
        "name": "Landhi Colony",
        "zip_code": "75160"
    },
    {
        "name": "Karachi Darul Uloom (Kp-683)",
        "zip_code": "75180"
    },
    {
        "name": "Korangi Creek",
        "zip_code": "75190"
    },
    {
        "name": "Karachi Airport",
        "zip_code": "75200"
    },
    {
        "name": "Rafa-E-Aam Society Karachi",
        "zip_code": "75210"
    },
    {
        "name": "Drigh Colony",
        "zip_code": "75230"
    },
    {
        "name": "Karachi Gulshan-E-Jamal",
        "zip_code": "75260"
    },
    {
        "name": "Karachi University",
        "zip_code": "75270"
    },
    {
        "name": "Karachi Mosamiat Chowrangi",
        "zip_code": "75280"
    },
    {
        "name": "Karachi Gulistan-E-Jouhar (Kp-2023)",
        "zip_code": "75290"
    },
    {
        "name": "Karachi Gulshan-E-Iqbal",
        "zip_code": "75300"
    },
    {
        "name": "Karachi Gulzar-E-Hijri",
        "zip_code": "75330"
    },
    {
        "name": "Karachi New Sabzi Mandi",
        "zip_code": "75340"
    },
    {
        "name": "Karachi Shahra-E-Faisal",
        "zip_code": "75350"
    },
    {
        "name": "Karachi P.E.C.H.S Bi-",
        "zip_code": "75400"
    },
    {
        "name": "Mehmoodabad",
        "zip_code": "75460"
    },
    {
        "name": "Karachi Defence Housing Society",
        "zip_code": "75500"
    },
    {
        "name": "Karachi J.P.M.C",
        "zip_code": "75510"
    },
    {
        "name": "Karachi Hotel Metropole",
        "zip_code": "75520"
    },
    {
        "name": "Karachi Cantt.",
        "zip_code": "75530"
    },
    {
        "name": "Karachi Nishtar Road",
        "zip_code": "75550"
    },
    {
        "name": "Karachi Governor House",
        "zip_code": "75580"
    },
    {
        "name": "Karachi Clifton",
        "zip_code": "75600"
    },
    {
        "name": "Kemari",
        "zip_code": "75620"
    },
    {
        "name": "Manora",
        "zip_code": "75640"
    },
    {
        "name": "Karachi Habib Bank",
        "zip_code": "75650"
    },
    {
        "name": "Karachi Lyari",
        "zip_code": "75660"
    },
    {
        "name": "Karachi I.T.E",
        "zip_code": "75700"
    },
    {
        "name": "Karachi Sher Shah Colony",
        "zip_code": "75730"
    },
    {
        "name": "Karachi Mauripur Af",
        "zip_code": "75750"
    },
    {
        "name": "Karachi Baldia Town",
        "zip_code": "75760"
    },
    {
        "name": "Karachi Mauripur Ce",
        "zip_code": "75780"
    },
    {
        "name": "Karachi P.N.A.D.",
        "zip_code": "75790"
    },
    {
        "name": "Orangi Town",
        "zip_code": "75800"
    },
    {
        "name": "Karachi Metroville",
        "zip_code": "75840"
    },
    {
        "name": "New Karachi",
        "zip_code": "75850"
    },
    {
        "name": "Karachi Manghopir",
        "zip_code": "75890"
    },
    {
        "name": "Karachi Liaqatabad",
        "zip_code": "75900"
    },
    {
        "name": "Karachi Federal B Area",
        "zip_code": "75950"
    },
    {
        "name": "Karachi Board Of Secondary Education",
        "zip_code": "75990"
    },
    {
        "name": "Kotri",
        "zip_code": "76000"
    },
    {
        "name": "Site Kotri",
        "zip_code": "76010"
    },
    {
        "name": "Telegraph Workshop Kotri",
        "zip_code": "76030"
    },
    {
        "name": "Behar Colony Kotri",
        "zip_code": "76040"
    },
    {
        "name": "Thana Bula Khan",
        "zip_code": "76050"
    },
    {
        "name": "Railway Crossing Jamshoro",
        "zip_code": "76060"
    },
    {
        "name": "Thermal Power Station",
        "zip_code": "76064"
    },
    {
        "name": "University New Campus Jamshoro",
        "zip_code": "76080"
    },
    {
        "name": "Liaqat Medical College (Jamshoro)",
        "zip_code": "76090"
    },
    {
        "name": "Petaro Cadet College",
        "zip_code": "76120"
    },
    {
        "name": "Pattaro Cantt.",
        "zip_code": "76122"
    },
    {
        "name": "Sann",
        "zip_code": "76130"
    },
    {
        "name": "Sehwan",
        "zip_code": "76140"
    },
    {
        "name": "Bubak",
        "zip_code": "76150"
    },
    {
        "name": "Bhan Saeedabad",
        "zip_code": "76170"
    },
    {
        "name": "Panjmoro",
        "zip_code": "76172"
    },
    {
        "name": "Johi",
        "zip_code": "76190"
    },
    {
        "name": "Dadu Gpo",
        "zip_code": "76200"
    },
    {
        "name": "Phulji",
        "zip_code": "76220"
    },
    {
        "name": "Dadu Sugar Mill (Piaro Goth)",
        "zip_code": "76230"
    },
    {
        "name": "Sita",
        "zip_code": "76250"
    },
    {
        "name": "Khairpur Nathan Shah",
        "zip_code": "76260"
    },
    {
        "name": "Khanpur Junejo",
        "zip_code": "76264"
    },
    {
        "name": "Radhan",
        "zip_code": "76310"
    },
    {
        "name": "Mehar",
        "zip_code": "76330"
    },
    {
        "name": "Khuda Ki Basti",
        "zip_code": "76340"
    },
    {
        "name": "Fareedabad",
        "zip_code": "76350"
    },
    {
        "name": "Badah",
        "zip_code": "77010"
    },
    {
        "name": "Nasirabad Larkana",
        "zip_code": "77020"
    },
    {
        "name": "Gaji Khuhawar",
        "zip_code": "77030"
    },
    {
        "name": "Warah",
        "zip_code": "77040"
    },
    {
        "name": "Dokri",
        "zip_code": "77060"
    },
    {
        "name": "Cadit College, Larkana",
        "zip_code": "77062"
    },
    {
        "name": "Moenjodara",
        "zip_code": "77070"
    },
    {
        "name": "Hayder Jatoi",
        "zip_code": "77100"
    },
    {
        "name": "Bakrani Village",
        "zip_code": "77110"
    },
    {
        "name": "Garelo",
        "zip_code": "77120"
    },
    {
        "name": "Larkana Gpo",
        "zip_code": "77150"
    },
    {
        "name": "Chandka Medical College Larkana",
        "zip_code": "77170"
    },
    {
        "name": "Bero Chandio",
        "zip_code": "77200"
    },
    {
        "name": "Kambar",
        "zip_code": "77210"
    },
    {
        "name": "Gather",
        "zip_code": "77212"
    },
    {
        "name": "Miran Machi",
        "zip_code": "77214"
    },
    {
        "name": "Ber",
        "zip_code": "77220"
    },
    {
        "name": "Waggan",
        "zip_code": "77230"
    },
    {
        "name": "Khairpur Joso",
        "zip_code": "77240"
    },
    {
        "name": "Lalu Raunk",
        "zip_code": "77250"
    },
    {
        "name": "Bahram",
        "zip_code": "77260"
    },
    {
        "name": "Miro Kahn",
        "zip_code": "77270"
    },
    {
        "name": "Arzi Bhutto",
        "zip_code": "77280"
    },
    {
        "name": "Shahdad Kot",
        "zip_code": "77300"
    },
    {
        "name": "Qubo Saeed Khan",
        "zip_code": "77310"
    },
    {
        "name": "Chak Yani",
        "zip_code": "77320"
    },
    {
        "name": "Ghari Khuda Bux Bhutto",
        "zip_code": "77340"
    },
    {
        "name": "Naodero",
        "zip_code": "77360"
    },
    {
        "name": "Pir Bux Bhutto",
        "zip_code": "77370"
    },
    {
        "name": "Rato Dera",
        "zip_code": "77380"
    },
    {
        "name": "Lashari",
        "zip_code": "77390"
    },
    {
        "name": "Bangul Dero",
        "zip_code": "77400"
    },
    {
        "name": "Mena",
        "zip_code": "77410"
    },
    {
        "name": "Madiji",
        "zip_code": "78030"
    },
    {
        "name": "Dakhan",
        "zip_code": "78040"
    },
    {
        "name": "Chak",
        "zip_code": "78050"
    },
    {
        "name": "Lakhi Ghulam Shah",
        "zip_code": "78060"
    },
    {
        "name": "Ruk",
        "zip_code": "78064"
    },
    {
        "name": "Shikarpur Gpo",
        "zip_code": "78100"
    },
    {
        "name": "Gari Yasin",
        "zip_code": "78150"
    },
    {
        "name": "Khan Pur (Shikarpur)",
        "zip_code": "78200"
    },
    {
        "name": "Karam Pur",
        "zip_code": "78220"
    },
    {
        "name": "Sultan Kot",
        "zip_code": "78250"
    },
    {
        "name": "Jacobabad Gpo",
        "zip_code": "79000"
    },
    {
        "name": "Paf Base Shahbaz",
        "zip_code": "79010"
    },
    {
        "name": "Garhi Khairo",
        "zip_code": "79050"
    },
    {
        "name": "Thul",
        "zip_code": "79100"
    },
    {
        "name": "Mirpur Buriro",
        "zip_code": "79120"
    },
    {
        "name": "Ghulam Khan Dhani",
        "zip_code": "79130"
    },
    {
        "name": "Tangwani",
        "zip_code": "79150"
    },
    {
        "name": "Kandhkot",
        "zip_code": "79160"
    },
    {
        "name": "Ghous Pur",
        "zip_code": "79180"
    },
    {
        "name": "Buxapur",
        "zip_code": "79190"
    },
    {
        "name": "Badani",
        "zip_code": "79192"
    },
    {
        "name": "Kashmore",
        "zip_code": "79200"
    },
    {
        "name": "Kashmor Colony",
        "zip_code": "79210"
    },
    {
        "name": "Ammunition Depot Kashmore",
        "zip_code": "79212"
    },
    {
        "name": "Giddu Barrage",
        "zip_code": "79220"
    },
    {
        "name": "Watala",
        "zip_code": "10010"
    },
    {
        "name": "Moil",
        "zip_code": "10012"
    },
    {
        "name": "Barnala",
        "zip_code": "10020"
    },
    {
        "name": "Bharing",
        "zip_code": "10030"
    },
    {
        "name": "Kadhala",
        "zip_code": "10034"
    },
    {
        "name": "Pitho Rani",
        "zip_code": "10036"
    },
    {
        "name": "Dhandar Kalan",
        "zip_code": "10038"
    },
    {
        "name": "Bhimber Gpo",
        "zip_code": "10040"
    },
    {
        "name": "Dheri Wattan",
        "zip_code": "10042"
    },
    {
        "name": "Barsali",
        "zip_code": "10044"
    },
    {
        "name": "Bangla Sadabad",
        "zip_code": "10050"
    },
    {
        "name": "Saminani",
        "zip_code": "10060"
    },
    {
        "name": "Barjah",
        "zip_code": "10070"
    },
    {
        "name": "Chowki",
        "zip_code": "10080"
    },
    {
        "name": "Bindi",
        "zip_code": "10090"
    },
    {
        "name": "Poona",
        "zip_code": "10100"
    },
    {
        "name": "Mangla Dam",
        "zip_code": "10200"
    },
    {
        "name": "Bong Colony",
        "zip_code": "10210"
    },
    {
        "name": "Chitter Pari",
        "zip_code": "10230"
    },
    {
        "name": "Jari Kass",
        "zip_code": "10232"
    },
    {
        "name": "Ajk Board Of Education Mirpur",
        "zip_code": "10240"
    },
    {
        "name": "Mirpur Gpo",
        "zip_code": "10250"
    },
    {
        "name": "Siakh",
        "zip_code": "10300"
    },
    {
        "name": "Khadimabad",
        "zip_code": "10310"
    },
    {
        "name": "Chhattroh",
        "zip_code": "10320"
    },
    {
        "name": "Chechian",
        "zip_code": "10350"
    },
    {
        "name": "Afzal Pur",
        "zip_code": "10360"
    },
    {
        "name": "Banni",
        "zip_code": "10370"
    },
    {
        "name": "Jatli (Ak)",
        "zip_code": "10380"
    },
    {
        "name": "Kalri",
        "zip_code": "10382"
    },
    {
        "name": "Tariq Abad (Mirpur)",
        "zip_code": "10390"
    },
    {
        "name": "Panjeri",
        "zip_code": "10400"
    },
    {
        "name": "Chhani Reki",
        "zip_code": "10404"
    },
    {
        "name": "Potha Bainsi",
        "zip_code": "10450"
    },
    {
        "name": "Dhamawa",
        "zip_code": "10460"
    },
    {
        "name": "Akal Garh",
        "zip_code": "10470"
    },
    {
        "name": "Jatti Dheri",
        "zip_code": "10480"
    },
    {
        "name": "Boha Dhangri",
        "zip_code": "10490"
    },
    {
        "name": "Chak Sawari",
        "zip_code": "10500"
    },
    {
        "name": "Pind Kalan",
        "zip_code": "10510"
    },
    {
        "name": "Palak",
        "zip_code": "10520"
    },
    {
        "name": "Dadyal Khurd",
        "zip_code": "10530"
    },
    {
        "name": "Behari",
        "zip_code": "10534"
    },
    {
        "name": "Ratta",
        "zip_code": "10540"
    },
    {
        "name": "Thara",
        "zip_code": "10544"
    },
    {
        "name": "Katha Dilawar Khan",
        "zip_code": "10550"
    },
    {
        "name": "Sehnsa",
        "zip_code": "11010"
    },
    {
        "name": "Potha",
        "zip_code": "11014"
    },
    {
        "name": "Seher Mandi",
        "zip_code": "11020"
    },
    {
        "name": "Gulpur",
        "zip_code": "11030"
    },
    {
        "name": "Baratla",
        "zip_code": "11032"
    },
    {
        "name": "Nar",
        "zip_code": "11040"
    },
    {
        "name": "Kotli Gpo (Ak)",
        "zip_code": "11100"
    },
    {
        "name": "Sarsawa",
        "zip_code": "11110"
    },
    {
        "name": "Panjera",
        "zip_code": "11120"
    },
    {
        "name": "Gunni Malni",
        "zip_code": "11150"
    },
    {
        "name": "Tatta Pani",
        "zip_code": "11160"
    },
    {
        "name": "Nakial",
        "zip_code": "11170"
    },
    {
        "name": "Mohra Sharif Kotli",
        "zip_code": "11180"
    },
    {
        "name": "Chowki Mong",
        "zip_code": "11190"
    },
    {
        "name": "Khui Ratta (A.K)",
        "zip_code": "11200"
    },
    {
        "name": "Anderla Kotehra",
        "zip_code": "11202"
    },
    {
        "name": "Seri",
        "zip_code": "11210"
    },
    {
        "name": "B Al Brahmana",
        "zip_code": "11220"
    },
    {
        "name": "Charhoi",
        "zip_code": "11250"
    },
    {
        "name": "Kala Dab",
        "zip_code": "11260"
    },
    {
        "name": "Azad Pattan",
        "zip_code": "12000"
    },
    {
        "name": "Palandri Gpo",
        "zip_code": "12010"
    },
    {
        "name": "Tahlian",
        "zip_code": "12014"
    },
    {
        "name": "Baral",
        "zip_code": "12030"
    },
    {
        "name": "Panthal",
        "zip_code": "12034"
    },
    {
        "name": "Chachan",
        "zip_code": "12040"
    },
    {
        "name": "Dewan Sharif Gorah",
        "zip_code": "12060"
    },
    {
        "name": "Nalian",
        "zip_code": "12070"
    },
    {
        "name": "Tarar Khel",
        "zip_code": "12080"
    },
    {
        "name": "Qillan",
        "zip_code": "12090"
    },
    {
        "name": "Baithak Bazar",
        "zip_code": "12100"
    },
    {
        "name": "Rahimabad",
        "zip_code": "12110"
    },
    {
        "name": "Baloch",
        "zip_code": "12120"
    },
    {
        "name": "Pakhonar",
        "zip_code": "12130"
    },
    {
        "name": "Gala Kaniyata",
        "zip_code": "12150"
    },
    {
        "name": "Hajeera",
        "zip_code": "12160"
    },
    {
        "name": "Dawarandi",
        "zip_code": "12164"
    },
    {
        "name": "Maindla",
        "zip_code": "12170"
    },
    {
        "name": "Sehira",
        "zip_code": "12174"
    },
    {
        "name": "Mandhole",
        "zip_code": "12180"
    },
    {
        "name": "Abbas Pur",
        "zip_code": "12200"
    },
    {
        "name": "Khurshidabad",
        "zip_code": "12220"
    },
    {
        "name": "Khaigala",
        "zip_code": "12250"
    },
    {
        "name": "Ali Sojal",
        "zip_code": "12252"
    },
    {
        "name": "Chotta Gala",
        "zip_code": "12260"
    },
    {
        "name": "Banjosa",
        "zip_code": "12262"
    },
    {
        "name": "Hussain Kot",
        "zip_code": "12270"
    },
    {
        "name": "Mang",
        "zip_code": "12300"
    },
    {
        "name": "Nawab Jessi Khan",
        "zip_code": "12304"
    },
    {
        "name": "Thorar",
        "zip_code": "12310"
    },
    {
        "name": "Rahara",
        "zip_code": "12320"
    },
    {
        "name": "Lunjgran",
        "zip_code": "12330"
    },
    {
        "name": "Soon Topa",
        "zip_code": "12340"
    },
    {
        "name": "Rawalkot Gpo",
        "zip_code": "12350"
    },
    {
        "name": "Chak Dhamni",
        "zip_code": "12380"
    },
    {
        "name": "Sanghola",
        "zip_code": "12390"
    },
    {
        "name": "Mohri Farman Shah",
        "zip_code": "12400"
    },
    {
        "name": "Hurnamaira",
        "zip_code": "12410"
    },
    {
        "name": "Paniola",
        "zip_code": "12420"
    },
    {
        "name": "Pachiot",
        "zip_code": "12430"
    },
    {
        "name": "Datoot",
        "zip_code": "12440"
    },
    {
        "name": "Arja",
        "zip_code": "12460"
    },
    {
        "name": "Mong Bajri",
        "zip_code": "12470"
    },
    {
        "name": "Harighel",
        "zip_code": "12480"
    },
    {
        "name": "Bagh Gpo",
        "zip_code": "12500"
    },
    {
        "name": "Mallote",
        "zip_code": "12502"
    },
    {
        "name": "Upper Suddan Gali",
        "zip_code": "12504"
    },
    {
        "name": "Plangi",
        "zip_code": "12508"
    },
    {
        "name": "Birpani",
        "zip_code": "12510"
    },
    {
        "name": "Kharal Abbasian",
        "zip_code": "12520"
    },
    {
        "name": "Reera Bazar",
        "zip_code": "12550"
    },
    {
        "name": "Barikot",
        "zip_code": "12560"
    },
    {
        "name": "Dhulli",
        "zip_code": "12570"
    },
    {
        "name": "Dhirkot",
        "zip_code": "12600"
    },
    {
        "name": "Rangla",
        "zip_code": "12610"
    },
    {
        "name": "Chirala",
        "zip_code": "12620"
    },
    {
        "name": "Chamankot",
        "zip_code": "12630"
    },
    {
        "name": "Muzaffarabad Gpo",
        "zip_code": "13100"
    },
    {
        "name": "Garahi Dupatta",
        "zip_code": "13150"
    },
    {
        "name": "Leepa",
        "zip_code": "13164"
    },
    {
        "name": "Chikar",
        "zip_code": "13170"
    },
    {
        "name": "Hattian Bala",
        "zip_code": "13180"
    },
    {
        "name": "Chenari",
        "zip_code": "13190"
    },
    {
        "name": "Kahuri",
        "zip_code": "13200"
    },
    {
        "name": "Pattika",
        "zip_code": "13210"
    },
    {
        "name": "Karnah",
        "zip_code": "13220"
    },
    {
        "name": "Jura",
        "zip_code": "13224"
    },
    {
        "name": "Athmaqam",
        "zip_code": "13230"
    },
    {
        "name": "Sharda",
        "zip_code": "13232"
    },
    {
        "name": "Kel",
        "zip_code": "13234"
    },
    {
        "name": "Chakothi",
        "zip_code": "13240"
    },
    {
        "name": "Rahimkot",
        "zip_code": "13250"
    },
    {
        "name": "Chilas (Lsg)",
        "zip_code": "14100"
    },
    {
        "name": "Jaglot Tangir",
        "zip_code": "14150"
    },
    {
        "name": "Bunji",
        "zip_code": "14200"
    },
    {
        "name": "Astore",
        "zip_code": "14300"
    },
    {
        "name": "Ghorikot",
        "zip_code": "14350"
    },
    {
        "name": "Chilam",
        "zip_code": "14400"
    },
    {
        "name": "Gilgit Gpo",
        "zip_code": "15100"
    },
    {
        "name": "Danyore",
        "zip_code": "15110"
    },
    {
        "name": "Sammayar",
        "zip_code": "15120"
    },
    {
        "name": "Meenapin",
        "zip_code": "15130"
    },
    {
        "name": "Jutial",
        "zip_code": "15150"
    },
    {
        "name": "Singal",
        "zip_code": "15160"
    },
    {
        "name": "Jablot Sai",
        "zip_code": "15170"
    },
    {
        "name": "Gahkooch",
        "zip_code": "15200"
    },
    {
        "name": "Chattar Khand",
        "zip_code": "15210"
    },
    {
        "name": "Gupis",
        "zip_code": "15300"
    },
    {
        "name": "Yasin",
        "zip_code": "15310"
    },
    {
        "name": "Teru",
        "zip_code": "15350"
    },
    {
        "name": "Sikandarabad",
        "zip_code": "15400"
    },
    {
        "name": "Chalt",
        "zip_code": "15500"
    },
    {
        "name": "Nasirabad",
        "zip_code": "15550"
    },
    {
        "name": "Aliabad",
        "zip_code": "15600"
    },
    {
        "name": "Nagar",
        "zip_code": "15650"
    },
    {
        "name": "Karimabad",
        "zip_code": "15700"
    },
    {
        "name": "Altit",
        "zip_code": "15710"
    },
    {
        "name": "Gulmit",
        "zip_code": "15750"
    },
    {
        "name": "Sust",
        "zip_code": "15800"
    },
    {
        "name": "Misgar",
        "zip_code": "15900"
    },
    {
        "name": "Skardu Gpo",
        "zip_code": "16100"
    },
    {
        "name": "Astana",
        "zip_code": "16110"
    },
    {
        "name": "Kachura",
        "zip_code": "16150"
    },
    {
        "name": "Thowar",
        "zip_code": "16160"
    },
    {
        "name": "Skardu Airport",
        "zip_code": "16200"
    },
    {
        "name": "Hussainabad",
        "zip_code": "16250"
    },
    {
        "name": "Shigar",
        "zip_code": "16300"
    },
    {
        "name": "Gulabpur",
        "zip_code": "16310"
    },
    {
        "name": "Achori",
        "zip_code": "16320"
    },
    {
        "name": "Sermik",
        "zip_code": "16350"
    },
    {
        "name": "Mehdiabad",
        "zip_code": "16400"
    },
    {
        "name": "Manthokha",
        "zip_code": "16420"
    },
    {
        "name": "Tolti",
        "zip_code": "16450"
    },
    {
        "name": "Baghicha",
        "zip_code": "16500"
    },
    {
        "name": "Olding",
        "zip_code": "16600"
    },
    {
        "name": "Kiris",
        "zip_code": "16700"
    },
    {
        "name": "Ghowari",
        "zip_code": "16720"
    },
    {
        "name": "Daghoni",
        "zip_code": "16750"
    },
    {
        "name": "Khaplu",
        "zip_code": "16800"
    },
    {
        "name": "Pion",
        "zip_code": "16810"
    },
    {
        "name": "Thagas",
        "zip_code": "16900"
    },
    {
        "name": "Damsum",
        "zip_code": "16910"
    },
    {
        "name": "Goma",
        "zip_code": "16920"
    },
    {
        "name": "Islamabad Gpo",
        "zip_code": "44000"
    },
    {
        "name": "Islamabad Primr Minister Sectt.",
        "zip_code": "44010"
    },
    {
        "name": "Islamabad B-Block Pak Sectt.",
        "zip_code": "44020"
    },
    {
        "name": "Islamabad National Assembly",
        "zip_code": "44030"
    },
    {
        "name": "Islamabad Aiwan-E-Saddar",
        "zip_code": "44040"
    },
    {
        "name": "Islamabad G-5 Foreign Office",
        "zip_code": "44050"
    },
    {
        "name": "Islamabad G-8/Markaz",
        "zip_code": "44080"
    },
    {
        "name": "Islamabad G-9/Markaz",
        "zip_code": "44090"
    },
    {
        "name": "Islamabad G-10 Markaz",
        "zip_code": "44100"
    },
    {
        "name": "Islamabad G-15 Sector",
        "zip_code": "44150"
    },
    {
        "name": "Islamabad F-7 Markaz",
        "zip_code": "44210"
    },
    {
        "name": "Islamabad F-8 Markaz",
        "zip_code": "44220"
    },
    {
        "name": "Islamabad E-9 (Air Hq)",
        "zip_code": "44230"
    },
    {
        "name": "Islamabad Allama Iqbal Open University",
        "zip_code": "44310"
    },
    {
        "name": "Islamabad Federal Board",
        "zip_code": "44320"
    },
    {
        "name": "Islamabad I-8/",
        "zip_code": "44790"
    },
    {
        "name": "Islamabad I-10/Markaz",
        "zip_code": "44800"
    },
    {
        "name": "Golra",
        "zip_code": "45200"
    },
    {
        "name": "Islamabad Hajj Complex",
        "zip_code": "45210"
    },
    {
        "name": "Shah Allah Ditta",
        "zip_code": "45220"
    },
    {
        "name": "Tarnol",
        "zip_code": "45230"
    },
    {
        "name": "Bagnial",
        "zip_code": "45240"
    },
    {
        "name": "Mara Jaffar, Islamabad",
        "zip_code": "45250"
    },
    {
        "name": "Noorpur Shahan, Islamabad",
        "zip_code": "45300"
    },
    {
        "name": "Islamabad Quiaid-E-Azam University",
        "zip_code": "45320"
    },
    {
        "name": "Bara Kau",
        "zip_code": "45400"
    },
    {
        "name": "Saree Chowk",
        "zip_code": "45410"
    },
    {
        "name": "Islamabad National Health Laboratiories",
        "zip_code": "45500"
    },
    {
        "name": "Rawal Town, Islamabad",
        "zip_code": "45510"
    },
    {
        "name": "Malpur, Islamabad",
        "zip_code": "45520"
    },
    {
        "name": "Tarlai Kalan",
        "zip_code": "45550"
    },
    {
        "name": "Kuri, Islamabad",
        "zip_code": "45570"
    },
    {
        "name": "Ali Pur Frash",
        "zip_code": "45600"
    },
    {
        "name": "Jagiot, Islamabad",
        "zip_code": "45610"
    },
    {
        "name": "Pind Malkan",
        "zip_code": "45624"
    },
    {
        "name": "Kirpa, Islamabad",
        "zip_code": "45640"
    },
    {
        "name": "Nilore, Islamabad",
        "zip_code": "45650"
    },
    {
        "name": "Chirah",
        "zip_code": "45680"
    },
    {
        "name": "Islamabad, Model Town Humak",
        "zip_code": "45700"
    },
    {
        "name": "Lohi Bher, Islamabad",
        "zip_code": "45710"
    },
    {
        "name": "Pakistan Town (Korang Town)",
        "zip_code": "45720"
    },
    {
        "name": "Islamabad Dha Phase-Ii",
        "zip_code": "45730"
    },
    {
        "name": "Sohan",
        "zip_code": "45740"
    },
    {
        "name": "Sihala",
        "zip_code": "45750"
    },
    {
        "name": "Herdogher",
        "zip_code": "45800"
    },
    {
        "name": "Rewat",
        "zip_code": "45900"
    }
]