[
    {
        "name": "Christiansted",
        "zip_code": "00820"
    },
    {
        "name": "Christiansted",
        "zip_code": "00821"
    },
    {
        "name": "Christiansted",
        "zip_code": "00822"
    },
    {
        "name": "Christiansted",
        "zip_code": "00823"
    },
    {
        "name": "Christiansted",
        "zip_code": "00824"
    },
    {
        "name": "Frederiksted",
        "zip_code": "00840"
    },
    {
        "name": "Frederiksted",
        "zip_code": "00841"
    },
    {
        "name": "Kingshill",
        "zip_code": "00850"
    },
    {
        "name": "Kingshill",
        "zip_code": "00851"
    },
    {
        "name": "St John",
        "zip_code": "00830"
    },
    {
        "name": "St John",
        "zip_code": "00831"
    },
    {
        "name": "St Thomas",
        "zip_code": "00801"
    },
    {
        "name": "St Thomas",
        "zip_code": "00802"
    },
    {
        "name": "St Thomas",
        "zip_code": "00803"
    },
    {
        "name": "St Thomas",
        "zip_code": "00804"
    },
    {
        "name": "St Thomas",
        "zip_code": "00805"
    }
]