[
    {
        "name": "Changfeng County",
        "zip_code": "231100"
    },
    {
        "name": "Feixi County",
        "zip_code": "231200"
    },
    {
        "name": "Lujiang County",
        "zip_code": "231500"
    },
    {
        "name": "Feidong County",
        "zip_code": "231600"
    },
    {
        "name": "Chaohu",
        "zip_code": "238000"
    },
    {
        "name": "Wuhu",
        "zip_code": "241000"
    },
    {
        "name": "Wuhu County",
        "zip_code": "241100"
    },
    {
        "name": "Fanchang County",
        "zip_code": "241200"
    },
    {
        "name": "Nanling County",
        "zip_code": "242400"
    },
    {
        "name": "Wuhe County",
        "zip_code": "233300"
    },
    {
        "name": "Huaiyuan County",
        "zip_code": "233400"
    },
    {
        "name": "Guzhen County",
        "zip_code": "233700"
    },
    {
        "name": "Fengtai County",
        "zip_code": "232100"
    },
    {
        "name": "Shou County",
        "zip_code": "232200"
    },
    {
        "name": "Hanshan County",
        "zip_code": "238100"
    },
    {
        "name": "He County",
        "zip_code": "238200"
    },
    {
        "name": "Dangtu County",
        "zip_code": "243100"
    },
    {
        "name": "Suixi County, Anhui",
        "zip_code": "235100"
    },
    {
        "name": "Tongling",
        "zip_code": "244000"
    },
    {
        "name": "Tongcheng",
        "zip_code": "231400"
    },
    {
        "name": "Yi'an District",
        "zip_code": "244100"
    },
    {
        "name": "Huaining County",
        "zip_code": "246100"
    },
    {
        "name": "Wangjiang County",
        "zip_code": "246200"
    },
    {
        "name": "Qianshan County",
        "zip_code": "246300"
    },
    {
        "name": "Taihu County",
        "zip_code": "246400"
    },
    {
        "name": "Susong County",
        "zip_code": "246500"
    },
    {
        "name": "Yuexi County",
        "zip_code": "246600"
    },
    {
        "name": "Zongyang County",
        "zip_code": "246700"
    },
    {
        "name": "Huangshan District",
        "zip_code": "242700"
    },
    {
        "name": "Huangshan City",
        "zip_code": "245000"
    },
    {
        "name": "She County",
        "zip_code": "245200"
    },
    {
        "name": "Xiuning County",
        "zip_code": "245400"
    },
    {
        "name": "Yi County",
        "zip_code": "245500"
    },
    {
        "name": "Qimen County",
        "zip_code": "245600"
    },
    {
        "name": "Fengyang County",
        "zip_code": "233100"
    },
    {
        "name": "Dingyuan County",
        "zip_code": "233200"
    },
    {
        "name": "Lai'an County",
        "zip_code": "239200"
    },
    {
        "name": "Tianchang",
        "zip_code": "239300"
    },
    {
        "name": "Mingguang",
        "zip_code": "239400"
    },
    {
        "name": "Quanjiao County",
        "zip_code": "239500"
    },
    {
        "name": "Funan County",
        "zip_code": "236300"
    },
    {
        "name": "Linquan County",
        "zip_code": "236400"
    },
    {
        "name": "Jieshou",
        "zip_code": "236500"
    },
    {
        "name": "Taihe County",
        "zip_code": "236600"
    },
    {
        "name": "Lingbi County",
        "zip_code": "234200"
    },
    {
        "name": "Si County",
        "zip_code": "234300"
    },
    {
        "name": "Xiao County",
        "zip_code": "235200"
    },
    {
        "name": "Dangshan County",
        "zip_code": "235300"
    },
    {
        "name": "Yingshang County",
        "zip_code": "236200"
    },
    {
        "name": "Shucheng County",
        "zip_code": "231300"
    },
    {
        "name": "Lu'an",
        "zip_code": "237000"
    },
    {
        "name": "Huoshan County",
        "zip_code": "237200"
    },
    {
        "name": "Jinzhai County",
        "zip_code": "237300"
    },
    {
        "name": "Huoqiu County",
        "zip_code": "237400"
    },
    {
        "name": "Mengcheng County",
        "zip_code": "233500"
    },
    {
        "name": "Guoyang County",
        "zip_code": "233600"
    },
    {
        "name": "Lixin County",
        "zip_code": "236700"
    },
    {
        "name": "Qiaocheng District",
        "zip_code": "236800"
    },
    {
        "name": "Qingyang County",
        "zip_code": "242800"
    },
    {
        "name": "Shitai County",
        "zip_code": "245100"
    },
    {
        "name": "Dongzhi County",
        "zip_code": "247200"
    },
    {
        "name": "Xuancheng",
        "zip_code": "242000"
    },
    {
        "name": "Langxi County",
        "zip_code": "242100"
    },
    {
        "name": "Guangde County",
        "zip_code": "242200"
    },
    {
        "name": "Ningguo",
        "zip_code": "242300"
    },
    {
        "name": "Jing County",
        "zip_code": "242500"
    },
    {
        "name": "Jingde County",
        "zip_code": "242600"
    },
    {
        "name": "Jixi County",
        "zip_code": "245300"
    },
    {
        "name": "Hefei",
        "zip_code": "230000"
    },
    {
        "name": "Huainan",
        "zip_code": "232000"
    },
    {
        "name": "Bengbu",
        "zip_code": "233000"
    },
    {
        "name": "Suzhou",
        "zip_code": "234000"
    },
    {
        "name": "Huaibei",
        "zip_code": "235000"
    },
    {
        "name": "Fuyang",
        "zip_code": "236000"
    },
    {
        "name": "Chuzhou",
        "zip_code": "239000"
    },
    {
        "name": "Ma'anshan",
        "zip_code": "243000"
    },
    {
        "name": "Anqing",
        "zip_code": "246000"
    },
    {
        "name": "Chizhou",
        "zip_code": "247100"
    },
    {
        "name": "Yuhang District",
        "zip_code": "311100"
    },
    {
        "name": "Xiaoshan District",
        "zip_code": "311200"
    },
    {
        "name": "Lin'an",
        "zip_code": "311300"
    },
    {
        "name": "Fuyang District",
        "zip_code": "311400"
    },
    {
        "name": "Tonglu County",
        "zip_code": "311500"
    },
    {
        "name": "Jiande",
        "zip_code": "311600"
    },
    {
        "name": "Chun'an County",
        "zip_code": "311700"
    },
    {
        "name": "Yinzhou District",
        "zip_code": "315100"
    },
    {
        "name": "Zhenhai District",
        "zip_code": "315200"
    },
    {
        "name": "Cixi City",
        "zip_code": "315300"
    },
    {
        "name": "Yuyao",
        "zip_code": "315400"
    },
    {
        "name": "Fenghua",
        "zip_code": "315500"
    },
    {
        "name": "Ninghai County",
        "zip_code": "315600"
    },
    {
        "name": "Xiangshan County",
        "zip_code": "315700"
    },
    {
        "name": "Beilun District",
        "zip_code": "315800"
    },
    {
        "name": "Yongjia County",
        "zip_code": "325100"
    },
    {
        "name": "Rui'an",
        "zip_code": "325200"
    },
    {
        "name": "Wencheng County",
        "zip_code": "325300"
    },
    {
        "name": "Pingyang County",
        "zip_code": "325400"
    },
    {
        "name": "Taishun County",
        "zip_code": "325500"
    },
    {
        "name": "Yueqing",
        "zip_code": "325600"
    },
    {
        "name": "Dongtou District",
        "zip_code": "325700"
    },
    {
        "name": "Cangnan County",
        "zip_code": "325800"
    },
    {
        "name": "Jiashan County",
        "zip_code": "314100"
    },
    {
        "name": "Pinghu",
        "zip_code": "314200"
    },
    {
        "name": "Haiyan County",
        "zip_code": "314300"
    },
    {
        "name": "Haining",
        "zip_code": "314400"
    },
    {
        "name": "Tongxiang",
        "zip_code": "314500"
    },
    {
        "name": "Changxing County",
        "zip_code": "313100"
    },
    {
        "name": "Deqing County",
        "zip_code": "313200"
    },
    {
        "name": "Anji County",
        "zip_code": "313300"
    },
    {
        "name": "Zhuji",
        "zip_code": "311800"
    },
    {
        "name": "Shaoxing",
        "zip_code": "312000"
    },
    {
        "name": "Shangyu District",
        "zip_code": "312300"
    },
    {
        "name": "Shengzhou",
        "zip_code": "312400"
    },
    {
        "name": "Xinchang County",
        "zip_code": "312500"
    },
    {
        "name": "Jinhua",
        "zip_code": "321000"
    },
    {
        "name": "Lanxi",
        "zip_code": "321100"
    },
    {
        "name": "Wuyi County",
        "zip_code": "321200"
    },
    {
        "name": "Yongkang",
        "zip_code": "321300"
    },
    {
        "name": "Yiwu",
        "zip_code": "322000"
    },
    {
        "name": "Dongyang",
        "zip_code": "322100"
    },
    {
        "name": "Pujiang County",
        "zip_code": "322200"
    },
    {
        "name": "Pan'an County",
        "zip_code": "322300"
    },
    {
        "name": "Jiangshan",
        "zip_code": "324100"
    },
    {
        "name": "Changshan County",
        "zip_code": "324200"
    },
    {
        "name": "Kaihua County",
        "zip_code": "324300"
    },
    {
        "name": "Longyou County",
        "zip_code": "324400"
    },
    {
        "name": "Shengsi County",
        "zip_code": "202400"
    },
    {
        "name": "Putuo District",
        "zip_code": "316100"
    },
    {
        "name": "Daishan County",
        "zip_code": "316200"
    },
    {
        "name": "Linhai",
        "zip_code": "317000"
    },
    {
        "name": "Sanmen County",
        "zip_code": "317100"
    },
    {
        "name": "Tiantai County",
        "zip_code": "317200"
    },
    {
        "name": "Wenling",
        "zip_code": "317500"
    },
    {
        "name": "Yuhuan County",
        "zip_code": "317600"
    },
    {
        "name": "Xianju County",
        "zip_code": "317300"
    },
    {
        "name": "Jinyun County",
        "zip_code": "321400"
    },
    {
        "name": "Suichang County",
        "zip_code": "323300"
    },
    {
        "name": "Songyang County",
        "zip_code": "323400"
    },
    {
        "name": "Jingning She Autonomous County",
        "zip_code": "323500"
    },
    {
        "name": "Longquan",
        "zip_code": "323600"
    },
    {
        "name": "Yunhe County",
        "zip_code": "323700"
    },
    {
        "name": "Qingyuan County",
        "zip_code": "323800"
    },
    {
        "name": "Qingtian County",
        "zip_code": "323900"
    },
    {
        "name": "Hangzhou",
        "zip_code": "310000"
    },
    {
        "name": "Huzhou",
        "zip_code": "313000"
    },
    {
        "name": "Jiaxing",
        "zip_code": "314000"
    },
    {
        "name": "Ningbo",
        "zip_code": "315000"
    },
    {
        "name": "Zhoushan",
        "zip_code": "316000"
    },
    {
        "name": "Taizhou",
        "zip_code": "318000"
    },
    {
        "name": "Lishui",
        "zip_code": "323000"
    },
    {
        "name": "Quzhou",
        "zip_code": "324000"
    },
    {
        "name": "Wenzhou",
        "zip_code": "325000"
    },
    {
        "name": "Nanchang",
        "zip_code": "330000"
    },
    {
        "name": "Xinjian District",
        "zip_code": "330100"
    },
    {
        "name": "Nanchang County",
        "zip_code": "330200"
    },
    {
        "name": "Anyi County",
        "zip_code": "330500"
    },
    {
        "name": "Jinxian County",
        "zip_code": "331700"
    },
    {
        "name": "Leping",
        "zip_code": "333300"
    },
    {
        "name": "Lianhua County",
        "zip_code": "337100"
    },
    {
        "name": "Luxi County",
        "zip_code": "337200"
    },
    {
        "name": "Yongxiu County",
        "zip_code": "330300"
    },
    {
        "name": "De'an County",
        "zip_code": "330400"
    },
    {
        "name": "Jiujiang",
        "zip_code": "332000"
    },
    {
        "name": "Jiujiang County",
        "zip_code": "332100"
    },
    {
        "name": "Ruichang",
        "zip_code": "332200"
    },
    {
        "name": "Wuning County",
        "zip_code": "332300"
    },
    {
        "name": "Xiushui County",
        "zip_code": "332400"
    },
    {
        "name": "Hukou County",
        "zip_code": "332500"
    },
    {
        "name": "Duchang County",
        "zip_code": "332600"
    },
    {
        "name": "Pengze County",
        "zip_code": "332700"
    },
    {
        "name": "Lushan City",
        "zip_code": "332800"
    },
    {
        "name": "Lianxi District",
        "zip_code": "332900"
    },
    {
        "name": "Fenyi County",
        "zip_code": "336600"
    },
    {
        "name": "Yujiang County",
        "zip_code": "335200"
    },
    {
        "name": "Guixi City",
        "zip_code": "335400"
    },
    {
        "name": "Gan County",
        "zip_code": "341100"
    },
    {
        "name": "Shangyou County",
        "zip_code": "341200"
    },
    {
        "name": "Chongyi County",
        "zip_code": "341300"
    },
    {
        "name": "Nankang District",
        "zip_code": "341400"
    },
    {
        "name": "Dayu County",
        "zip_code": "341500"
    },
    {
        "name": "Xinfeng County",
        "zip_code": "341600"
    },
    {
        "name": "Longnan County",
        "zip_code": "341700"
    },
    {
        "name": "Quannan County",
        "zip_code": "341800"
    },
    {
        "name": "Dingnan County",
        "zip_code": "341900"
    },
    {
        "name": "Anyuan County",
        "zip_code": "342100"
    },
    {
        "name": "Xunwu County",
        "zip_code": "342200"
    },
    {
        "name": "Yudu County",
        "zip_code": "342300"
    },
    {
        "name": "Xingguo County",
        "zip_code": "342400"
    },
    {
        "name": "Ruijin",
        "zip_code": "342500"
    },
    {
        "name": "Shicheng County",
        "zip_code": "342700"
    },
    {
        "name": "Ningdu County",
        "zip_code": "342800"
    },
    {
        "name": "Xingan County",
        "zip_code": "331300"
    },
    {
        "name": "Xiajiang County",
        "zip_code": "331400"
    },
    {
        "name": "Yongfeng County",
        "zip_code": "331500"
    },
    {
        "name": "Jishui County",
        "zip_code": "331600"
    },
    {
        "name": "Huichang County",
        "zip_code": "342600"
    },
    {
        "name": "Ji'an",
        "zip_code": "343000"
    },
    {
        "name": "Ji'an County",
        "zip_code": "343100"
    },
    {
        "name": "Anfu County",
        "zip_code": "343200"
    },
    {
        "name": "Yongxin County",
        "zip_code": "343400"
    },
    {
        "name": "Jinggangshan City",
        "zip_code": "343600"
    },
    {
        "name": "Taihe County",
        "zip_code": "343700"
    },
    {
        "name": "Wan'an County",
        "zip_code": "343800"
    },
    {
        "name": "Suichuan",
        "zip_code": "343900"
    },
    {
        "name": "Jing'an County",
        "zip_code": "330600"
    },
    {
        "name": "Fengxin County",
        "zip_code": "330700"
    },
    {
        "name": "Gao'an",
        "zip_code": "330800"
    },
    {
        "name": "Fengcheng",
        "zip_code": "331100"
    },
    {
        "name": "Zhangshu",
        "zip_code": "331200"
    },
    {
        "name": "Wanzai County",
        "zip_code": "336100"
    },
    {
        "name": "Tonggu County",
        "zip_code": "336200"
    },
    {
        "name": "Yifeng County",
        "zip_code": "336300"
    },
    {
        "name": "Shanggao County",
        "zip_code": "336400"
    },
    {
        "name": "Dongxiang County",
        "zip_code": "331800"
    },
    {
        "name": "Zixi County",
        "zip_code": "335300"
    },
    {
        "name": "Parts of Linchuan District",
        "zip_code": "344100"
    },
    {
        "name": "Chongren County",
        "zip_code": "344200"
    },
    {
        "name": "Le'an County",
        "zip_code": "344300"
    },
    {
        "name": "Yihuang County",
        "zip_code": "344400"
    },
    {
        "name": "Nanfeng County",
        "zip_code": "344500"
    },
    {
        "name": "Lichuan County",
        "zip_code": "344600"
    },
    {
        "name": "Nancheng County",
        "zip_code": "344700"
    },
    {
        "name": "Jinxi County",
        "zip_code": "344800"
    },
    {
        "name": "Guangchang County",
        "zip_code": "344900"
    },
    {
        "name": "Poyang County",
        "zip_code": "333100"
    },
    {
        "name": "Wuyuan County",
        "zip_code": "333200"
    },
    {
        "name": "Shangrao",
        "zip_code": "334000"
    },
    {
        "name": "Shangrao County",
        "zip_code": "334100"
    },
    {
        "name": "Dexing",
        "zip_code": "334200"
    },
    {
        "name": "Hengfeng County",
        "zip_code": "334300"
    },
    {
        "name": "Yiyang County",
        "zip_code": "334400"
    },
    {
        "name": "Yanshan County",
        "zip_code": "334500"
    },
    {
        "name": "Guangfeng District",
        "zip_code": "334600"
    },
    {
        "name": "Yushan County",
        "zip_code": "334700"
    },
    {
        "name": "Yugan County",
        "zip_code": "335100"
    },
    {
        "name": "Wannian County",
        "zip_code": "335500"
    },
    {
        "name": "Jingdezhen",
        "zip_code": "333000"
    },
    {
        "name": "Yingtan",
        "zip_code": "335000"
    },
    {
        "name": "Yichun",
        "zip_code": "336000"
    },
    {
        "name": "Xinyu",
        "zip_code": "336500"
    },
    {
        "name": "Pingxiang",
        "zip_code": "337000"
    },
    {
        "name": "Ganzhou",
        "zip_code": "341000"
    },
    {
        "name": "Fuzhou",
        "zip_code": "344000"
    },
    {
        "name": "Jiangning District",
        "zip_code": "211100"
    },
    {
        "name": "Lishui District",
        "zip_code": "211200"
    },
    {
        "name": "Gaochun District",
        "zip_code": "211300"
    },
    {
        "name": "Luhe District",
        "zip_code": "211500"
    },
    {
        "name": "Jiangpu County",
        "zip_code": "211800"
    },
    {
        "name": "Xishan District",
        "zip_code": "214100"
    },
    {
        "name": "Huishan District",
        "zip_code": "214100"
    },
    {
        "name": "Yixing",
        "zip_code": "214200"
    },
    {
        "name": "Jiangyin",
        "zip_code": "214400"
    },
    {
        "name": "Tongshan District",
        "zip_code": "221100"
    },
    {
        "name": "Suining County",
        "zip_code": "221200"
    },
    {
        "name": "Pizhou",
        "zip_code": "221300"
    },
    {
        "name": "Xinyi",
        "zip_code": "221400"
    },
    {
        "name": "Pei County",
        "zip_code": "221600"
    },
    {
        "name": "Feng County",
        "zip_code": "221700"
    },
    {
        "name": "Wujin District",
        "zip_code": "213100"
    },
    {
        "name": "Jintan District",
        "zip_code": "213200"
    },
    {
        "name": "Liyang",
        "zip_code": "213300"
    },
    {
        "name": "Wuzhong District, Xiangcheng District, parts of Suzhou New District and parts of Suzhou Industrial Park",
        "zip_code": "215100"
    },
    {
        "name": "Wujiang District",
        "zip_code": "215200"
    },
    {
        "name": "Kunshan",
        "zip_code": "215300"
    },
    {
        "name": "Taicang",
        "zip_code": "215400"
    },
    {
        "name": "Changshu",
        "zip_code": "215500"
    },
    {
        "name": "Zhangjiagang",
        "zip_code": "215600"
    },
    {
        "name": "Haimen",
        "zip_code": "226100"
    },
    {
        "name": "Qidong",
        "zip_code": "226200"
    },
    {
        "name": "Tongzhou District",
        "zip_code": "226300"
    },
    {
        "name": "Rudong County",
        "zip_code": "226400"
    },
    {
        "name": "Rugao",
        "zip_code": "226500"
    },
    {
        "name": "Hai'an County",
        "zip_code": "226600"
    },
    {
        "name": "Ganyu District",
        "zip_code": "222100"
    },
    {
        "name": "Guanyun County",
        "zip_code": "222200"
    },
    {
        "name": "Donghai County",
        "zip_code": "222300"
    },
    {
        "name": "Guannan County",
        "zip_code": "223500"
    },
    {
        "name": "Jinhu County",
        "zip_code": "211600"
    },
    {
        "name": "Xuyi County",
        "zip_code": "211700"
    },
    {
        "name": "Huai'an",
        "zip_code": "223000"
    },
    {
        "name": "Hongze County",
        "zip_code": "223100"
    },
    {
        "name": "Huai'an District",
        "zip_code": "223200"
    },
    {
        "name": "Huaiyin District",
        "zip_code": "223300"
    },
    {
        "name": "Lianshui County",
        "zip_code": "223400"
    },
    {
        "name": "Dafeng District",
        "zip_code": "224100"
    },
    {
        "name": "Dongtai",
        "zip_code": "224200"
    },
    {
        "name": "Sheyang County",
        "zip_code": "224300"
    },
    {
        "name": "Funing County",
        "zip_code": "224400"
    },
    {
        "name": "Binhai County",
        "zip_code": "224500"
    },
    {
        "name": "Xiangshui County",
        "zip_code": "224600"
    },
    {
        "name": "Jianhu County",
        "zip_code": "224700"
    },
    {
        "name": "Yizheng",
        "zip_code": "211400"
    },
    {
        "name": "Hanjiang District",
        "zip_code": "225100"
    },
    {
        "name": "Jiangdu District",
        "zip_code": "225200"
    },
    {
        "name": "Gaoyou",
        "zip_code": "225600"
    },
    {
        "name": "Baoying County",
        "zip_code": "225800"
    },
    {
        "name": "Dantu District",
        "zip_code": "212100"
    },
    {
        "name": "Yangzhong",
        "zip_code": "212200"
    },
    {
        "name": "Danyang",
        "zip_code": "212300"
    },
    {
        "name": "Jurong",
        "zip_code": "212400"
    },
    {
        "name": "Jingjiang",
        "zip_code": "214500"
    },
    {
        "name": "Taixing",
        "zip_code": "225400"
    },
    {
        "name": "Jiangyan District",
        "zip_code": "225500"
    },
    {
        "name": "Xinghua",
        "zip_code": "225700"
    },
    {
        "name": "Shuyang County",
        "zip_code": "223600"
    },
    {
        "name": "Siyang County",
        "zip_code": "223700"
    },
    {
        "name": "Sihong County",
        "zip_code": "223900"
    },
    {
        "name": "Nanjing",
        "zip_code": "210000"
    },
    {
        "name": "Zhenjiang",
        "zip_code": "212000"
    },
    {
        "name": "Changzhou",
        "zip_code": "213000"
    },
    {
        "name": "Wuxi",
        "zip_code": "214000"
    },
    {
        "name": "Suzhou",
        "zip_code": "215000"
    },
    {
        "name": "Xuzhou",
        "zip_code": "221000"
    },
    {
        "name": "Lianyungang",
        "zip_code": "222000"
    },
    {
        "name": "Suqian",
        "zip_code": "223800"
    },
    {
        "name": "Yancheng",
        "zip_code": "224000"
    },
    {
        "name": "Yangzhou",
        "zip_code": "225000"
    },
    {
        "name": "Taizhou",
        "zip_code": "225300"
    },
    {
        "name": "Nantong",
        "zip_code": "226000"
    },
    {
        "name": "Nong'an County",
        "zip_code": "130200"
    },
    {
        "name": "Dehui",
        "zip_code": "130300"
    },
    {
        "name": "Yushu",
        "zip_code": "130400"
    },
    {
        "name": "Jiutai District",
        "zip_code": "130500"
    },
    {
        "name": "Shuangyang District",
        "zip_code": "130600"
    },
    {
        "name": "Yongji County",
        "zip_code": "132200"
    },
    {
        "name": "Panshi",
        "zip_code": "132300"
    },
    {
        "name": "Huadian City",
        "zip_code": "132400"
    },
    {
        "name": "Jiaohe",
        "zip_code": "132500"
    },
    {
        "name": "Shulan",
        "zip_code": "132600"
    },
    {
        "name": "Yitong Manchu Autonomous County",
        "zip_code": "130700"
    },
    {
        "name": "Gongzhuling",
        "zip_code": "136100"
    },
    {
        "name": "Shuangliao",
        "zip_code": "136400"
    },
    {
        "name": "Lishu County",
        "zip_code": "136500"
    },
    {
        "name": "Dongfeng County",
        "zip_code": "136300"
    },
    {
        "name": "Dongliao County",
        "zip_code": "136600"
    },
    {
        "name": "Tonghua",
        "zip_code": "134000"
    },
    {
        "name": "Tonghua County",
        "zip_code": "134100"
    },
    {
        "name": "Ji'an",
        "zip_code": "134200"
    },
    {
        "name": "Meihekou",
        "zip_code": "135000"
    },
    {
        "name": "Huinan County",
        "zip_code": "135100"
    },
    {
        "name": "Hunjiang District",
        "zip_code": "134300"
    },
    {
        "name": "Changbai Korean Autonomous County",
        "zip_code": "134400"
    },
    {
        "name": "Fusong County",
        "zip_code": "134500"
    },
    {
        "name": "Linjiang",
        "zip_code": "134600"
    },
    {
        "name": "Jingyu County",
        "zip_code": "135200"
    },
    {
        "name": "Qian Gorlos Mongol Autonomous County",
        "zip_code": "131100"
    },
    {
        "name": "Fuyu",
        "zip_code": "131200"
    },
    {
        "name": "Qian'an County",
        "zip_code": "131400"
    },
    {
        "name": "Changling County",
        "zip_code": "131500"
    },
    {
        "name": "Da'an",
        "zip_code": "131300"
    },
    {
        "name": "Taonan",
        "zip_code": "137100"
    },
    {
        "name": "Tongyu County",
        "zip_code": "137200"
    },
    {
        "name": "Zhenlai County",
        "zip_code": "137300"
    },
    {
        "name": "Tumen",
        "zip_code": "133100"
    },
    {
        "name": "Wangqing County",
        "zip_code": "133200"
    },
    {
        "name": "Hunchun",
        "zip_code": "133300"
    },
    {
        "name": "Longjing",
        "zip_code": "133400"
    },
    {
        "name": "Helong",
        "zip_code": "133500"
    },
    {
        "name": "Antu County",
        "zip_code": "133600"
    },
    {
        "name": "Dunhua",
        "zip_code": "133700"
    },
    {
        "name": "Changchun",
        "zip_code": "130000"
    },
    {
        "name": "Jilin City",
        "zip_code": "132000"
    },
    {
        "name": "Yanbian Korean Autonomous Prefecture",
        "zip_code": "133000"
    },
    {
        "name": "Siping",
        "zip_code": "136000"
    },
    {
        "name": "Liaoyuan",
        "zip_code": "136200"
    },
    {
        "name": "Baicheng",
        "zip_code": "137000"
    },
    {
        "name": "Songyuan",
        "zip_code": "138000"
    },
    {
        "name": "Datong Hui and Tu Autonomous County",
        "zip_code": "810100"
    },
    {
        "name": "Ping'an District",
        "zip_code": "810600"
    },
    {
        "name": "Ledu District",
        "zip_code": "810700"
    },
    {
        "name": "Huangzhong County",
        "zip_code": "811600"
    },
    {
        "name": "Huangyuan County",
        "zip_code": "812100"
    },
    {
        "name": "Huzhu Tu Autonomous County",
        "zip_code": "810500"
    },
    {
        "name": "Minhe Hui and Tu Autonomous County",
        "zip_code": "810800"
    },
    {
        "name": "Hualong Hui Autonomous County",
        "zip_code": "810900"
    },
    {
        "name": "Xunhua Salar Autonomous County",
        "zip_code": "811100"
    },
    {
        "name": "Menyuan Hui Autonomous County",
        "zip_code": "810300"
    },
    {
        "name": "Qilian County",
        "zip_code": "810400"
    },
    {
        "name": "Haiyan County",
        "zip_code": "812200"
    },
    {
        "name": "Jainca County",
        "zip_code": "811200"
    },
    {
        "name": "Tongren County",
        "zip_code": "811300"
    },
    {
        "name": "Zêkog County",
        "zip_code": "811400"
    },
    {
        "name": "Henan Mongol Autonomous County",
        "zip_code": "811500"
    },
    {
        "name": "Guide County",
        "zip_code": "811800"
    },
    {
        "name": "Tongde County",
        "zip_code": "813200"
    },
    {
        "name": "Xinghai County",
        "zip_code": "813300"
    },
    {
        "name": "Jigzhi County",
        "zip_code": "624700"
    },
    {
        "name": "Madoi County",
        "zip_code": "813500"
    },
    {
        "name": "Gadê County",
        "zip_code": "814100"
    },
    {
        "name": "Darlag County",
        "zip_code": "814200"
    },
    {
        "name": "Baima County",
        "zip_code": "814300"
    },
    {
        "name": "Chindu County",
        "zip_code": "815100"
    },
    {
        "name": "Nangchen County",
        "zip_code": "815200"
    },
    {
        "name": "Zadoi County",
        "zip_code": "815300"
    },
    {
        "name": "Zhidoi County",
        "zip_code": "815400"
    },
    {
        "name": "Qumarlêb County",
        "zip_code": "815500"
    },
    {
        "name": "Golmud",
        "zip_code": "816000"
    },
    {
        "name": "Dulan County",
        "zip_code": "816100"
    },
    {
        "name": "Haixi Mongol and Tibetan Autonomous Prefecture",
        "zip_code": "817000"
    },
    {
        "name": "Ulan County",
        "zip_code": "817100"
    },
    {
        "name": "Tianjun County",
        "zip_code": "817200"
    },
    {
        "name": "Lenghu",
        "zip_code": "817400"
    },
    {
        "name": "Mangnai",
        "zip_code": "817500"
    },
    {
        "name": "Da Qaidam",
        "zip_code": "817300"
    },
    {
        "name": "Xining",
        "zip_code": "810000"
    },
    {
        "name": "Hainan Tibetan Autonomous Prefecture",
        "zip_code": "813000"
    },
    {
        "name": "Golog Tibetan Autonomous Prefecture",
        "zip_code": "814000"
    },
    {
        "name": "Yushu Tibetan Autonomous Prefecture",
        "zip_code": "815000"
    },
    {
        "name": "Minhou County",
        "zip_code": "350100"
    },
    {
        "name": "Changle",
        "zip_code": "350200"
    },
    {
        "name": "Fuqing",
        "zip_code": "350300"
    },
    {
        "name": "Pingtan County",
        "zip_code": "350400"
    },
    {
        "name": "Lianjiang County",
        "zip_code": "350500"
    },
    {
        "name": "Luoyuan County",
        "zip_code": "350600"
    },
    {
        "name": "Yongtai County",
        "zip_code": "350700"
    },
    {
        "name": "Minqing County",
        "zip_code": "350800"
    },
    {
        "name": "Tong'an District",
        "zip_code": "361100"
    },
    {
        "name": "Xianyou County",
        "zip_code": "351200"
    },
    {
        "name": "Jiangle County",
        "zip_code": "353300"
    },
    {
        "name": "Taining County",
        "zip_code": "354400"
    },
    {
        "name": "Jianning County",
        "zip_code": "354500"
    },
    {
        "name": "Youxi County",
        "zip_code": "365100"
    },
    {
        "name": "Mingxi County",
        "zip_code": "365200"
    },
    {
        "name": "Qingliu County",
        "zip_code": "365300"
    },
    {
        "name": "Ninghua County",
        "zip_code": "365400"
    },
    {
        "name": "Sha County",
        "zip_code": "365500"
    },
    {
        "name": "Yong'an",
        "zip_code": "366000"
    },
    {
        "name": "Datian County",
        "zip_code": "366100"
    },
    {
        "name": "Hui'an County",
        "zip_code": "362100"
    },
    {
        "name": "Jinjiang",
        "zip_code": "362200"
    },
    {
        "name": "Nan'an",
        "zip_code": "362300"
    },
    {
        "name": "Anxi County",
        "zip_code": "362400"
    },
    {
        "name": "Dehua County",
        "zip_code": "362500"
    },
    {
        "name": "Yongchun County",
        "zip_code": "362600"
    },
    {
        "name": "Longhai City",
        "zip_code": "363100"
    },
    {
        "name": "Zhangpu County",
        "zip_code": "363200"
    },
    {
        "name": "Yunxiao County",
        "zip_code": "363300"
    },
    {
        "name": "Dongshan County",
        "zip_code": "363400"
    },
    {
        "name": "Zhao'an County",
        "zip_code": "363500"
    },
    {
        "name": "Nanjing County",
        "zip_code": "363600"
    },
    {
        "name": "Pinghe County",
        "zip_code": "363700"
    },
    {
        "name": "Hua'an County",
        "zip_code": "363800"
    },
    {
        "name": "Changtai County",
        "zip_code": "363900"
    },
    {
        "name": "Jian'ou",
        "zip_code": "353100"
    },
    {
        "name": "Shunchang County",
        "zip_code": "353200"
    },
    {
        "name": "Pucheng County",
        "zip_code": "353400"
    },
    {
        "name": "Songxi County",
        "zip_code": "353500"
    },
    {
        "name": "Zhenghe County",
        "zip_code": "353600"
    },
    {
        "name": "Shaowu",
        "zip_code": "354000"
    },
    {
        "name": "Guangze County",
        "zip_code": "354100"
    },
    {
        "name": "Jianyang District",
        "zip_code": "354200"
    },
    {
        "name": "Wuyishan City",
        "zip_code": "354300"
    },
    {
        "name": "Yongding District",
        "zip_code": "364100"
    },
    {
        "name": "Shanghang County",
        "zip_code": "364200"
    },
    {
        "name": "Wuping County",
        "zip_code": "364300"
    },
    {
        "name": "Zhangping City",
        "zip_code": "364400"
    },
    {
        "name": "Liancheng County",
        "zip_code": "366200"
    },
    {
        "name": "Changting County",
        "zip_code": "366300"
    },
    {
        "name": "Gutian County",
        "zip_code": "352200"
    },
    {
        "name": "Pingnan County",
        "zip_code": "352300"
    },
    {
        "name": "Fu'an",
        "zip_code": "355000"
    },
    {
        "name": "Xiapu County",
        "zip_code": "355100"
    },
    {
        "name": "Fuding",
        "zip_code": "355200"
    },
    {
        "name": "Zherong County",
        "zip_code": "355300"
    },
    {
        "name": "Zhouning County",
        "zip_code": "355400"
    },
    {
        "name": "Shouning County",
        "zip_code": "355500"
    },
    {
        "name": "Fuzhou",
        "zip_code": "350000"
    },
    {
        "name": "Putian",
        "zip_code": "351100"
    },
    {
        "name": "Ningde",
        "zip_code": "352100"
    },
    {
        "name": "Nanping",
        "zip_code": "353000"
    },
    {
        "name": "Xiamen",
        "zip_code": "361000"
    },
    {
        "name": "Quanzhou",
        "zip_code": "362000"
    },
    {
        "name": "Zhangzhou",
        "zip_code": "363000"
    },
    {
        "name": "Longyan",
        "zip_code": "364000"
    },
    {
        "name": "Sanming",
        "zip_code": "365000"
    },
    {
        "name": "Shuangcheng District",
        "zip_code": "150100"
    },
    {
        "name": "Wuchang",
        "zip_code": "150200"
    },
    {
        "name": "Acheng District",
        "zip_code": "150300"
    },
    {
        "name": "Bin County",
        "zip_code": "150400"
    },
    {
        "name": "Hulan District",
        "zip_code": "150500"
    },
    {
        "name": "Shangzhi",
        "zip_code": "150600"
    },
    {
        "name": "Yanshou County",
        "zip_code": "150700"
    },
    {
        "name": "Fangzheng County",
        "zip_code": "150800"
    },
    {
        "name": "Tonghe County",
        "zip_code": "150900"
    },
    {
        "name": "Bayan County",
        "zip_code": "151800"
    },
    {
        "name": "Mulan County",
        "zip_code": "151900"
    },
    {
        "name": "Yilan County",
        "zip_code": "154800"
    },
    {
        "name": "Longjiang County",
        "zip_code": "161100"
    },
    {
        "name": "Fuyu County",
        "zip_code": "161200"
    },
    {
        "name": "Nehe",
        "zip_code": "161300"
    },
    {
        "name": "Yi'an County",
        "zip_code": "161500"
    },
    {
        "name": "Keshan County",
        "zip_code": "161600"
    },
    {
        "name": "Baiquan County",
        "zip_code": "161700"
    },
    {
        "name": "Kedong County",
        "zip_code": "161800"
    },
    {
        "name": "Gannan County",
        "zip_code": "162100"
    },
    {
        "name": "Tailai County",
        "zip_code": "162400"
    },
    {
        "name": "Luobei County",
        "zip_code": "154200"
    },
    {
        "name": "Suibin County",
        "zip_code": "156200"
    },
    {
        "name": "Jianshan District",
        "zip_code": "155100"
    },
    {
        "name": "Baoqing County",
        "zip_code": "155600"
    },
    {
        "name": "Raohe County",
        "zip_code": "155700"
    },
    {
        "name": "Youyi County",
        "zip_code": "155800"
    },
    {
        "name": "Jixian County",
        "zip_code": "155900"
    },
    {
        "name": "Zhaozhou County",
        "zip_code": "151200"
    },
    {
        "name": "Zhaoyuan County",
        "zip_code": "151300"
    },
    {
        "name": "Dorbod Mongol Autonomous County",
        "zip_code": "162200"
    },
    {
        "name": "Lindian County",
        "zip_code": "162300"
    },
    {
        "name": "Tieli",
        "zip_code": "152500"
    },
    {
        "name": "Yichun",
        "zip_code": "153000"
    },
    {
        "name": "Nancha District",
        "zip_code": "153100"
    },
    {
        "name": "Jiayin County",
        "zip_code": "153200"
    },
    {
        "name": "Huachuan County",
        "zip_code": "154300"
    },
    {
        "name": "Huanan County",
        "zip_code": "154400"
    },
    {
        "name": "Tangyuan County",
        "zip_code": "154700"
    },
    {
        "name": "Fujin",
        "zip_code": "156100"
    },
    {
        "name": "Jiansanjiang",
        "zip_code": "156300"
    },
    {
        "name": "Tongjiang",
        "zip_code": "156400"
    },
    {
        "name": "Fuyuan",
        "zip_code": "156500"
    },
    {
        "name": "Boli County",
        "zip_code": "154500"
    },
    {
        "name": "Hailin",
        "zip_code": "157100"
    },
    {
        "name": "Dongning",
        "zip_code": "157200"
    },
    {
        "name": "Suifenhe",
        "zip_code": "157300"
    },
    {
        "name": "Ning'an",
        "zip_code": "157400"
    },
    {
        "name": "Muling",
        "zip_code": "157500"
    },
    {
        "name": "Linkou County",
        "zip_code": "157600"
    },
    {
        "name": "Nenjiang County",
        "zip_code": "161400"
    },
    {
        "name": "Bei'an",
        "zip_code": "164000"
    },
    {
        "name": "Wudalianchi",
        "zip_code": "164100"
    },
    {
        "name": "Sunwu County",
        "zip_code": "164200"
    },
    {
        "name": "Aihui District",
        "zip_code": "164300"
    },
    {
        "name": "Xunke County",
        "zip_code": "164400"
    },
    {
        "name": "Zhaodong",
        "zip_code": "151100"
    },
    {
        "name": "Anda",
        "zip_code": "151400"
    },
    {
        "name": "Lanxi County",
        "zip_code": "151500"
    },
    {
        "name": "Qinggang County",
        "zip_code": "151600"
    },
    {
        "name": "Suihua",
        "zip_code": "152000"
    },
    {
        "name": "Wangkui County",
        "zip_code": "152100"
    },
    {
        "name": "Suileng County",
        "zip_code": "152200"
    },
    {
        "name": "Hailun",
        "zip_code": "152300"
    },
    {
        "name": "Qing'an County",
        "zip_code": "152400"
    },
    {
        "name": "Huma County",
        "zip_code": "165100"
    },
    {
        "name": "Tahe County",
        "zip_code": "165200"
    },
    {
        "name": "Mohe County",
        "zip_code": "165300"
    },
    {
        "name": "Harbin",
        "zip_code": "150000"
    },
    {
        "name": "Jiamusi",
        "zip_code": "154000"
    },
    {
        "name": "Hegang",
        "zip_code": "154100"
    },
    {
        "name": "Qitaihe",
        "zip_code": "154600"
    },
    {
        "name": "Shuangyashan",
        "zip_code": "155000"
    },
    {
        "name": "Mudanjiang",
        "zip_code": "157000"
    },
    {
        "name": "Qiqihar",
        "zip_code": "161000"
    },
    {
        "name": "Daqing",
        "zip_code": "163000"
    },
    {
        "name": "Daxing'anling Prefecture",
        "zip_code": "165000"
    },
    {
        "name": "Xingyang",
        "zip_code": "450100"
    },
    {
        "name": "Xinzheng",
        "zip_code": "451100"
    },
    {
        "name": "Gongyi",
        "zip_code": "451200"
    },
    {
        "name": "Zhongmu County",
        "zip_code": "451300"
    },
    {
        "name": "Xinmi",
        "zip_code": "452300"
    },
    {
        "name": "Dengfeng",
        "zip_code": "452400"
    },
    {
        "name": "Weishi County",
        "zip_code": "452100"
    },
    {
        "name": "Tongxu County",
        "zip_code": "452200"
    },
    {
        "name": "Kaifeng",
        "zip_code": "475000"
    },
    {
        "name": "Xiangfu District",
        "zip_code": "475100"
    },
    {
        "name": "Qi County",
        "zip_code": "475200"
    },
    {
        "name": "Lankao County",
        "zip_code": "475300"
    },
    {
        "name": "Mengjin County",
        "zip_code": "471100"
    },
    {
        "name": "Ruyang County",
        "zip_code": "471200"
    },
    {
        "name": "Yichuan County",
        "zip_code": "471300"
    },
    {
        "name": "Song County",
        "zip_code": "471400"
    },
    {
        "name": "Luanchuan County",
        "zip_code": "471500"
    },
    {
        "name": "Yiyang County",
        "zip_code": "471600"
    },
    {
        "name": "Luoning County",
        "zip_code": "471700"
    },
    {
        "name": "Xin'an County",
        "zip_code": "471800"
    },
    {
        "name": "Yanshi",
        "zip_code": "471900"
    },
    {
        "name": "Wugang",
        "zip_code": "462500"
    },
    {
        "name": "Jia County",
        "zip_code": "467100"
    },
    {
        "name": "Ye County",
        "zip_code": "467200"
    },
    {
        "name": "Lushan County",
        "zip_code": "467300"
    },
    {
        "name": "Baofeng County",
        "zip_code": "467400"
    },
    {
        "name": "Ruzhou",
        "zip_code": "467500"
    },
    {
        "name": "Anyang",
        "zip_code": "455000"
    },
    {
        "name": "Anyang County",
        "zip_code": "455100"
    },
    {
        "name": "Tangyin County",
        "zip_code": "456100"
    },
    {
        "name": "Neihuang County",
        "zip_code": "456300"
    },
    {
        "name": "Hua County",
        "zip_code": "456400"
    },
    {
        "name": "Linzhou City",
        "zip_code": "456500"
    },
    {
        "name": "Xun County",
        "zip_code": "456200"
    },
    {
        "name": "Qi County",
        "zip_code": "456700"
    },
    {
        "name": "Xinxiang",
        "zip_code": "453000"
    },
    {
        "name": "Weihui",
        "zip_code": "453100"
    },
    {
        "name": "Yanjin County",
        "zip_code": "453200"
    },
    {
        "name": "Fengqiu County",
        "zip_code": "453300"
    },
    {
        "name": "Changyuan County",
        "zip_code": "453400"
    },
    {
        "name": "Huixian",
        "zip_code": "453600"
    },
    {
        "name": "Xinxiang County",
        "zip_code": "453700"
    },
    {
        "name": "Huojia County",
        "zip_code": "453800"
    },
    {
        "name": "Xiuwu County",
        "zip_code": "454300"
    },
    {
        "name": "Bo'ai County",
        "zip_code": "454400"
    },
    {
        "name": "Qinyang City",
        "zip_code": "454500"
    },
    {
        "name": "Mengzhou City",
        "zip_code": "454700"
    },
    {
        "name": "Wen County",
        "zip_code": "454800"
    },
    {
        "name": "Wuzhi County",
        "zip_code": "454900"
    },
    {
        "name": "Puyang",
        "zip_code": "457000"
    },
    {
        "name": "Puyang County",
        "zip_code": "457100"
    },
    {
        "name": "Qingfeng County",
        "zip_code": "457300"
    },
    {
        "name": "Nanle County",
        "zip_code": "457400"
    },
    {
        "name": "Fan County",
        "zip_code": "457500"
    },
    {
        "name": "Taiqian County",
        "zip_code": "457600"
    },
    {
        "name": "Xuchang",
        "zip_code": "461000"
    },
    {
        "name": "Xuchang County",
        "zip_code": "461100"
    },
    {
        "name": "Yanling County",
        "zip_code": "461200"
    },
    {
        "name": "Changge",
        "zip_code": "461500"
    },
    {
        "name": "Yuzhou City",
        "zip_code": "461600"
    },
    {
        "name": "Yancheng District",
        "zip_code": "462300"
    },
    {
        "name": "Wuyang County",
        "zip_code": "462400"
    },
    {
        "name": "Linying County",
        "zip_code": "462600"
    },
    {
        "name": "Shanzhou District",
        "zip_code": "472100"
    },
    {
        "name": "Lushi County",
        "zip_code": "472200"
    },
    {
        "name": "Yima",
        "zip_code": "472300"
    },
    {
        "name": "Mianchi County",
        "zip_code": "472400"
    },
    {
        "name": "Lingbao",
        "zip_code": "472500"
    },
    {
        "name": "Fangcheng County",
        "zip_code": "473200"
    },
    {
        "name": "Sheqi County",
        "zip_code": "473300"
    },
    {
        "name": "Tanghe County",
        "zip_code": "473400"
    },
    {
        "name": "Xinye County",
        "zip_code": "473500"
    },
    {
        "name": "Dengzhou",
        "zip_code": "474100"
    },
    {
        "name": "Zhenping County",
        "zip_code": "474200"
    },
    {
        "name": "Neixiang County",
        "zip_code": "474300"
    },
    {
        "name": "Xichuan County",
        "zip_code": "474400"
    },
    {
        "name": "Xixia County",
        "zip_code": "474500"
    },
    {
        "name": "Nanzhao County",
        "zip_code": "474600"
    },
    {
        "name": "Tongbai County",
        "zip_code": "474700"
    },
    {
        "name": "Zhecheng County",
        "zip_code": "476200"
    },
    {
        "name": "Yucheng County",
        "zip_code": "476300"
    },
    {
        "name": "Xiayi County",
        "zip_code": "476400"
    },
    {
        "name": "Yongcheng",
        "zip_code": "476600"
    },
    {
        "name": "Ningling County",
        "zip_code": "476700"
    },
    {
        "name": "Minquan County",
        "zip_code": "476800"
    },
    {
        "name": "Sui County",
        "zip_code": "476900"
    },
    {
        "name": "Xinyang",
        "zip_code": "464000"
    },
    {
        "name": "Luoshan County",
        "zip_code": "464200"
    },
    {
        "name": "Xi County",
        "zip_code": "464300"
    },
    {
        "name": "Huaibin County",
        "zip_code": "464400"
    },
    {
        "name": "Huangchuan County",
        "zip_code": "465100"
    },
    {
        "name": "Gushi County",
        "zip_code": "465200"
    },
    {
        "name": "Shangcheng County",
        "zip_code": "465300"
    },
    {
        "name": "Guangshan County",
        "zip_code": "465400"
    },
    {
        "name": "Xin County",
        "zip_code": "465500"
    },
    {
        "name": "Xiangcheng County",
        "zip_code": "452600"
    },
    {
        "name": "Fugou County",
        "zip_code": "461300"
    },
    {
        "name": "Shangshui County",
        "zip_code": "466100"
    },
    {
        "name": "Xiangcheng City",
        "zip_code": "466200"
    },
    {
        "name": "Shenqiu County",
        "zip_code": "466300"
    },
    {
        "name": "Xihua County",
        "zip_code": "466600"
    },
    {
        "name": "Huaiyang County",
        "zip_code": "466700"
    },
    {
        "name": "Taikang County",
        "zip_code": "475400"
    },
    {
        "name": "Dancheng County",
        "zip_code": "477100"
    },
    {
        "name": "Luyi County",
        "zip_code": "477200"
    },
    {
        "name": "Xiping County",
        "zip_code": "462100"
    },
    {
        "name": "Suiping County",
        "zip_code": "463100"
    },
    {
        "name": "Queshan County",
        "zip_code": "463200"
    },
    {
        "name": "Runan County",
        "zip_code": "463300"
    },
    {
        "name": "Pingyu County",
        "zip_code": "463400"
    },
    {
        "name": "Xincai County",
        "zip_code": "463500"
    },
    {
        "name": "Zhengyang County",
        "zip_code": "463600"
    },
    {
        "name": "Biyang County",
        "zip_code": "463700"
    },
    {
        "name": "Zhengzhou",
        "zip_code": "450000"
    },
    {
        "name": "Jiaozuo",
        "zip_code": "454100"
    },
    {
        "name": "Jiyuan",
        "zip_code": "454600"
    },
    {
        "name": "Hebi",
        "zip_code": "456600"
    },
    {
        "name": "Luohe",
        "zip_code": "462000"
    },
    {
        "name": "Zhumadian",
        "zip_code": "463000"
    },
    {
        "name": "Zhoukou",
        "zip_code": "466000"
    },
    {
        "name": "Pingdingshan",
        "zip_code": "467000"
    },
    {
        "name": "Luoyang",
        "zip_code": "471000"
    },
    {
        "name": "Sanmenxia",
        "zip_code": "472000"
    },
    {
        "name": "Nanyang",
        "zip_code": "473100"
    },
    {
        "name": "Shangqiu",
        "zip_code": "476100"
    },
    {
        "name": "Jingxing Mining District",
        "zip_code": "050100"
    },
    {
        "name": "Luquan District",
        "zip_code": "050200"
    },
    {
        "name": "Jingxing County",
        "zip_code": "050300"
    },
    {
        "name": "Pingshan County",
        "zip_code": "050400"
    },
    {
        "name": "Lingshou County",
        "zip_code": "050500"
    },
    {
        "name": "Xingtang County",
        "zip_code": "050600"
    },
    {
        "name": "Xinle",
        "zip_code": "050700"
    },
    {
        "name": "Zhengding County",
        "zip_code": "050800"
    },
    {
        "name": "Yuanshi County",
        "zip_code": "051100"
    },
    {
        "name": "Zanhuang County",
        "zip_code": "051200"
    },
    {
        "name": "Gaoyi County",
        "zip_code": "051300"
    },
    {
        "name": "Luancheng District",
        "zip_code": "051400"
    },
    {
        "name": "Zhao County",
        "zip_code": "051500"
    },
    {
        "name": "Gaocheng District",
        "zip_code": "052100"
    },
    {
        "name": "Jinzhou",
        "zip_code": "052200"
    },
    {
        "name": "Xinji",
        "zip_code": "052300"
    },
    {
        "name": "Wuji County",
        "zip_code": "052400"
    },
    {
        "name": "Shenze County",
        "zip_code": "052500"
    },
    {
        "name": "Guye District",
        "zip_code": "063100"
    },
    {
        "name": "Caofeidian District",
        "zip_code": "063200"
    },
    {
        "name": "Fengnan District",
        "zip_code": "063300"
    },
    {
        "name": "Luannan County",
        "zip_code": "063500"
    },
    {
        "name": "Laoting County",
        "zip_code": "063600"
    },
    {
        "name": "Luan County",
        "zip_code": "063700"
    },
    {
        "name": "Fengrun District",
        "zip_code": "064000"
    },
    {
        "name": "Yutian County",
        "zip_code": "064100"
    },
    {
        "name": "Zunhua",
        "zip_code": "064200"
    },
    {
        "name": "Qianxi County and Qian'an",
        "zip_code": "064400"
    },
    {
        "name": "Beidaihe District",
        "zip_code": "066100"
    },
    {
        "name": "Shanhaiguan District",
        "zip_code": "066200"
    },
    {
        "name": "Funing District",
        "zip_code": "066300"
    },
    {
        "name": "Lulong County",
        "zip_code": "066400"
    },
    {
        "name": "Qinglong Manchu Autonomous County",
        "zip_code": "066500"
    },
    {
        "name": "Changli County",
        "zip_code": "066600"
    },
    {
        "name": "Handan",
        "zip_code": "056000"
    },
    {
        "name": "Fengfeng Mining District",
        "zip_code": "056200"
    },
    {
        "name": "Wu'an",
        "zip_code": "056300"
    },
    {
        "name": "She County",
        "zip_code": "056400"
    },
    {
        "name": "Ci County",
        "zip_code": "056500"
    },
    {
        "name": "Linzhang County",
        "zip_code": "056600"
    },
    {
        "name": "Cheng'an County",
        "zip_code": "056700"
    },
    {
        "name": "Daming County",
        "zip_code": "056900"
    },
    {
        "name": "Yongnian County",
        "zip_code": "057100"
    },
    {
        "name": "Quzhou County",
        "zip_code": "057200"
    },
    {
        "name": "Jize County",
        "zip_code": "057300"
    },
    {
        "name": "Qiu County",
        "zip_code": "057400"
    },
    {
        "name": "Feixiang County",
        "zip_code": "057500"
    },
    {
        "name": "Guangping County",
        "zip_code": "057600"
    },
    {
        "name": "Guantao County",
        "zip_code": "057700"
    },
    {
        "name": "Ningjin County",
        "zip_code": "051600"
    },
    {
        "name": "Xinhe County",
        "zip_code": "051700"
    },
    {
        "name": "Nangong",
        "zip_code": "051800"
    },
    {
        "name": "Xingtai",
        "zip_code": "054000"
    },
    {
        "name": "Shahe",
        "zip_code": "054100"
    },
    {
        "name": "Neiqiu County",
        "zip_code": "054200"
    },
    {
        "name": "Lincheng County",
        "zip_code": "054300"
    },
    {
        "name": "Nanhe County",
        "zip_code": "054400"
    },
    {
        "name": "Pingxiang County",
        "zip_code": "054500"
    },
    {
        "name": "Guangzong County",
        "zip_code": "054600"
    },
    {
        "name": "Wei County",
        "zip_code": "054700"
    },
    {
        "name": "Qinghe County",
        "zip_code": "054800"
    },
    {
        "name": "Ren County",
        "zip_code": "055100"
    },
    {
        "name": "Julu County",
        "zip_code": "055200"
    },
    {
        "name": "Longyao County",
        "zip_code": "055300"
    },
    {
        "name": "Baixiang County",
        "zip_code": "055400"
    },
    {
        "name": "Wei County",
        "zip_code": "056800"
    },
    {
        "name": "Linxi County",
        "zip_code": "057800"
    },
    {
        "name": "Qingyuan District",
        "zip_code": "071100"
    },
    {
        "name": "Anguo",
        "zip_code": "071200"
    },
    {
        "name": "Boye County",
        "zip_code": "071300"
    },
    {
        "name": "Li County",
        "zip_code": "071400"
    },
    {
        "name": "Gaoyang County",
        "zip_code": "071500"
    },
    {
        "name": "Anxin County",
        "zip_code": "071600"
    },
    {
        "name": "Rongcheng County",
        "zip_code": "071700"
    },
    {
        "name": "Xiong County",
        "zip_code": "071800"
    },
    {
        "name": "Mancheng District",
        "zip_code": "072100"
    },
    {
        "name": "Shunping County",
        "zip_code": "072200"
    },
    {
        "name": "Tang County",
        "zip_code": "072300"
    },
    {
        "name": "Wangdu County",
        "zip_code": "072400"
    },
    {
        "name": "Xushui District",
        "zip_code": "072500"
    },
    {
        "name": "Dingxing County",
        "zip_code": "072600"
    },
    {
        "name": "Zhuozhou",
        "zip_code": "072700"
    },
    {
        "name": "Dingzhou",
        "zip_code": "073000"
    },
    {
        "name": "Quyang County",
        "zip_code": "073100"
    },
    {
        "name": "Fuping County",
        "zip_code": "073200"
    },
    {
        "name": "Gaobeidian",
        "zip_code": "074000"
    },
    {
        "name": "Laishui County",
        "zip_code": "074100"
    },
    {
        "name": "Yi County",
        "zip_code": "074200"
    },
    {
        "name": "Xuanhua District",
        "zip_code": "075100"
    },
    {
        "name": "Pangjiabao Town",
        "zip_code": "075200"
    },
    {
        "name": "Xiahuayuan District",
        "zip_code": "075300"
    },
    {
        "name": "Huailai County",
        "zip_code": "075400"
    },
    {
        "name": "Chicheng County",
        "zip_code": "075500"
    },
    {
        "name": "Zhuolu County",
        "zip_code": "075600"
    },
    {
        "name": "Yu County",
        "zip_code": "075700"
    },
    {
        "name": "Yangyuan County",
        "zip_code": "075800"
    },
    {
        "name": "Huai'an County",
        "zip_code": "076100"
    },
    {
        "name": "Wanquan District",
        "zip_code": "076200"
    },
    {
        "name": "Chongli District",
        "zip_code": "076300"
    },
    {
        "name": "Zhangbei County",
        "zip_code": "076400"
    },
    {
        "name": "Guyuan County",
        "zip_code": "076500"
    },
    {
        "name": "Kangbao County",
        "zip_code": "076600"
    },
    {
        "name": "Shangyi County",
        "zip_code": "076700"
    },
    {
        "name": "Chengde",
        "zip_code": "067000"
    },
    {
        "name": "Shouwangfen Town",
        "zip_code": "067100"
    },
    {
        "name": "Yingshouyingzi Mining District",
        "zip_code": "067200"
    },
    {
        "name": "Xinglong County",
        "zip_code": "067300"
    },
    {
        "name": "Chengde County",
        "zip_code": "067400"
    },
    {
        "name": "Pingquan County",
        "zip_code": "067500"
    },
    {
        "name": "Kuancheng Manchu Autonomous County",
        "zip_code": "067600"
    },
    {
        "name": "Longhua County",
        "zip_code": "068100"
    },
    {
        "name": "Luanping County",
        "zip_code": "068200"
    },
    {
        "name": "Fengning Manchu Autonomous County",
        "zip_code": "068300"
    },
    {
        "name": "Weichang Manchu and Mongol Autonomous County",
        "zip_code": "068400"
    },
    {
        "name": "Huanghua",
        "zip_code": "061100"
    },
    {
        "name": "Haixing County",
        "zip_code": "061200"
    },
    {
        "name": "Yanshan County",
        "zip_code": "061300"
    },
    {
        "name": "Mengcun Hui Autonomous County",
        "zip_code": "061400"
    },
    {
        "name": "Nanpi County",
        "zip_code": "061500"
    },
    {
        "name": "Dongguang County",
        "zip_code": "061600"
    },
    {
        "name": "Wuqiao County",
        "zip_code": "061800"
    },
    {
        "name": "Botou",
        "zip_code": "062100"
    },
    {
        "name": "Xian County",
        "zip_code": "062200"
    },
    {
        "name": "Suning County",
        "zip_code": "062300"
    },
    {
        "name": "Hejian",
        "zip_code": "062400"
    },
    {
        "name": "Renqiu",
        "zip_code": "062500"
    },
    {
        "name": "Anping County",
        "zip_code": "052600"
    },
    {
        "name": "Raoyang County",
        "zip_code": "052700"
    },
    {
        "name": "Shenzhou City",
        "zip_code": "052800"
    },
    {
        "name": "Zaoqiang County",
        "zip_code": "053100"
    },
    {
        "name": "Jizhou City",
        "zip_code": "053200"
    },
    {
        "name": "Wuqiang County",
        "zip_code": "053300"
    },
    {
        "name": "Wuyi County",
        "zip_code": "053400"
    },
    {
        "name": "Jing County",
        "zip_code": "053500"
    },
    {
        "name": "Fucheng County",
        "zip_code": "061700"
    },
    {
        "name": "Gucheng County",
        "zip_code": "253800"
    },
    {
        "name": "Shijiazhuang",
        "zip_code": "050000"
    },
    {
        "name": "Hengshui",
        "zip_code": "053000"
    },
    {
        "name": "Cangzhou",
        "zip_code": "061000"
    },
    {
        "name": "Tangshan",
        "zip_code": "063000"
    },
    {
        "name": "Langfang",
        "zip_code": "065000"
    },
    {
        "name": "Qinhuangdao",
        "zip_code": "066000"
    },
    {
        "name": "Baoding",
        "zip_code": "071000"
    },
    {
        "name": "Zhangjiakou",
        "zip_code": "075000"
    },
    {
        "name": "Changsha",
        "zip_code": "410000"
    },
    {
        "name": "Changsha County",
        "zip_code": "410100"
    },
    {
        "name": "Wangcheng District",
        "zip_code": "410200"
    },
    {
        "name": "Liuyang",
        "zip_code": "410300"
    },
    {
        "name": "Ningxiang City",
        "zip_code": "410600"
    },
    {
        "name": "Zhuzhou",
        "zip_code": "412000"
    },
    {
        "name": "Zhuzhou County",
        "zip_code": "412100"
    },
    {
        "name": "Liling",
        "zip_code": "412200"
    },
    {
        "name": "You County",
        "zip_code": "412300"
    },
    {
        "name": "Chaling County",
        "zip_code": "412400"
    },
    {
        "name": "Yanling County",
        "zip_code": "412500"
    },
    {
        "name": "Xiangtan",
        "zip_code": "411100"
    },
    {
        "name": "Xiangtan County",
        "zip_code": "411200"
    },
    {
        "name": "Shaoshan",
        "zip_code": "411300"
    },
    {
        "name": "Xiangxiang",
        "zip_code": "411400"
    },
    {
        "name": "Hengyang",
        "zip_code": "421000"
    },
    {
        "name": "Hengnan County",
        "zip_code": "421100"
    },
    {
        "name": "Hengyang County",
        "zip_code": "421200"
    },
    {
        "name": "Hengshan County",
        "zip_code": "421300"
    },
    {
        "name": "Hengdong County",
        "zip_code": "421400"
    },
    {
        "name": "Changning",
        "zip_code": "421500"
    },
    {
        "name": "Qidong County",
        "zip_code": "421600"
    },
    {
        "name": "Leiyang",
        "zip_code": "421800"
    },
    {
        "name": "Nanyue District",
        "zip_code": "421900"
    },
    {
        "name": "Shaoyang",
        "zip_code": "422000"
    },
    {
        "name": "Shaoyang County",
        "zip_code": "422100"
    },
    {
        "name": "Longhui County",
        "zip_code": "422200"
    },
    {
        "name": "Dongkou County",
        "zip_code": "422300"
    },
    {
        "name": "Wugang",
        "zip_code": "422400"
    },
    {
        "name": "Chengbu Miao Autonomous County",
        "zip_code": "422500"
    },
    {
        "name": "Suining County",
        "zip_code": "422600"
    },
    {
        "name": "Xinning County",
        "zip_code": "422700"
    },
    {
        "name": "Shaodong County",
        "zip_code": "422800"
    },
    {
        "name": "Pingjiang County",
        "zip_code": "410400"
    },
    {
        "name": "Xiangyin County",
        "zip_code": "410500"
    },
    {
        "name": "Yueyang",
        "zip_code": "414000"
    },
    {
        "name": "Yueyang County",
        "zip_code": "414100"
    },
    {
        "name": "Huarong County",
        "zip_code": "414200"
    },
    {
        "name": "Linxiang City",
        "zip_code": "414300"
    },
    {
        "name": "Miluo City",
        "zip_code": "414400"
    },
    {
        "name": "Dingcheng District",
        "zip_code": "415100"
    },
    {
        "name": "Linli County",
        "zip_code": "415200"
    },
    {
        "name": "Shimen County",
        "zip_code": "415300"
    },
    {
        "name": "Jinshi City",
        "zip_code": "415400"
    },
    {
        "name": "Li County",
        "zip_code": "415500"
    },
    {
        "name": "Anxiang County",
        "zip_code": "415600"
    },
    {
        "name": "Taoyuan County",
        "zip_code": "415700"
    },
    {
        "name": "Hanshou County",
        "zip_code": "415900"
    },
    {
        "name": "Sangzhi County",
        "zip_code": "427100"
    },
    {
        "name": "Cili County",
        "zip_code": "427200"
    },
    {
        "name": "Yuanjiang",
        "zip_code": "413100"
    },
    {
        "name": "Nan County",
        "zip_code": "413200"
    },
    {
        "name": "Taojiang County",
        "zip_code": "413300"
    },
    {
        "name": "Anhua County",
        "zip_code": "413400"
    },
    {
        "name": "Yongxing County",
        "zip_code": "423300"
    },
    {
        "name": "Zixing",
        "zip_code": "423400"
    },
    {
        "name": "Guidong County",
        "zip_code": "423500"
    },
    {
        "name": "Anren County",
        "zip_code": "423600"
    },
    {
        "name": "Rucheng County",
        "zip_code": "424100"
    },
    {
        "name": "Yizhang County",
        "zip_code": "424200"
    },
    {
        "name": "Guiyang County",
        "zip_code": "424300"
    },
    {
        "name": "Jiahe County",
        "zip_code": "424400"
    },
    {
        "name": "Lengshuitan District",
        "zip_code": "425100"
    },
    {
        "name": "Shuangpai County",
        "zip_code": "425200"
    },
    {
        "name": "Jiangyong County",
        "zip_code": "425400"
    },
    {
        "name": "Jianghua Yao Autonomous County",
        "zip_code": "425500"
    },
    {
        "name": "Ningyuan County",
        "zip_code": "425600"
    },
    {
        "name": "Xintian County",
        "zip_code": "425700"
    },
    {
        "name": "Lanshan County",
        "zip_code": "425800"
    },
    {
        "name": "Dong'an County",
        "zip_code": "425900"
    },
    {
        "name": "Hongjiang",
        "zip_code": "418200"
    },
    {
        "name": "Huitong County",
        "zip_code": "418300"
    },
    {
        "name": "Jingzhou Miao and Dong Autonomous County",
        "zip_code": "418400"
    },
    {
        "name": "Tongdao Dong Autonomous County",
        "zip_code": "418500"
    },
    {
        "name": "Zhijiang Dong Autonomous County",
        "zip_code": "419100"
    },
    {
        "name": "Xinhuang Dong Autonomous County",
        "zip_code": "419200"
    },
    {
        "name": "Xupu County",
        "zip_code": "419300"
    },
    {
        "name": "Mayang Miao Autonomous County",
        "zip_code": "419400"
    },
    {
        "name": "Chenxi County",
        "zip_code": "419500"
    },
    {
        "name": "Yuanling County",
        "zip_code": "419600"
    },
    {
        "name": "Lianyuan",
        "zip_code": "417100"
    },
    {
        "name": "Lengshuijiang",
        "zip_code": "417200"
    },
    {
        "name": "Lengshuijiang",
        "zip_code": "417500"
    },
    {
        "name": "Xinhua County",
        "zip_code": "417600"
    },
    {
        "name": "Shuangfeng County",
        "zip_code": "417700"
    },
    {
        "name": "Luxi County",
        "zip_code": "416100"
    },
    {
        "name": "Fenghuang County",
        "zip_code": "416200"
    },
    {
        "name": "Guzhang County",
        "zip_code": "416300"
    },
    {
        "name": "Huayuan County",
        "zip_code": "416400"
    },
    {
        "name": "Baojing County",
        "zip_code": "416500"
    },
    {
        "name": "Yongshun County",
        "zip_code": "416700"
    },
    {
        "name": "Longshan County",
        "zip_code": "416800"
    },
    {
        "name": "Yiyang",
        "zip_code": "413000"
    },
    {
        "name": "Changde",
        "zip_code": "415000"
    },
    {
        "name": "Xiangxi Tujia and Miao Autonomous Prefecture",
        "zip_code": "416000"
    },
    {
        "name": "Loudi",
        "zip_code": "417000"
    },
    {
        "name": "Huaihua",
        "zip_code": "418000"
    },
    {
        "name": "Chenzhou",
        "zip_code": "423000"
    },
    {
        "name": "Yongzhou",
        "zip_code": "425000"
    },
    {
        "name": "Zhangjiajie",
        "zip_code": "427000"
    },
    {
        "name": "Caidian District",
        "zip_code": "430100"
    },
    {
        "name": "Jiangxia District",
        "zip_code": "430200"
    },
    {
        "name": "Xinzhou District",
        "zip_code": "431300"
    },
    {
        "name": "Huangpi District",
        "zip_code": "432200"
    },
    {
        "name": "Daye",
        "zip_code": "435100"
    },
    {
        "name": "Yangxin County",
        "zip_code": "435200"
    },
    {
        "name": "Fang County",
        "zip_code": "442100"
    },
    {
        "name": "Zhushan County",
        "zip_code": "442200"
    },
    {
        "name": "Zhuxi County",
        "zip_code": "442300"
    },
    {
        "name": "Yunyang District",
        "zip_code": "442500"
    },
    {
        "name": "Yunxi County",
        "zip_code": "442600"
    },
    {
        "name": "Danjiangkou",
        "zip_code": "442700"
    },
    {
        "name": "Yichang",
        "zip_code": "443000"
    },
    {
        "name": "Yiling District",
        "zip_code": "443100"
    },
    {
        "name": "Zhijiang",
        "zip_code": "443200"
    },
    {
        "name": "Wufeng Tujia Autonomous County",
        "zip_code": "443400"
    },
    {
        "name": "Changyang Tujia Autonomous County",
        "zip_code": "443500"
    },
    {
        "name": "Zigui County",
        "zip_code": "443600"
    },
    {
        "name": "Xingshan County",
        "zip_code": "443700"
    },
    {
        "name": "Dangyang",
        "zip_code": "444100"
    },
    {
        "name": "Yuanan County",
        "zip_code": "444200"
    },
    {
        "name": "Xiangyang",
        "zip_code": "441000"
    },
    {
        "name": "Xiangzhou District",
        "zip_code": "441100"
    },
    {
        "name": "Zaoyang City",
        "zip_code": "441200"
    },
    {
        "name": "Yicheng",
        "zip_code": "441400"
    },
    {
        "name": "Nanzhang County",
        "zip_code": "441500"
    },
    {
        "name": "Baokang County",
        "zip_code": "441600"
    },
    {
        "name": "Gucheng County",
        "zip_code": "441700"
    },
    {
        "name": "Laohekou City",
        "zip_code": "441800"
    },
    {
        "name": "Jingshan County",
        "zip_code": "431800"
    },
    {
        "name": "Zhongxiang",
        "zip_code": "431900"
    },
    {
        "name": "Shayang County",
        "zip_code": "448200"
    },
    {
        "name": "Xiaonan District",
        "zip_code": "432100"
    },
    {
        "name": "Hanchuan",
        "zip_code": "432300"
    },
    {
        "name": "Yingcheng",
        "zip_code": "432400"
    },
    {
        "name": "Yunmeng County",
        "zip_code": "432500"
    },
    {
        "name": "Anlu",
        "zip_code": "432600"
    },
    {
        "name": "Dawu County",
        "zip_code": "432800"
    },
    {
        "name": "Honghu",
        "zip_code": "433200"
    },
    {
        "name": "Jianli County",
        "zip_code": "433300"
    },
    {
        "name": "Jingzhou",
        "zip_code": "434000"
    },
    {
        "name": "Jiangling County",
        "zip_code": "434100"
    },
    {
        "name": "Songzi",
        "zip_code": "434200"
    },
    {
        "name": "Gong'an County",
        "zip_code": "434300"
    },
    {
        "name": "Shishou",
        "zip_code": "434400"
    },
    {
        "name": "Qichun County",
        "zip_code": "435300"
    },
    {
        "name": "Wuxue",
        "zip_code": "435400"
    },
    {
        "name": "Huangmei County",
        "zip_code": "435500"
    },
    {
        "name": "Huanggang",
        "zip_code": "438000"
    },
    {
        "name": "Xishui County",
        "zip_code": "438200"
    },
    {
        "name": "Macheng",
        "zip_code": "438300"
    },
    {
        "name": "Hong'an County",
        "zip_code": "438400"
    },
    {
        "name": "Luotian County",
        "zip_code": "438600"
    },
    {
        "name": "Yingshan County",
        "zip_code": "438700"
    },
    {
        "name": "Jiayu County",
        "zip_code": "437200"
    },
    {
        "name": "Chibi",
        "zip_code": "437300"
    },
    {
        "name": "Tongcheng County",
        "zip_code": "437400"
    },
    {
        "name": "Chongyang County",
        "zip_code": "437500"
    },
    {
        "name": "Tongshan County",
        "zip_code": "437600"
    },
    {
        "name": "Guangshui",
        "zip_code": "432700"
    },
    {
        "name": "Badong County",
        "zip_code": "444300"
    },
    {
        "name": "Jianshi County",
        "zip_code": "445300"
    },
    {
        "name": "Lichuan City",
        "zip_code": "445400"
    },
    {
        "name": "Xuan'en County",
        "zip_code": "445500"
    },
    {
        "name": "Xianfeng County",
        "zip_code": "445600"
    },
    {
        "name": "Laifeng County",
        "zip_code": "445700"
    },
    {
        "name": "Hefeng County",
        "zip_code": "445800"
    },
    {
        "name": "Wuhan",
        "zip_code": "430000"
    },
    {
        "name": "Tianmen",
        "zip_code": "431700"
    },
    {
        "name": "Xiaogan",
        "zip_code": "432000"
    },
    {
        "name": "Xiantao",
        "zip_code": "433000"
    },
    {
        "name": "Qianjiang",
        "zip_code": "433100"
    },
    {
        "name": "Huangshi",
        "zip_code": "435000"
    },
    {
        "name": "Ezhou",
        "zip_code": "436000"
    },
    {
        "name": "Xianning",
        "zip_code": "437000"
    },
    {
        "name": "Suizhou",
        "zip_code": "441300"
    },
    {
        "name": "Shiyan",
        "zip_code": "442000"
    },
    {
        "name": "Shennongjia",
        "zip_code": "442400"
    },
    {
        "name": "Enshi Tujia and Miao Autonomous Prefecture",
        "zip_code": "445000"
    },
    {
        "name": "Jingmen",
        "zip_code": "448000"
    },
    {
        "name": "Ürümqi",
        "zip_code": "830000"
    },
    {
        "name": "Karamay",
        "zip_code": "834000"
    },
    {
        "name": "Hami City",
        "zip_code": "839000"
    },
    {
        "name": "Barköl Kazakh Autonomous County",
        "zip_code": "839200"
    },
    {
        "name": "Yiwu County",
        "zip_code": "839300"
    },
    {
        "name": "Hutubi County",
        "zip_code": "831200"
    },
    {
        "name": "Fukang",
        "zip_code": "831500"
    },
    {
        "name": "Jimsar County",
        "zip_code": "831700"
    },
    {
        "name": "Qitai County",
        "zip_code": "831800"
    },
    {
        "name": "Mori Kazakh Autonomous County",
        "zip_code": "831900"
    },
    {
        "name": "Manas County",
        "zip_code": "832200"
    },
    {
        "name": "Jinghe County",
        "zip_code": "833300"
    },
    {
        "name": "Bole, Xinjiang",
        "zip_code": "833400"
    },
    {
        "name": "Wenquan County",
        "zip_code": "833500"
    },
    {
        "name": "Yanqi Hui Autonomous County",
        "zip_code": "841100"
    },
    {
        "name": "Hoxud County",
        "zip_code": "841200"
    },
    {
        "name": "Hejing County",
        "zip_code": "841300"
    },
    {
        "name": "Bohu County",
        "zip_code": "841400"
    },
    {
        "name": "Yuli County",
        "zip_code": "841500"
    },
    {
        "name": "Luntai County",
        "zip_code": "841600"
    },
    {
        "name": "Ruoqiang County",
        "zip_code": "841800"
    },
    {
        "name": "Qiemo County",
        "zip_code": "841900"
    },
    {
        "name": "Kuqa County",
        "zip_code": "842000"
    },
    {
        "name": "Xinhe County",
        "zip_code": "842100"
    },
    {
        "name": "Xayar County",
        "zip_code": "842200"
    },
    {
        "name": "Baicheng County",
        "zip_code": "842300"
    },
    {
        "name": "Wensu County",
        "zip_code": "843100"
    },
    {
        "name": "Awat County",
        "zip_code": "843200"
    },
    {
        "name": "Uqturpan County",
        "zip_code": "843400"
    },
    {
        "name": "Kalpin County",
        "zip_code": "843600"
    },
    {
        "name": "Akqi County",
        "zip_code": "843500"
    },
    {
        "name": "Artux",
        "zip_code": "845300"
    },
    {
        "name": "Ulugqat County",
        "zip_code": "845400"
    },
    {
        "name": "Akto County",
        "zip_code": "845500"
    },
    {
        "name": "Maralbexi County",
        "zip_code": "843800"
    },
    {
        "name": "Shufu County",
        "zip_code": "844100"
    },
    {
        "name": "Shule County",
        "zip_code": "844200"
    },
    {
        "name": "Peyziwat County",
        "zip_code": "844300"
    },
    {
        "name": "Yopurga County",
        "zip_code": "844400"
    },
    {
        "name": "Yengisar County",
        "zip_code": "844500"
    },
    {
        "name": "Makit County",
        "zip_code": "844600"
    },
    {
        "name": "Yarkant County",
        "zip_code": "844700"
    },
    {
        "name": "Poskam County",
        "zip_code": "844800"
    },
    {
        "name": "Kargilik County",
        "zip_code": "844900"
    },
    {
        "name": "Taxkorgan Tajik Autonomous County",
        "zip_code": "845200"
    },
    {
        "name": "Pishan County",
        "zip_code": "845100"
    },
    {
        "name": "Karakax County",
        "zip_code": "848100"
    },
    {
        "name": "Lop County",
        "zip_code": "848200"
    },
    {
        "name": "Qira County",
        "zip_code": "848300"
    },
    {
        "name": "Yutian County",
        "zip_code": "848400"
    },
    {
        "name": "Minfeng County",
        "zip_code": "848500"
    },
    {
        "name": "Kuytun",
        "zip_code": "833200"
    },
    {
        "name": "Yining County",
        "zip_code": "835100"
    },
    {
        "name": "Huocheng County",
        "zip_code": "835200"
    },
    {
        "name": "Qapqal Xibe Autonomous County",
        "zip_code": "835300"
    },
    {
        "name": "Gongliu County",
        "zip_code": "835400"
    },
    {
        "name": "Tekes County",
        "zip_code": "835500"
    },
    {
        "name": "Zhaosu County",
        "zip_code": "835600"
    },
    {
        "name": "Nilka County",
        "zip_code": "835700"
    },
    {
        "name": "Xinyuan County",
        "zip_code": "835800"
    },
    {
        "name": "Shawan County",
        "zip_code": "832100"
    },
    {
        "name": "Wusu",
        "zip_code": "833000"
    },
    {
        "name": "Hoboksar Mongol Autonomous County",
        "zip_code": "834400"
    },
    {
        "name": "Toli County",
        "zip_code": "834500"
    },
    {
        "name": "Emin County",
        "zip_code": "834600"
    },
    {
        "name": "Tacheng",
        "zip_code": "834700"
    },
    {
        "name": "Yumin County",
        "zip_code": "834800"
    },
    {
        "name": "Fuyun County",
        "zip_code": "836100"
    },
    {
        "name": "Qinggil County",
        "zip_code": "836200"
    },
    {
        "name": "Fuhai County",
        "zip_code": "836400"
    },
    {
        "name": "Altay",
        "zip_code": "836500"
    },
    {
        "name": "Burqin County",
        "zip_code": "836600"
    },
    {
        "name": "Habahe County",
        "zip_code": "836700"
    },
    {
        "name": "Jeminay County",
        "zip_code": "836800"
    },
    {
        "name": "Wujiaqu",
        "zip_code": "831300"
    },
    {
        "name": "Changji Hui Autonomous Prefecture",
        "zip_code": "831100"
    },
    {
        "name": "Shihezi",
        "zip_code": "832000"
    },
    {
        "name": "Ili Kazakh Autonomous Prefecture",
        "zip_code": "835000"
    },
    {
        "name": "Bayingolin Mongol Autonomous Prefecture",
        "zip_code": "841000"
    },
    {
        "name": "Aksu Prefecture",
        "zip_code": "843000"
    },
    {
        "name": "Kashgar Prefecture",
        "zip_code": "844000"
    },
    {
        "name": "Hotan Prefecture",
        "zip_code": "848000"
    },
    {
        "name": "Lhasa",
        "zip_code": "850000"
    },
    {
        "name": "Dagzê County",
        "zip_code": "850100"
    },
    {
        "name": "Maizhokunggar County",
        "zip_code": "850200"
    },
    {
        "name": "Qüxü County",
        "zip_code": "850600"
    },
    {
        "name": "Doilungdêqên District",
        "zip_code": "851400"
    },
    {
        "name": "Damxung County",
        "zip_code": "851500"
    },
    {
        "name": "Nyêmo County and Lhünzhub County",
        "zip_code": "851600"
    },
    {
        "name": "Gamba County",
        "zip_code": "854700"
    },
    {
        "name": "Sa'gya County",
        "zip_code": "854800"
    },
    {
        "name": "Dinggyê County",
        "zip_code": "854900"
    },
    {
        "name": "Shigatse",
        "zip_code": "857000"
    },
    {
        "name": "Namling County",
        "zip_code": "857100"
    },
    {
        "name": "Rinbung County",
        "zip_code": "857200"
    },
    {
        "name": "Bainang County",
        "zip_code": "857300"
    },
    {
        "name": "Gyantse County",
        "zip_code": "857400"
    },
    {
        "name": "Kangmar County",
        "zip_code": "857500"
    },
    {
        "name": "Yadong County",
        "zip_code": "857600"
    },
    {
        "name": "Gamba County",
        "zip_code": "857700"
    },
    {
        "name": "Sa'gya County",
        "zip_code": "857800"
    },
    {
        "name": "Dinggyê County",
        "zip_code": "857900"
    },
    {
        "name": "Lhatse County",
        "zip_code": "858100"
    },
    {
        "name": "Tingri County",
        "zip_code": "858200"
    },
    {
        "name": "Nyalam County",
        "zip_code": "858300"
    },
    {
        "name": "Ngamring County",
        "zip_code": "858500"
    },
    {
        "name": "Saga County",
        "zip_code": "858600"
    },
    {
        "name": "Gyirong County",
        "zip_code": "858700"
    },
    {
        "name": "Zhongba County",
        "zip_code": "858800"
    },
    {
        "name": "Xaitongmoin County",
        "zip_code": "858900"
    },
    {
        "name": "Jomda County",
        "zip_code": "854100"
    },
    {
        "name": "Gonjo County",
        "zip_code": "854200"
    },
    {
        "name": "Zhag'yab County",
        "zip_code": "854300"
    },
    {
        "name": "Zogang County",
        "zip_code": "854400"
    },
    {
        "name": "Markam County",
        "zip_code": "854500"
    },
    {
        "name": "Baxoi County",
        "zip_code": "854600"
    },
    {
        "name": "Lhorong County",
        "zip_code": "855400"
    },
    {
        "name": "Banbar County",
        "zip_code": "855500"
    },
    {
        "name": "Riwoqê County",
        "zip_code": "855600"
    },
    {
        "name": "Dêngqên County",
        "zip_code": "855700"
    },
    {
        "name": "Nyingchi",
        "zip_code": "860100"
    },
    {
        "name": "Gongbo'gyamda County",
        "zip_code": "860200"
    },
    {
        "name": "Bomê County",
        "zip_code": "860300"
    },
    {
        "name": "Nang County",
        "zip_code": "860400"
    },
    {
        "name": "Mainling County",
        "zip_code": "860500"
    },
    {
        "name": "Zayü County",
        "zip_code": "860600"
    },
    {
        "name": "Mêdog County",
        "zip_code": "860700"
    },
    {
        "name": "Gonggar County",
        "zip_code": "850700"
    },
    {
        "name": "Zhanang County",
        "zip_code": "850800"
    },
    {
        "name": "Nagarzê County",
        "zip_code": "851100"
    },
    {
        "name": "Lhozhag County",
        "zip_code": "851200"
    },
    {
        "name": "Sangri County",
        "zip_code": "856200"
    },
    {
        "name": "Qusum County",
        "zip_code": "856300"
    },
    {
        "name": "Gyaca County",
        "zip_code": "856400"
    },
    {
        "name": "Lhünzê County",
        "zip_code": "856600"
    },
    {
        "name": "Cona County",
        "zip_code": "856700"
    },
    {
        "name": "Qonggyai County",
        "zip_code": "856800"
    },
    {
        "name": "Comai County",
        "zip_code": "856900"
    },
    {
        "name": "Baqên County",
        "zip_code": "852100"
    },
    {
        "name": "Sog County",
        "zip_code": "852200"
    },
    {
        "name": "Biru County",
        "zip_code": "852300"
    },
    {
        "name": "Lhari County",
        "zip_code": "852400"
    },
    {
        "name": "Baingoin County",
        "zip_code": "852500"
    },
    {
        "name": "Xainza County",
        "zip_code": "853100"
    },
    {
        "name": "Nyima County",
        "zip_code": "853200"
    },
    {
        "name": "Amdo County",
        "zip_code": "853400"
    },
    {
        "name": "Nyainrong County",
        "zip_code": "853500"
    },
    {
        "name": "Gê'gyai County",
        "zip_code": "859100"
    },
    {
        "name": "Gêrzê County",
        "zip_code": "859200"
    },
    {
        "name": "Coqên County",
        "zip_code": "859300"
    },
    {
        "name": "Burang County",
        "zip_code": "859500"
    },
    {
        "name": "Zanda County",
        "zip_code": "859600"
    },
    {
        "name": "Rutog County",
        "zip_code": "859700"
    },
    {
        "name": "Nagqu Prefecture",
        "zip_code": "852000"
    },
    {
        "name": "Chamdo",
        "zip_code": "854000"
    },
    {
        "name": "Shannan",
        "zip_code": "856100"
    },
    {
        "name": "Ngari Prefecture",
        "zip_code": "859000"
    },
    {
        "name": "Yuzhong County",
        "zip_code": "730100"
    },
    {
        "name": "Gaolan County",
        "zip_code": "730200"
    },
    {
        "name": "Yongdeng County",
        "zip_code": "730300"
    },
    {
        "name": "Yongchang County",
        "zip_code": "737200"
    },
    {
        "name": "Jingtai County",
        "zip_code": "730400"
    },
    {
        "name": "Jingyuan County",
        "zip_code": "730600"
    },
    {
        "name": "Baiyin",
        "zip_code": "730900"
    },
    {
        "name": "Huining County",
        "zip_code": "743200"
    },
    {
        "name": "Gangu County",
        "zip_code": "741100"
    },
    {
        "name": "Wushan County",
        "zip_code": "741200"
    },
    {
        "name": "Qingshui County",
        "zip_code": "741300"
    },
    {
        "name": "Zhangjiachuan Hui Autonomous County",
        "zip_code": "741400"
    },
    {
        "name": "Qin'an County",
        "zip_code": "741500"
    },
    {
        "name": "Wuwei",
        "zip_code": "733000"
    },
    {
        "name": "Gulang County",
        "zip_code": "733100"
    },
    {
        "name": "Bairi Tibetan Autonomous County",
        "zip_code": "733200"
    },
    {
        "name": "Minqin County",
        "zip_code": "733300"
    },
    {
        "name": "Shandan County",
        "zip_code": "734100"
    },
    {
        "name": "Linze County",
        "zip_code": "734200"
    },
    {
        "name": "Gaotai County",
        "zip_code": "734300"
    },
    {
        "name": "Sunan Yugur Autonomous County",
        "zip_code": "734400"
    },
    {
        "name": "Minle County",
        "zip_code": "734500"
    },
    {
        "name": "Zhuanglang County",
        "zip_code": "741600"
    },
    {
        "name": "Jingning County",
        "zip_code": "743400"
    },
    {
        "name": "Pingliang",
        "zip_code": "744000"
    },
    {
        "name": "Huating County",
        "zip_code": "744100"
    },
    {
        "name": "Chongxin County",
        "zip_code": "744200"
    },
    {
        "name": "Jingchuan County",
        "zip_code": "744300"
    },
    {
        "name": "Lingtai County",
        "zip_code": "744400"
    },
    {
        "name": "Jiuquan",
        "zip_code": "735000"
    },
    {
        "name": "Yumen City",
        "zip_code": "735200"
    },
    {
        "name": "Jinta County",
        "zip_code": "735300"
    },
    {
        "name": "Guazhou County",
        "zip_code": "736100"
    },
    {
        "name": "Dunhuang",
        "zip_code": "736200"
    },
    {
        "name": "Subei Mongol Autonomous County",
        "zip_code": "736300"
    },
    {
        "name": "Aksai Kazakh Autonomous County",
        "zip_code": "736400"
    },
    {
        "name": "Zhenyuan County",
        "zip_code": "744500"
    },
    {
        "name": "Qingyang",
        "zip_code": "745000"
    },
    {
        "name": "Qingcheng County",
        "zip_code": "745100"
    },
    {
        "name": "Ning County",
        "zip_code": "745200"
    },
    {
        "name": "Zhengning County",
        "zip_code": "745300"
    },
    {
        "name": "Heshui County",
        "zip_code": "745400"
    },
    {
        "name": "Huachi County",
        "zip_code": "745600"
    },
    {
        "name": "Huan County",
        "zip_code": "745700"
    },
    {
        "name": "Lintao County",
        "zip_code": "730500"
    },
    {
        "name": "Dingxi",
        "zip_code": "743000"
    },
    {
        "name": "Tongwei County",
        "zip_code": "743300"
    },
    {
        "name": "Longxi County",
        "zip_code": "748100"
    },
    {
        "name": "Weiyuan County",
        "zip_code": "748200"
    },
    {
        "name": "Zhang County",
        "zip_code": "748300"
    },
    {
        "name": "Min County",
        "zip_code": "748400"
    },
    {
        "name": "Xihe County",
        "zip_code": "742100"
    },
    {
        "name": "Li County",
        "zip_code": "742200"
    },
    {
        "name": "Hui County",
        "zip_code": "742300"
    },
    {
        "name": "Liangdang County",
        "zip_code": "742400"
    },
    {
        "name": "Cheng County",
        "zip_code": "742500"
    },
    {
        "name": "Wen County",
        "zip_code": "746400"
    },
    {
        "name": "Kang County",
        "zip_code": "746500"
    },
    {
        "name": "Tanchang County",
        "zip_code": "748500"
    },
    {
        "name": "Hezheng County",
        "zip_code": "731200"
    },
    {
        "name": "Guanghe County",
        "zip_code": "731300"
    },
    {
        "name": "Dongxiang Autonomous County",
        "zip_code": "731400"
    },
    {
        "name": "Kangle County",
        "zip_code": "731500"
    },
    {
        "name": "Yongjing County",
        "zip_code": "731600"
    },
    {
        "name": "Jishishan Bonan, Dongxiang and Salar Autonomous County",
        "zip_code": "731700"
    },
    {
        "name": "Linxia County",
        "zip_code": "731800"
    },
    {
        "name": "Zhugqu County",
        "zip_code": "746300"
    },
    {
        "name": "Xiahe County",
        "zip_code": "747100"
    },
    {
        "name": "Luqu County",
        "zip_code": "747200"
    },
    {
        "name": "Maqu County",
        "zip_code": "747300"
    },
    {
        "name": "Têwo County",
        "zip_code": "747400"
    },
    {
        "name": "Lintan County",
        "zip_code": "747500"
    },
    {
        "name": "Jonê County",
        "zip_code": "747600"
    },
    {
        "name": "Lanzhou",
        "zip_code": "730000"
    },
    {
        "name": "Linxia Hui Autonomous Prefecture",
        "zip_code": "731100"
    },
    {
        "name": "Zhangye",
        "zip_code": "734000"
    },
    {
        "name": "Jiayuguan",
        "zip_code": "735100"
    },
    {
        "name": "Jinchang",
        "zip_code": "737100"
    },
    {
        "name": "Tianshui",
        "zip_code": "741000"
    },
    {
        "name": "Longnan",
        "zip_code": "746000"
    },
    {
        "name": "Gannan Tibetan Autonomous Prefecture",
        "zip_code": "747000"
    },
    {
        "name": "Wuming District",
        "zip_code": "530100"
    },
    {
        "name": "Yongning District",
        "zip_code": "530200"
    },
    {
        "name": "Heng County",
        "zip_code": "530300"
    },
    {
        "name": "Binyang County",
        "zip_code": "530400"
    },
    {
        "name": "Shanglin County",
        "zip_code": "530500"
    },
    {
        "name": "Mashan County",
        "zip_code": "530600"
    },
    {
        "name": "Long'an County",
        "zip_code": "532700"
    },
    {
        "name": "Liujiang District",
        "zip_code": "545100"
    },
    {
        "name": "Liucheng County",
        "zip_code": "545200"
    },
    {
        "name": "Rongshui Miao Autonomous County",
        "zip_code": "545300"
    },
    {
        "name": "Rong'an County",
        "zip_code": "545400"
    },
    {
        "name": "Sanjiang Dong Autonomous County",
        "zip_code": "545500"
    },
    {
        "name": "Luzhai County",
        "zip_code": "545600"
    },
    {
        "name": "Lingui District",
        "zip_code": "541100"
    },
    {
        "name": "Lingchuan County",
        "zip_code": "541200"
    },
    {
        "name": "Ziyuan County",
        "zip_code": "541400"
    },
    {
        "name": "Quanzhou County",
        "zip_code": "541500"
    },
    {
        "name": "Guanyang County",
        "zip_code": "541600"
    },
    {
        "name": "Yongfu County",
        "zip_code": "541800"
    },
    {
        "name": "Yangshuo County",
        "zip_code": "541900"
    },
    {
        "name": "Pingle County",
        "zip_code": "542400"
    },
    {
        "name": "Gongcheng Yao Autonomous County",
        "zip_code": "542500"
    },
    {
        "name": "Lipu County",
        "zip_code": "546600"
    },
    {
        "name": "Xing'an County",
        "zip_code": "541300"
    },
    {
        "name": "Longsheng Various Nationalities Autonomous County",
        "zip_code": "541700"
    },
    {
        "name": "Cangwu County",
        "zip_code": "543100"
    },
    {
        "name": "Cenxi",
        "zip_code": "543200"
    },
    {
        "name": "Teng County",
        "zip_code": "543300"
    },
    {
        "name": "Mengshan County",
        "zip_code": "546700"
    },
    {
        "name": "Hepu County",
        "zip_code": "536100"
    },
    {
        "name": "Shangsi County",
        "zip_code": "535500"
    },
    {
        "name": "Dongxing",
        "zip_code": "538100"
    },
    {
        "name": "Qinzhou",
        "zip_code": "535000"
    },
    {
        "name": "Pubei County",
        "zip_code": "535300"
    },
    {
        "name": "Lingshan County",
        "zip_code": "535400"
    },
    {
        "name": "Guigang",
        "zip_code": "537100"
    },
    {
        "name": "Guiping",
        "zip_code": "537200"
    },
    {
        "name": "Pingnan County",
        "zip_code": "537300"
    },
    {
        "name": "Yulin",
        "zip_code": "537000"
    },
    {
        "name": "Beiliu",
        "zip_code": "537400"
    },
    {
        "name": "Rong County",
        "zip_code": "537500"
    },
    {
        "name": "Bobai County",
        "zip_code": "537600"
    },
    {
        "name": "Luchuan County",
        "zip_code": "537700"
    },
    {
        "name": "Xingye County",
        "zip_code": "537800"
    },
    {
        "name": "Pingguo County",
        "zip_code": "531400"
    },
    {
        "name": "Tiandong County",
        "zip_code": "531500"
    },
    {
        "name": "Baise",
        "zip_code": "533000"
    },
    {
        "name": "Lingyun County",
        "zip_code": "533100"
    },
    {
        "name": "Leye County",
        "zip_code": "533200"
    },
    {
        "name": "Tianlin County",
        "zip_code": "533300"
    },
    {
        "name": "Longlin Various Nationalities Autonomous County",
        "zip_code": "533400"
    },
    {
        "name": "Xilin County",
        "zip_code": "533500"
    },
    {
        "name": "Tianyang County",
        "zip_code": "533600"
    },
    {
        "name": "Debao County",
        "zip_code": "533700"
    },
    {
        "name": "Jingxi",
        "zip_code": "533800"
    },
    {
        "name": "Napo County",
        "zip_code": "533900"
    },
    {
        "name": "Zhongshan County",
        "zip_code": "542600"
    },
    {
        "name": "Fuchuan Yao Autonomous County",
        "zip_code": "542700"
    },
    {
        "name": "Hezhou",
        "zip_code": "542800"
    },
    {
        "name": "Zhaoping County",
        "zip_code": "546800"
    },
    {
        "name": "Du'an Yao Autonomous County",
        "zip_code": "530700"
    },
    {
        "name": "Dahua Yao Autonomous County",
        "zip_code": "530800"
    },
    {
        "name": "Yizhou",
        "zip_code": "546300"
    },
    {
        "name": "Luocheng Mulao Autonomous County",
        "zip_code": "546400"
    },
    {
        "name": "Hechi",
        "zip_code": "547000"
    },
    {
        "name": "Huanjiang Maonan Autonomous County",
        "zip_code": "547100"
    },
    {
        "name": "Nandan County",
        "zip_code": "547200"
    },
    {
        "name": "Tian'e County",
        "zip_code": "547300"
    },
    {
        "name": "Donglan County",
        "zip_code": "547400"
    },
    {
        "name": "Bama Yao Autonomous County",
        "zip_code": "547500"
    },
    {
        "name": "Jinxiu Yao Autonomous County",
        "zip_code": "545700"
    },
    {
        "name": "Xiangzhou County",
        "zip_code": "545800"
    },
    {
        "name": "Wuxuan County",
        "zip_code": "545900"
    },
    {
        "name": "Laibin",
        "zip_code": "546100"
    },
    {
        "name": "Xincheng County",
        "zip_code": "546200"
    },
    {
        "name": "Heshan",
        "zip_code": "546500"
    },
    {
        "name": "Fusui County",
        "zip_code": "532100"
    },
    {
        "name": "Chongzuo",
        "zip_code": "532200"
    },
    {
        "name": "Daxin County",
        "zip_code": "532300"
    },
    {
        "name": "Longzhou County",
        "zip_code": "532400"
    },
    {
        "name": "Ningming County",
        "zip_code": "532500"
    },
    {
        "name": "Pingxiang, Guangxi",
        "zip_code": "532600"
    },
    {
        "name": "Tiandeng County",
        "zip_code": "532800"
    },
    {
        "name": "Nanning",
        "zip_code": "530000"
    },
    {
        "name": "Beihai",
        "zip_code": "536000"
    },
    {
        "name": "Fangchenggang",
        "zip_code": "538000"
    },
    {
        "name": "Guilin",
        "zip_code": "541000"
    },
    {
        "name": "Wuzhou",
        "zip_code": "543000"
    },
    {
        "name": "Liuzhou",
        "zip_code": "545000"
    },
    {
        "name": "Xiuwen County",
        "zip_code": "550200"
    },
    {
        "name": "Kaiyang County",
        "zip_code": "550300"
    },
    {
        "name": "Xifeng County",
        "zip_code": "551100"
    },
    {
        "name": "Qingzhen",
        "zip_code": "551400"
    },
    {
        "name": "Liuzhi Special District",
        "zip_code": "553400"
    },
    {
        "name": "Pan County",
        "zip_code": "553500"
    },
    {
        "name": "Zunyi",
        "zip_code": "563000"
    },
    {
        "name": "Bozhou District",
        "zip_code": "563100"
    },
    {
        "name": "Tongzi County",
        "zip_code": "563200"
    },
    {
        "name": "Suiyang County",
        "zip_code": "563300"
    },
    {
        "name": "Zheng'an County",
        "zip_code": "563400"
    },
    {
        "name": "Daozhen Gelao and Miao Autonomous County",
        "zip_code": "563500"
    },
    {
        "name": "Meitan County",
        "zip_code": "564100"
    },
    {
        "name": "Fenggang County",
        "zip_code": "564200"
    },
    {
        "name": "Wuchuan Gelao and Miao Autonomous County",
        "zip_code": "564300"
    },
    {
        "name": "Yuqing County",
        "zip_code": "564400"
    },
    {
        "name": "Renhuai",
        "zip_code": "564500"
    },
    {
        "name": "Xishui County",
        "zip_code": "564600"
    },
    {
        "name": "Chishui",
        "zip_code": "564700"
    },
    {
        "name": "Ziyun Miao and Buyei Autonomous County",
        "zip_code": "550800"
    },
    {
        "name": "Pingba County",
        "zip_code": "561100"
    },
    {
        "name": "Zhenning Buyei and Miao Autonomous County",
        "zip_code": "561200"
    },
    {
        "name": "Guanling Buyei and Miao Autonomous County",
        "zip_code": "561300"
    },
    {
        "name": "Puding County",
        "zip_code": "562100"
    },
    {
        "name": "Qianxi County",
        "zip_code": "551500"
    },
    {
        "name": "Dafang County",
        "zip_code": "551600"
    },
    {
        "name": "Bijie",
        "zip_code": "551700"
    },
    {
        "name": "Zhijin County",
        "zip_code": "552100"
    },
    {
        "name": "Weining Yi, Hui, and Miao Autonomous County",
        "zip_code": "553100"
    },
    {
        "name": "Hezhang County",
        "zip_code": "553200"
    },
    {
        "name": "Nayong County",
        "zip_code": "553300"
    },
    {
        "name": "Yuping Dong Autonomous County",
        "zip_code": "554000"
    },
    {
        "name": "Songtao Miao Autonomous County",
        "zip_code": "554100"
    },
    {
        "name": "Wanshan District",
        "zip_code": "554200"
    },
    {
        "name": "Bijiang District",
        "zip_code": "554300"
    },
    {
        "name": "Jiangkou County",
        "zip_code": "554400"
    },
    {
        "name": "Shiqian County",
        "zip_code": "555100"
    },
    {
        "name": "Yinjiang Tujia and Miao Autonomous County",
        "zip_code": "555200"
    },
    {
        "name": "Sinan County",
        "zip_code": "565100"
    },
    {
        "name": "Dejiang County",
        "zip_code": "565200"
    },
    {
        "name": "Yanhe Tujia Autonomous County",
        "zip_code": "565300"
    },
    {
        "name": "Ceheng County",
        "zip_code": "552200"
    },
    {
        "name": "Wangmo County",
        "zip_code": "552300"
    },
    {
        "name": "Anlong County",
        "zip_code": "552400"
    },
    {
        "name": "Qinglong County",
        "zip_code": "561400"
    },
    {
        "name": "Pu'an County",
        "zip_code": "561500"
    },
    {
        "name": "Zhenfeng County",
        "zip_code": "562200"
    },
    {
        "name": "Xingren County",
        "zip_code": "562300"
    },
    {
        "name": "Xingyi",
        "zip_code": "562400"
    },
    {
        "name": "Huangping County",
        "zip_code": "556100"
    },
    {
        "name": "Shibing County",
        "zip_code": "556200"
    },
    {
        "name": "Taijiang County",
        "zip_code": "556300"
    },
    {
        "name": "Jianhe County",
        "zip_code": "556400"
    },
    {
        "name": "Sansui County",
        "zip_code": "556500"
    },
    {
        "name": "Tianzhu County",
        "zip_code": "556600"
    },
    {
        "name": "Jinping County",
        "zip_code": "556700"
    },
    {
        "name": "Leishan County",
        "zip_code": "557100"
    },
    {
        "name": "Rongjiang County",
        "zip_code": "557200"
    },
    {
        "name": "Liping County",
        "zip_code": "557300"
    },
    {
        "name": "Congjiang County",
        "zip_code": "557400"
    },
    {
        "name": "Danzhai County",
        "zip_code": "557500"
    },
    {
        "name": "Majiang County",
        "zip_code": "557600"
    },
    {
        "name": "Zhenyuan County",
        "zip_code": "557700"
    },
    {
        "name": "Luodian County",
        "zip_code": "550100"
    },
    {
        "name": "Weng'an County",
        "zip_code": "550400"
    },
    {
        "name": "Fuquan",
        "zip_code": "550500"
    },
    {
        "name": "Huishui County",
        "zip_code": "550600"
    },
    {
        "name": "Changshun County",
        "zip_code": "550700"
    },
    {
        "name": "Longli County",
        "zip_code": "551200"
    },
    {
        "name": "Guiding County",
        "zip_code": "551300"
    },
    {
        "name": "Sandu Shui Autonomous County",
        "zip_code": "558100"
    },
    {
        "name": "Dushan County",
        "zip_code": "558200"
    },
    {
        "name": "Pingtang County",
        "zip_code": "558300"
    },
    {
        "name": "Libo County",
        "zip_code": "558400"
    },
    {
        "name": "Guiyang",
        "zip_code": "550000"
    },
    {
        "name": "Liupanshui",
        "zip_code": "553000"
    },
    {
        "name": "Qiandongnan Miao and Dong Autonomous Prefecture",
        "zip_code": "556000"
    },
    {
        "name": "Qiannan Buyei and Miao Autonomous Prefecture",
        "zip_code": "558000"
    },
    {
        "name": "Anshun",
        "zip_code": "561000"
    },
    {
        "name": "Liaozhong District",
        "zip_code": "110200"
    },
    {
        "name": "Xinmin",
        "zip_code": "110300"
    },
    {
        "name": "Faku County",
        "zip_code": "110400"
    },
    {
        "name": "Kangping County",
        "zip_code": "110500"
    },
    {
        "name": "Jinzhou District",
        "zip_code": "116100"
    },
    {
        "name": "Pulandian District",
        "zip_code": "116200"
    },
    {
        "name": "Wafangdian",
        "zip_code": "116300"
    },
    {
        "name": "Zhuanghe",
        "zip_code": "116400"
    },
    {
        "name": "Changhai County",
        "zip_code": "116500"
    },
    {
        "name": "Jinzhou",
        "zip_code": "121000"
    },
    {
        "name": "Tai'an County",
        "zip_code": "114100"
    },
    {
        "name": "Haicheng",
        "zip_code": "114200"
    },
    {
        "name": "Xiuyan Manchu Autonomous County",
        "zip_code": "114300"
    },
    {
        "name": "Fushun",
        "zip_code": "113000"
    },
    {
        "name": "Fushun County",
        "zip_code": "113100"
    },
    {
        "name": "Xinbin Manchu Autonomous County",
        "zip_code": "113200"
    },
    {
        "name": "Qingyuan Manchu Autonomous County",
        "zip_code": "113300"
    },
    {
        "name": "Benxi",
        "zip_code": "117000"
    },
    {
        "name": "Benxi Manchu Autonomous County",
        "zip_code": "117100"
    },
    {
        "name": "Huanren Manchu Autonomous County",
        "zip_code": "117200"
    },
    {
        "name": "Fengcheng",
        "zip_code": "118100"
    },
    {
        "name": "Kuandian Manchu Autonomous County",
        "zip_code": "118200"
    },
    {
        "name": "Donggang",
        "zip_code": "118300"
    },
    {
        "name": "Yi County",
        "zip_code": "121100"
    },
    {
        "name": "Linghai",
        "zip_code": "121200"
    },
    {
        "name": "Beizhen",
        "zip_code": "121300"
    },
    {
        "name": "Heishan County",
        "zip_code": "121400"
    },
    {
        "name": "Yingkou",
        "zip_code": "115000"
    },
    {
        "name": "Dashiqiao",
        "zip_code": "115100"
    },
    {
        "name": "Gaizhou",
        "zip_code": "115200"
    },
    {
        "name": "Fuxin",
        "zip_code": "123000"
    },
    {
        "name": "Fuxin Mongol Autonomous County",
        "zip_code": "123100"
    },
    {
        "name": "Zhangwu County",
        "zip_code": "123200"
    },
    {
        "name": "Liaoyang",
        "zip_code": "111000"
    },
    {
        "name": "Liaoyang County",
        "zip_code": "111200"
    },
    {
        "name": "Dengta",
        "zip_code": "111300"
    },
    {
        "name": "Panshan County",
        "zip_code": "124100"
    },
    {
        "name": "Dawa District",
        "zip_code": "124200"
    },
    {
        "name": "Tieling",
        "zip_code": "112000"
    },
    {
        "name": "Kaiyuan",
        "zip_code": "112300"
    },
    {
        "name": "Xifeng County",
        "zip_code": "112400"
    },
    {
        "name": "Changtu County",
        "zip_code": "112500"
    },
    {
        "name": "Tieling County",
        "zip_code": "112600"
    },
    {
        "name": "Diaobingshan",
        "zip_code": "112700"
    },
    {
        "name": "Chaoyang",
        "zip_code": "122000"
    },
    {
        "name": "Beipiao",
        "zip_code": "122100"
    },
    {
        "name": "Harqin Left Wing Mongolian Autonomous County",
        "zip_code": "122300"
    },
    {
        "name": "Jianping County",
        "zip_code": "122400"
    },
    {
        "name": "Lingyuan",
        "zip_code": "122500"
    },
    {
        "name": "Chaoyang County",
        "zip_code": "122600"
    },
    {
        "name": "Xingcheng",
        "zip_code": "125100"
    },
    {
        "name": "Suizhong County",
        "zip_code": "125200"
    },
    {
        "name": "Jianchang County",
        "zip_code": "125300"
    },
    {
        "name": "Shenyang",
        "zip_code": "110000"
    },
    {
        "name": "Anshan",
        "zip_code": "114000"
    },
    {
        "name": "Dalian",
        "zip_code": "116000"
    },
    {
        "name": "Dandong",
        "zip_code": "118000"
    },
    {
        "name": "Panjin",
        "zip_code": "124000"
    },
    {
        "name": "Huludao",
        "zip_code": "125000"
    },
    {
        "name": "Tumed Left Banner",
        "zip_code": "010100"
    },
    {
        "name": "Togtoh County",
        "zip_code": "010200"
    },
    {
        "name": "Horinger County",
        "zip_code": "011500"
    },
    {
        "name": "Qingshuihe County",
        "zip_code": "011600"
    },
    {
        "name": "Wuchuan County",
        "zip_code": "011700"
    },
    {
        "name": "Tumed Right Banner",
        "zip_code": "014100"
    },
    {
        "name": "Guyang County",
        "zip_code": "014200"
    },
    {
        "name": "Darhan Muminggan United Banner",
        "zip_code": "014500"
    },
    {
        "name": "Ningcheng County",
        "zip_code": "024200"
    },
    {
        "name": "Aohan Banner",
        "zip_code": "024300"
    },
    {
        "name": "Kharchin Banner",
        "zip_code": "024400"
    },
    {
        "name": "Ongniud Banner",
        "zip_code": "024500"
    },
    {
        "name": "Baarin Right Banner",
        "zip_code": "025100"
    },
    {
        "name": "Linxi County",
        "zip_code": "025200"
    },
    {
        "name": "Hexigten Banner",
        "zip_code": "025300"
    },
    {
        "name": "Baarin Left Banner",
        "zip_code": "025400"
    },
    {
        "name": "Ar Khorchin Banner",
        "zip_code": "025500"
    },
    {
        "name": "Tongliao",
        "zip_code": "028000"
    },
    {
        "name": "Horqin Left Back Banner",
        "zip_code": "028100"
    },
    {
        "name": "Hure Banner",
        "zip_code": "028200"
    },
    {
        "name": "Naiman Banner",
        "zip_code": "028300"
    },
    {
        "name": "Kailu County",
        "zip_code": "028400"
    },
    {
        "name": "Jarud Banner",
        "zip_code": "029100"
    },
    {
        "name": "Holingol",
        "zip_code": "029200"
    },
    {
        "name": "Horqin Left Middle Banner",
        "zip_code": "029300"
    },
    {
        "name": "Jungar Banner",
        "zip_code": "010300"
    },
    {
        "name": "Dalad Banner",
        "zip_code": "014300"
    },
    {
        "name": "Hanggin Rear Banner",
        "zip_code": "015400"
    },
    {
        "name": "Otog Banner",
        "zip_code": "016100"
    },
    {
        "name": "Otog Front Banner",
        "zip_code": "016200"
    },
    {
        "name": "Ejin Horo Banner",
        "zip_code": "017200"
    },
    {
        "name": "Uxin Banner",
        "zip_code": "017300"
    },
    {
        "name": "Hanggin Banner",
        "zip_code": "017400"
    },
    {
        "name": "Evenk Autonomous Banner",
        "zip_code": "021100"
    },
    {
        "name": "New Barag Left Banner",
        "zip_code": "021200"
    },
    {
        "name": "New Barag Right Banner",
        "zip_code": "021300"
    },
    {
        "name": "Manzhouli",
        "zip_code": "021400"
    },
    {
        "name": "Old Barag Banner",
        "zip_code": "021500"
    },
    {
        "name": "Yakeshi",
        "zip_code": "022100"
    },
    {
        "name": "Ergun City",
        "zip_code": "022200"
    },
    {
        "name": "Genhe",
        "zip_code": "022300"
    },
    {
        "name": "Oroqen Autonomous Banner",
        "zip_code": "022400"
    },
    {
        "name": "Zhalantun",
        "zip_code": "162600"
    },
    {
        "name": "Arun Banner",
        "zip_code": "162700"
    },
    {
        "name": "Urad Front Banner",
        "zip_code": "014400"
    },
    {
        "name": "Wuyuan County",
        "zip_code": "015100"
    },
    {
        "name": "Dengkou County",
        "zip_code": "015200"
    },
    {
        "name": "Urad Middle Banner",
        "zip_code": "015300"
    },
    {
        "name": "Urad Rear Banner",
        "zip_code": "015500"
    },
    {
        "name": "Siziwang Banner",
        "zip_code": "011800"
    },
    {
        "name": "Fengzhen",
        "zip_code": "012100"
    },
    {
        "name": "Chahar Right Front Banner",
        "zip_code": "012200"
    },
    {
        "name": "Zhuozi County",
        "zip_code": "012300"
    },
    {
        "name": "Chahar Right Back Banner",
        "zip_code": "012400"
    },
    {
        "name": "Huade County",
        "zip_code": "013300"
    },
    {
        "name": "Shangdu County",
        "zip_code": "013400"
    },
    {
        "name": "Chahar Right Middle Banner",
        "zip_code": "013500"
    },
    {
        "name": "Xinghe County",
        "zip_code": "013600"
    },
    {
        "name": "Liangcheng County",
        "zip_code": "013700"
    },
    {
        "name": "Ulan Hot, Horqin Right Middle Banner",
        "zip_code": "137400"
    },
    {
        "name": "Tuquan County, Horqin Right Front Banner",
        "zip_code": "137500"
    },
    {
        "name": "Jalaid Banner",
        "zip_code": "137600"
    },
    {
        "name": "Arxan",
        "zip_code": "137800"
    },
    {
        "name": "Erenhot",
        "zip_code": "011100"
    },
    {
        "name": "Sonid Right Banner",
        "zip_code": "011200"
    },
    {
        "name": "Sonid Left Banner",
        "zip_code": "011300"
    },
    {
        "name": "Bordered Yellow Banner",
        "zip_code": "013200"
    },
    {
        "name": "Abag Banner",
        "zip_code": "026100"
    },
    {
        "name": "West Ujimqin Banner",
        "zip_code": "026200"
    },
    {
        "name": "East Ujimqin Banner",
        "zip_code": "026300"
    },
    {
        "name": "Taibus Banner",
        "zip_code": "027000"
    },
    {
        "name": "Plain and Bordered White Banner",
        "zip_code": "027100"
    },
    {
        "name": "Plain Blue Banner",
        "zip_code": "027200"
    },
    {
        "name": "Duolun County",
        "zip_code": "027300"
    },
    {
        "name": "Ejin Banner",
        "zip_code": "735400"
    },
    {
        "name": "Alxa Right Banner",
        "zip_code": "737300"
    },
    {
        "name": "Alxa Left Banner",
        "zip_code": "750300"
    },
    {
        "name": "Hohhot",
        "zip_code": "010000"
    },
    {
        "name": "Ulanqab",
        "zip_code": "012000"
    },
    {
        "name": "Baotou",
        "zip_code": "014000"
    },
    {
        "name": "Bayannur",
        "zip_code": "015000"
    },
    {
        "name": "Wuhai",
        "zip_code": "016000"
    },
    {
        "name": "Ordos",
        "zip_code": "017000"
    },
    {
        "name": "Hulunbuir",
        "zip_code": "021000"
    },
    {
        "name": "Chifeng",
        "zip_code": "024000"
    },
    {
        "name": "Xilingol League",
        "zip_code": "026000"
    },
    {
        "name": "Morin Dawa Daur Autonomous Banner",
        "zip_code": "162800"
    },
    {
        "name": "Yongning County",
        "zip_code": "750100"
    },
    {
        "name": "Helan County",
        "zip_code": "750200"
    },
    {
        "name": "Lingwu City",
        "zip_code": "751400"
    },
    {
        "name": "Pingluo County",
        "zip_code": "753400"
    },
    {
        "name": "Huinong District",
        "zip_code": "753600"
    },
    {
        "name": "Wuzhong",
        "zip_code": "751100"
    },
    {
        "name": "Tongxin County",
        "zip_code": "751300"
    },
    {
        "name": "Yanchi County",
        "zip_code": "751500"
    },
    {
        "name": "Qingtongxia City",
        "zip_code": "751600"
    },
    {
        "name": "Guyuan",
        "zip_code": "756000"
    },
    {
        "name": "Xiji County",
        "zip_code": "756200"
    },
    {
        "name": "Longde County",
        "zip_code": "756300"
    },
    {
        "name": "Jingyuan County",
        "zip_code": "756400"
    },
    {
        "name": "Pengyang County",
        "zip_code": "756500"
    },
    {
        "name": "Zhongwei",
        "zip_code": "755000"
    },
    {
        "name": "Zhongning County",
        "zip_code": "755100"
    },
    {
        "name": "Haiyuan County",
        "zip_code": "755200"
    },
    {
        "name": "Yinchuan",
        "zip_code": "750000"
    },
    {
        "name": "Shizuishan",
        "zip_code": "753000"
    },
    {
        "name": "Tongzhou District",
        "zip_code": "101100"
    },
    {
        "name": "Pinggu District",
        "zip_code": "101200"
    },
    {
        "name": "Shunyi District",
        "zip_code": "101300"
    },
    {
        "name": "Huairou District",
        "zip_code": "101400"
    },
    {
        "name": "Miyun District",
        "zip_code": "101500"
    },
    {
        "name": "Yanqing District",
        "zip_code": "102100"
    },
    {
        "name": "Changping District",
        "zip_code": "102200"
    },
    {
        "name": "Mentougou District",
        "zip_code": "102300"
    },
    {
        "name": "Fangshan District",
        "zip_code": "102400"
    },
    {
        "name": "Daxing District",
        "zip_code": "102600"
    },
    {
        "name": "Beijing",
        "zip_code": "100000"
    },
    {
        "name": "Shanghai",
        "zip_code": "200000"
    },
    {
        "name": "Minhang District",
        "zip_code": "201100"
    },
    {
        "name": "Fengxian District",
        "zip_code": "201400"
    },
    {
        "name": "Jinshan District",
        "zip_code": "201500"
    },
    {
        "name": "Songjiang District",
        "zip_code": "201600"
    },
    {
        "name": "Qingpu District",
        "zip_code": "201700"
    },
    {
        "name": "Jiading District",
        "zip_code": "201800"
    },
    {
        "name": "Chongming County",
        "zip_code": "202100"
    },
    {
        "name": "Nanhui District",
        "zip_code": "201300"
    },
    {
        "name": "Yangqu County",
        "zip_code": "030100"
    },
    {
        "name": "Gujiao",
        "zip_code": "030200"
    },
    {
        "name": "Loufan County",
        "zip_code": "030300"
    },
    {
        "name": "Qingxu County",
        "zip_code": "030400"
    },
    {
        "name": "Lingqiu County",
        "zip_code": "034400"
    },
    {
        "name": "Datong",
        "zip_code": "037000"
    },
    {
        "name": "Zuoyun County",
        "zip_code": "037100"
    },
    {
        "name": "Datong County",
        "zip_code": "037300"
    },
    {
        "name": "Hunyuan County",
        "zip_code": "037400"
    },
    {
        "name": "Guangling County",
        "zip_code": "037500"
    },
    {
        "name": "Yanggao County",
        "zip_code": "038100"
    },
    {
        "name": "Tianzhen County",
        "zip_code": "038200"
    },
    {
        "name": "Yu County",
        "zip_code": "045100"
    },
    {
        "name": "Pingding County",
        "zip_code": "045200"
    },
    {
        "name": "Changzhi",
        "zip_code": "046000"
    },
    {
        "name": "Tunliu County",
        "zip_code": "046100"
    },
    {
        "name": "Xiangyuan County",
        "zip_code": "046200"
    },
    {
        "name": "Wuxiang County",
        "zip_code": "046300"
    },
    {
        "name": "Qin County",
        "zip_code": "046400"
    },
    {
        "name": "Qinyuan County",
        "zip_code": "046500"
    },
    {
        "name": "Zhangzi County",
        "zip_code": "046600"
    },
    {
        "name": "Lucheng",
        "zip_code": "047500"
    },
    {
        "name": "Yangcheng County",
        "zip_code": "048100"
    },
    {
        "name": "Qinshui County",
        "zip_code": "048200"
    },
    {
        "name": "Gaoping",
        "zip_code": "048400"
    },
    {
        "name": "Pinglu District",
        "zip_code": "036800"
    },
    {
        "name": "Youyu County",
        "zip_code": "037200"
    },
    {
        "name": "Ying County",
        "zip_code": "037600"
    },
    {
        "name": "Shanyin County",
        "zip_code": "038400"
    },
    {
        "name": "Pinglu County",
        "zip_code": "044300"
    },
    {
        "name": "Yuci District",
        "zip_code": "030600"
    },
    {
        "name": "Taigu County",
        "zip_code": "030800"
    },
    {
        "name": "Qi County",
        "zip_code": "030900"
    },
    {
        "name": "Pingyao County",
        "zip_code": "031100"
    },
    {
        "name": "Jiexiu",
        "zip_code": "031200"
    },
    {
        "name": "Lingshi County",
        "zip_code": "031300"
    },
    {
        "name": "Shouyang County",
        "zip_code": "031700"
    },
    {
        "name": "Yushe County",
        "zip_code": "031800"
    },
    {
        "name": "Zuoquan County",
        "zip_code": "032600"
    },
    {
        "name": "Huairen County",
        "zip_code": "038300"
    },
    {
        "name": "Xiyang County",
        "zip_code": "045300"
    },
    {
        "name": "Xinjiang County",
        "zip_code": "043100"
    },
    {
        "name": "Jishan County",
        "zip_code": "043200"
    },
    {
        "name": "Hejin",
        "zip_code": "043300"
    },
    {
        "name": "Jiang County",
        "zip_code": "043600"
    },
    {
        "name": "Yuanqu County",
        "zip_code": "043700"
    },
    {
        "name": "Wenxi County",
        "zip_code": "043800"
    },
    {
        "name": "Yuncheng",
        "zip_code": "044000"
    },
    {
        "name": "Linyi County",
        "zip_code": "044100"
    },
    {
        "name": "Wanrong County",
        "zip_code": "044200"
    },
    {
        "name": "Xia County",
        "zip_code": "044400"
    },
    {
        "name": "Yongji",
        "zip_code": "044500"
    },
    {
        "name": "Ruicheng County",
        "zip_code": "044600"
    },
    {
        "name": "Xinzhou",
        "zip_code": "034000"
    },
    {
        "name": "Yuanping City",
        "zip_code": "034100"
    },
    {
        "name": "Dai County",
        "zip_code": "034200"
    },
    {
        "name": "Fanshi County",
        "zip_code": "034300"
    },
    {
        "name": "Jingle County",
        "zip_code": "035100"
    },
    {
        "name": "Dingxiang County",
        "zip_code": "035400"
    },
    {
        "name": "Wutai County",
        "zip_code": "035500"
    },
    {
        "name": "Shenchi County",
        "zip_code": "036100"
    },
    {
        "name": "Wuzhai County",
        "zip_code": "036200"
    },
    {
        "name": "Kelan County",
        "zip_code": "036300"
    },
    {
        "name": "Pianguan County",
        "zip_code": "036400"
    },
    {
        "name": "Hequ County",
        "zip_code": "036500"
    },
    {
        "name": "Baode County",
        "zip_code": "036600"
    },
    {
        "name": "Ningwu County",
        "zip_code": "036700"
    },
    {
        "name": "Huozhou",
        "zip_code": "031400"
    },
    {
        "name": "Fenxi County",
        "zip_code": "031500"
    },
    {
        "name": "Hongtong County",
        "zip_code": "031600"
    },
    {
        "name": "Pu County",
        "zip_code": "041200"
    },
    {
        "name": "Xi County",
        "zip_code": "041300"
    },
    {
        "name": "Yonghe County",
        "zip_code": "041400"
    },
    {
        "name": "Xiangfen County",
        "zip_code": "041500"
    },
    {
        "name": "Xiangning County",
        "zip_code": "042100"
    },
    {
        "name": "Ji County",
        "zip_code": "042200"
    },
    {
        "name": "Daning County",
        "zip_code": "042300"
    },
    {
        "name": "Gu County",
        "zip_code": "042400"
    },
    {
        "name": "Anze County",
        "zip_code": "042500"
    },
    {
        "name": "Fushan County",
        "zip_code": "042600"
    },
    {
        "name": "Houma City",
        "zip_code": "043000"
    },
    {
        "name": "Quwo County",
        "zip_code": "043400"
    },
    {
        "name": "Yicheng County",
        "zip_code": "043500"
    },
    {
        "name": "Jiaocheng County",
        "zip_code": "030500"
    },
    {
        "name": "Wenshui County",
        "zip_code": "032100"
    },
    {
        "name": "Fenyang",
        "zip_code": "032200"
    },
    {
        "name": "Xiaoyi",
        "zip_code": "032300"
    },
    {
        "name": "Jiaokou County",
        "zip_code": "032400"
    },
    {
        "name": "Shilou County",
        "zip_code": "032500"
    },
    {
        "name": "Fangshan County",
        "zip_code": "033100"
    },
    {
        "name": "Lin County",
        "zip_code": "033200"
    },
    {
        "name": "Liulin County",
        "zip_code": "033300"
    },
    {
        "name": "Zhongyang County",
        "zip_code": "033400"
    },
    {
        "name": "Lan County",
        "zip_code": "035200"
    },
    {
        "name": "Xing County",
        "zip_code": "035300"
    },
    {
        "name": "Taiyuan",
        "zip_code": "030000"
    },
    {
        "name": "Lüliang",
        "zip_code": "033000"
    },
    {
        "name": "Shuozhou",
        "zip_code": "036000"
    },
    {
        "name": "Linfen",
        "zip_code": "040000"
    },
    {
        "name": "Yangquan",
        "zip_code": "045000"
    },
    {
        "name": "Jincheng",
        "zip_code": "048000"
    },
    {
        "name": "Licheng District",
        "zip_code": "250100"
    },
    {
        "name": "Zhangqiu",
        "zip_code": "250200"
    },
    {
        "name": "Changqing District",
        "zip_code": "250300"
    },
    {
        "name": "Pingyin County",
        "zip_code": "250400"
    },
    {
        "name": "Jiyang County",
        "zip_code": "251400"
    },
    {
        "name": "Shanghe County",
        "zip_code": "251600"
    },
    {
        "name": "Laiwu",
        "zip_code": "271100"
    },
    {
        "name": "Laoshan District",
        "zip_code": "266100"
    },
    {
        "name": "Jimo",
        "zip_code": "266200"
    },
    {
        "name": "Jiaozhou",
        "zip_code": "266300"
    },
    {
        "name": "Huangdao District",
        "zip_code": "266400"
    },
    {
        "name": "Huangdao District",
        "zip_code": "266500"
    },
    {
        "name": "Laixi",
        "zip_code": "266600"
    },
    {
        "name": "Pingdu",
        "zip_code": "266700"
    },
    {
        "name": "Zichuan District",
        "zip_code": "255100"
    },
    {
        "name": "Boshan District",
        "zip_code": "255200"
    },
    {
        "name": "Zhoucun District",
        "zip_code": "255300"
    },
    {
        "name": "Linzi District",
        "zip_code": "255400"
    },
    {
        "name": "Yiyuan County",
        "zip_code": "256100"
    },
    {
        "name": "Gaoqing County",
        "zip_code": "256300"
    },
    {
        "name": "Huantai County",
        "zip_code": "256400"
    },
    {
        "name": "Shanting District",
        "zip_code": "277200"
    },
    {
        "name": "Yicheng District",
        "zip_code": "277300"
    },
    {
        "name": "Tai'erzhuang District",
        "zip_code": "277400"
    },
    {
        "name": "Tengzhou",
        "zip_code": "277500"
    },
    {
        "name": "Dongying",
        "zip_code": "257000"
    },
    {
        "name": "Dongying District",
        "zip_code": "257100"
    },
    {
        "name": "Hekou District",
        "zip_code": "257200"
    },
    {
        "name": "Guangrao County",
        "zip_code": "257300"
    },
    {
        "name": "Lijin County",
        "zip_code": "257400"
    },
    {
        "name": "Kenli County",
        "zip_code": "257500"
    },
    {
        "name": "Laizhou",
        "zip_code": "261400"
    },
    {
        "name": "Muping District",
        "zip_code": "264100"
    },
    {
        "name": "Haiyang",
        "zip_code": "265100"
    },
    {
        "name": "Laiyang",
        "zip_code": "265200"
    },
    {
        "name": "Qixia",
        "zip_code": "265300"
    },
    {
        "name": "Zhaoyuan City",
        "zip_code": "265400"
    },
    {
        "name": "Fushan District",
        "zip_code": "265500"
    },
    {
        "name": "Penglai City",
        "zip_code": "265600"
    },
    {
        "name": "Longkou",
        "zip_code": "265700"
    },
    {
        "name": "Changdao County",
        "zip_code": "265800"
    },
    {
        "name": "Hanting District",
        "zip_code": "261100"
    },
    {
        "name": "Fangzi District",
        "zip_code": "261200"
    },
    {
        "name": "Changyi",
        "zip_code": "261300"
    },
    {
        "name": "Gaomi",
        "zip_code": "261500"
    },
    {
        "name": "Anqiu",
        "zip_code": "262100"
    },
    {
        "name": "Zhucheng",
        "zip_code": "262200"
    },
    {
        "name": "Changle County",
        "zip_code": "262400"
    },
    {
        "name": "Qingzhou",
        "zip_code": "262500"
    },
    {
        "name": "Linqu County",
        "zip_code": "262600"
    },
    {
        "name": "Shouguang",
        "zip_code": "262700"
    },
    {
        "name": "Yanzhou District",
        "zip_code": "272100"
    },
    {
        "name": "Jinxiang County",
        "zip_code": "272200"
    },
    {
        "name": "Yutai County",
        "zip_code": "272300"
    },
    {
        "name": "Jiaxiang County",
        "zip_code": "272400"
    },
    {
        "name": "Wenshang County",
        "zip_code": "272500"
    },
    {
        "name": "Liangshan County",
        "zip_code": "272600"
    },
    {
        "name": "Qufu",
        "zip_code": "273100"
    },
    {
        "name": "Sishui County",
        "zip_code": "273200"
    },
    {
        "name": "Zoucheng",
        "zip_code": "273500"
    },
    {
        "name": "Weishan County",
        "zip_code": "277600"
    },
    {
        "name": "Tai'an",
        "zip_code": "271000"
    },
    {
        "name": "Xintai",
        "zip_code": "271200"
    },
    {
        "name": "Ningyang County",
        "zip_code": "271400"
    },
    {
        "name": "Dongping County",
        "zip_code": "271500"
    },
    {
        "name": "Feicheng",
        "zip_code": "271600"
    },
    {
        "name": "Rongcheng",
        "zip_code": "264300"
    },
    {
        "name": "Wendeng District",
        "zip_code": "264400"
    },
    {
        "name": "Rushan",
        "zip_code": "264500"
    },
    {
        "name": "Wulian County",
        "zip_code": "262300"
    },
    {
        "name": "Ju County",
        "zip_code": "276500"
    },
    {
        "name": "Pingyi County",
        "zip_code": "273300"
    },
    {
        "name": "Fei County",
        "zip_code": "273400"
    },
    {
        "name": "Tancheng County",
        "zip_code": "276100"
    },
    {
        "name": "Mengyin County",
        "zip_code": "276200"
    },
    {
        "name": "Yinan County",
        "zip_code": "276300"
    },
    {
        "name": "Yishui County",
        "zip_code": "276400"
    },
    {
        "name": "Junan County",
        "zip_code": "276600"
    },
    {
        "name": "Linshu County",
        "zip_code": "276700"
    },
    {
        "name": "Lanling County",
        "zip_code": "277700"
    },
    {
        "name": "Qihe County",
        "zip_code": "251100"
    },
    {
        "name": "Yucheng",
        "zip_code": "251200"
    },
    {
        "name": "Linyi County",
        "zip_code": "251500"
    },
    {
        "name": "Pingyuan County",
        "zip_code": "253100"
    },
    {
        "name": "Xiajin County",
        "zip_code": "253200"
    },
    {
        "name": "Wucheng County",
        "zip_code": "253300"
    },
    {
        "name": "Ningjin County",
        "zip_code": "253400"
    },
    {
        "name": "Lingcheng District",
        "zip_code": "253500"
    },
    {
        "name": "Leling",
        "zip_code": "253600"
    },
    {
        "name": "Qingyun County",
        "zip_code": "253700"
    },
    {
        "name": "Linyi",
        "zip_code": "276000"
    },
    {
        "name": "Chiping County",
        "zip_code": "252100"
    },
    {
        "name": "Dong'e County",
        "zip_code": "252200"
    },
    {
        "name": "Yanggu County",
        "zip_code": "252300"
    },
    {
        "name": "Shen County",
        "zip_code": "252400"
    },
    {
        "name": "Guan County",
        "zip_code": "252500"
    },
    {
        "name": "Linqing",
        "zip_code": "252600"
    },
    {
        "name": "Gaotang County",
        "zip_code": "252700"
    },
    {
        "name": "Huimin County",
        "zip_code": "251700"
    },
    {
        "name": "Yangxin County",
        "zip_code": "251800"
    },
    {
        "name": "Wudi County",
        "zip_code": "251900"
    },
    {
        "name": "Zouping County",
        "zip_code": "256200"
    },
    {
        "name": "Boxing County",
        "zip_code": "256500"
    },
    {
        "name": "Zhanhua District",
        "zip_code": "256800"
    },
    {
        "name": "Dingtao District",
        "zip_code": "274100"
    },
    {
        "name": "Chengwu County",
        "zip_code": "274200"
    },
    {
        "name": "Shan County",
        "zip_code": "274300"
    },
    {
        "name": "Cao County",
        "zip_code": "274400"
    },
    {
        "name": "Dongming County",
        "zip_code": "274500"
    },
    {
        "name": "Juancheng County",
        "zip_code": "274600"
    },
    {
        "name": "Yuncheng County",
        "zip_code": "274700"
    },
    {
        "name": "Juye County",
        "zip_code": "274900"
    },
    {
        "name": "Jinan",
        "zip_code": "250000"
    },
    {
        "name": "Liaocheng",
        "zip_code": "252000"
    },
    {
        "name": "Dezhou",
        "zip_code": "253000"
    },
    {
        "name": "Zibo",
        "zip_code": "255000"
    },
    {
        "name": "Binzhou",
        "zip_code": "256600"
    },
    {
        "name": "Weifang",
        "zip_code": "261000"
    },
    {
        "name": "Yantai",
        "zip_code": "264000"
    },
    {
        "name": "Weihai",
        "zip_code": "264200"
    },
    {
        "name": "Qingdao",
        "zip_code": "266000"
    },
    {
        "name": "Jining",
        "zip_code": "272000"
    },
    {
        "name": "Heze",
        "zip_code": "274000"
    },
    {
        "name": "Rizhao",
        "zip_code": "276800"
    },
    {
        "name": "Zaozhuang",
        "zip_code": "277000"
    },
    {
        "name": "Xi'an",
        "zip_code": "710000"
    },
    {
        "name": "Chang'an District",
        "zip_code": "710100"
    },
    {
        "name": "Gaoling District",
        "zip_code": "710200"
    },
    {
        "name": "Hu County",
        "zip_code": "710300"
    },
    {
        "name": "Zhouzhi County",
        "zip_code": "710400"
    },
    {
        "name": "Lantian County",
        "zip_code": "710500"
    },
    {
        "name": "Lintong District",
        "zip_code": "710600"
    },
    {
        "name": "Yaozhou District",
        "zip_code": "727100"
    },
    {
        "name": "Yijun County",
        "zip_code": "727200"
    },
    {
        "name": "Qianyang County",
        "zip_code": "721100"
    },
    {
        "name": "Long County",
        "zip_code": "721200"
    },
    {
        "name": "Chencang District",
        "zip_code": "721300"
    },
    {
        "name": "Fengxiang County",
        "zip_code": "721400"
    },
    {
        "name": "Linyou County",
        "zip_code": "721500"
    },
    {
        "name": "Taibai County",
        "zip_code": "721600"
    },
    {
        "name": "Feng County",
        "zip_code": "721700"
    },
    {
        "name": "Fufeng County",
        "zip_code": "722200"
    },
    {
        "name": "Mei County",
        "zip_code": "722300"
    },
    {
        "name": "Qishan County",
        "zip_code": "722400"
    },
    {
        "name": "Chunhua County",
        "zip_code": "711200"
    },
    {
        "name": "Xunyi County",
        "zip_code": "711300"
    },
    {
        "name": "Yangling District",
        "zip_code": "712100"
    },
    {
        "name": "Wugong County",
        "zip_code": "712200"
    },
    {
        "name": "Liquan County",
        "zip_code": "713200"
    },
    {
        "name": "Qian County",
        "zip_code": "713300"
    },
    {
        "name": "Yongshou County",
        "zip_code": "713400"
    },
    {
        "name": "Bin County",
        "zip_code": "713500"
    },
    {
        "name": "Changwu County",
        "zip_code": "713600"
    },
    {
        "name": "Jingyang County",
        "zip_code": "713700"
    },
    {
        "name": "Sanyuan County",
        "zip_code": "713800"
    },
    {
        "name": "Fuping County",
        "zip_code": "711700"
    },
    {
        "name": "Xingping",
        "zip_code": "713100"
    },
    {
        "name": "Huazhou District",
        "zip_code": "714100"
    },
    {
        "name": "Huayin City",
        "zip_code": "714200"
    },
    {
        "name": "Tongguan County",
        "zip_code": "714300"
    },
    {
        "name": "Dali County",
        "zip_code": "715100"
    },
    {
        "name": "Chengcheng County",
        "zip_code": "715200"
    },
    {
        "name": "Heyang County",
        "zip_code": "715300"
    },
    {
        "name": "Hancheng City",
        "zip_code": "715400"
    },
    {
        "name": "Pucheng County",
        "zip_code": "715500"
    },
    {
        "name": "Baishui County",
        "zip_code": "715600"
    },
    {
        "name": "Huanglong County",
        "zip_code": "715700"
    },
    {
        "name": "Ganquan County",
        "zip_code": "716100"
    },
    {
        "name": "Yichuan County",
        "zip_code": "716600"
    },
    {
        "name": "Yanchang County",
        "zip_code": "717100"
    },
    {
        "name": "Yanchuan County",
        "zip_code": "717200"
    },
    {
        "name": "Zichang County",
        "zip_code": "717300"
    },
    {
        "name": "Ansai County",
        "zip_code": "717400"
    },
    {
        "name": "Zhidan County",
        "zip_code": "717500"
    },
    {
        "name": "Wuqi County",
        "zip_code": "717600"
    },
    {
        "name": "Huangling County",
        "zip_code": "727300"
    },
    {
        "name": "Luochuan County",
        "zip_code": "727400"
    },
    {
        "name": "Fu County",
        "zip_code": "727500"
    },
    {
        "name": "Nanzheng County",
        "zip_code": "723100"
    },
    {
        "name": "Chenggu County",
        "zip_code": "723200"
    },
    {
        "name": "Yang County",
        "zip_code": "723300"
    },
    {
        "name": "Foping County",
        "zip_code": "723400"
    },
    {
        "name": "Xixiang County",
        "zip_code": "723500"
    },
    {
        "name": "Zhenba County",
        "zip_code": "723600"
    },
    {
        "name": "Liuba County",
        "zip_code": "724100"
    },
    {
        "name": "Mian County",
        "zip_code": "724200"
    },
    {
        "name": "Lueyang County",
        "zip_code": "724300"
    },
    {
        "name": "Ningqiang County",
        "zip_code": "724400"
    },
    {
        "name": "Suide County",
        "zip_code": "718000"
    },
    {
        "name": "Mizhi County",
        "zip_code": "718100"
    },
    {
        "name": "Wubu County",
        "zip_code": "718200"
    },
    {
        "name": "Qingjian County",
        "zip_code": "718300"
    },
    {
        "name": "Zizhou County",
        "zip_code": "718400"
    },
    {
        "name": "Jingbian County",
        "zip_code": "718500"
    },
    {
        "name": "Dingbian County",
        "zip_code": "718600"
    },
    {
        "name": "Hengshan District",
        "zip_code": "719100"
    },
    {
        "name": "Jia County",
        "zip_code": "719200"
    },
    {
        "name": "Shenmu County",
        "zip_code": "719300"
    },
    {
        "name": "Fugu County",
        "zip_code": "719400"
    },
    {
        "name": "Ningshan County",
        "zip_code": "711600"
    },
    {
        "name": "Hanyin County",
        "zip_code": "725100"
    },
    {
        "name": "Shiquan County",
        "zip_code": "725200"
    },
    {
        "name": "Ziyang County",
        "zip_code": "725300"
    },
    {
        "name": "Langao County",
        "zip_code": "725400"
    },
    {
        "name": "Pingli County",
        "zip_code": "725500"
    },
    {
        "name": "Zhenping County",
        "zip_code": "725600"
    },
    {
        "name": "Xunyang County",
        "zip_code": "725700"
    },
    {
        "name": "Baihe County",
        "zip_code": "725800"
    },
    {
        "name": "Zhashui County",
        "zip_code": "711400"
    },
    {
        "name": "Zhen'an County",
        "zip_code": "711500"
    },
    {
        "name": "Luonan County",
        "zip_code": "726100"
    },
    {
        "name": "Danfeng County",
        "zip_code": "726200"
    },
    {
        "name": "Shangnan County",
        "zip_code": "726300"
    },
    {
        "name": "Shanyang County",
        "zip_code": "726400"
    },
    {
        "name": "Xianyang",
        "zip_code": "712000"
    },
    {
        "name": "Weinan",
        "zip_code": "714000"
    },
    {
        "name": "Yan'an",
        "zip_code": "716000"
    },
    {
        "name": "Yulin",
        "zip_code": "719000"
    },
    {
        "name": "Baoji",
        "zip_code": "721000"
    },
    {
        "name": "Hanzhong",
        "zip_code": "723000"
    },
    {
        "name": "Ankang",
        "zip_code": "725000"
    },
    {
        "name": "Shangluo",
        "zip_code": "726000"
    },
    {
        "name": "Tongchuan",
        "zip_code": "727000"
    },
    {
        "name": "Tianjin Urban",
        "zip_code": "300000"
    },
    {
        "name": "Ninghe District",
        "zip_code": "301500"
    },
    {
        "name": "Jinghai District",
        "zip_code": "301600"
    },
    {
        "name": "Wuqing District",
        "zip_code": "301700"
    },
    {
        "name": "Baodi District",
        "zip_code": "301800"
    },
    {
        "name": "Ji County",
        "zip_code": "301900"
    },
    {
        "name": "Jingdong Yi Autonomous County",
        "zip_code": "676200"
    },
    {
        "name": "Xishan District",
        "zip_code": "650100"
    },
    {
        "name": "Guandu District",
        "zip_code": "650200"
    },
    {
        "name": "Anning",
        "zip_code": "650300"
    },
    {
        "name": "Fumin County",
        "zip_code": "650400"
    },
    {
        "name": "Chenggong District",
        "zip_code": "650500"
    },
    {
        "name": "Jinning County",
        "zip_code": "650600"
    },
    {
        "name": "Luquan Yi and Miao Autonomous County",
        "zip_code": "651500"
    },
    {
        "name": "Songming County",
        "zip_code": "651700"
    },
    {
        "name": "Yiliang County",
        "zip_code": "652100"
    },
    {
        "name": "Shilin Yi Autonomous County",
        "zip_code": "652200"
    },
    {
        "name": "Dongchuan District",
        "zip_code": "654100"
    },
    {
        "name": "Xundian Hui and Yi Autonomous County",
        "zip_code": "655200"
    },
    {
        "name": "Yiliang County",
        "zip_code": "657600"
    },
    {
        "name": "Huize County",
        "zip_code": "654200"
    },
    {
        "name": "Malong County",
        "zip_code": "655100"
    },
    {
        "name": "Xuanwei",
        "zip_code": "655400"
    },
    {
        "name": "Fuyuan County",
        "zip_code": "655500"
    },
    {
        "name": "Luliang County",
        "zip_code": "655600"
    },
    {
        "name": "Shizong County",
        "zip_code": "655700"
    },
    {
        "name": "Luoping County",
        "zip_code": "655800"
    },
    {
        "name": "Yimen County",
        "zip_code": "651100"
    },
    {
        "name": "Chengjiang County",
        "zip_code": "652500"
    },
    {
        "name": "Jiangchuan District",
        "zip_code": "652600"
    },
    {
        "name": "Tonghai County",
        "zip_code": "652700"
    },
    {
        "name": "Huaning County",
        "zip_code": "652800"
    },
    {
        "name": "Eshan Yi Autonomous County",
        "zip_code": "653200"
    },
    {
        "name": "Yuanjiang Hani, Yi and Dai Autonomous County",
        "zip_code": "653300"
    },
    {
        "name": "Xinping Yi and Dai Autonomous County",
        "zip_code": "653400"
    },
    {
        "name": "Yimen County",
        "zip_code": "671100"
    },
    {
        "name": "Fugong County",
        "zip_code": "673400"
    },
    {
        "name": "Changning County",
        "zip_code": "678100"
    },
    {
        "name": "Shidian County",
        "zip_code": "678200"
    },
    {
        "name": "Longling County",
        "zip_code": "678300"
    },
    {
        "name": "Tengchong",
        "zip_code": "679100"
    },
    {
        "name": "Qiaojia County",
        "zip_code": "654600"
    },
    {
        "name": "Ludian County",
        "zip_code": "657100"
    },
    {
        "name": "Yongshan County",
        "zip_code": "657300"
    },
    {
        "name": "Daguan County",
        "zip_code": "657400"
    },
    {
        "name": "Yanjin County",
        "zip_code": "657500"
    },
    {
        "name": "Suijiang County",
        "zip_code": "657700"
    },
    {
        "name": "Shuifu County",
        "zip_code": "657800"
    },
    {
        "name": "Weixin County",
        "zip_code": "657900"
    },
    {
        "name": "Yongsheng County",
        "zip_code": "674200"
    },
    {
        "name": "Ninglang Yi Autonomous County",
        "zip_code": "674300"
    },
    {
        "name": "Huaping County",
        "zip_code": "674800"
    },
    {
        "name": "Mojiang Hani Autonomous County",
        "zip_code": "654800"
    },
    {
        "name": "Yun County",
        "zip_code": "675800"
    },
    {
        "name": "Fengqing County",
        "zip_code": "675900"
    },
    {
        "name": "Shuangjiang Lahu, Va, Blang and Dai Autonomous County",
        "zip_code": "677300"
    },
    {
        "name": "Cangyuan Va Autonomous County",
        "zip_code": "677400"
    },
    {
        "name": "Gengma Dai and Va Autonomous County",
        "zip_code": "677500"
    },
    {
        "name": "Yongde County",
        "zip_code": "677600"
    },
    {
        "name": "Zhenkang County",
        "zip_code": "677700"
    },
    {
        "name": "Lufeng County",
        "zip_code": "651200"
    },
    {
        "name": "Yuanmou County",
        "zip_code": "651300"
    },
    {
        "name": "Yongren County",
        "zip_code": "651400"
    },
    {
        "name": "Wuding County",
        "zip_code": "651600"
    },
    {
        "name": "Shuangbai County",
        "zip_code": "675100"
    },
    {
        "name": "Nanhua County",
        "zip_code": "675200"
    },
    {
        "name": "Yao'an County",
        "zip_code": "675300"
    },
    {
        "name": "Dayao County",
        "zip_code": "675400"
    },
    {
        "name": "Mouding County",
        "zip_code": "675500"
    },
    {
        "name": "Mile City",
        "zip_code": "652300"
    },
    {
        "name": "Luxi County",
        "zip_code": "652400"
    },
    {
        "name": "Jianshui County",
        "zip_code": "654300"
    },
    {
        "name": "Honghe County",
        "zip_code": "654400"
    },
    {
        "name": "Mengzi City",
        "zip_code": "661100"
    },
    {
        "name": "Pingbian Miao Autonomous County",
        "zip_code": "661200"
    },
    {
        "name": "Hekou Yao Autonomous County",
        "zip_code": "661300"
    },
    {
        "name": "Gejiu",
        "zip_code": "661400"
    },
    {
        "name": "Jinping Miao, Yao and Dai Autonomous County",
        "zip_code": "661500"
    },
    {
        "name": "Kaiyuan",
        "zip_code": "661600"
    },
    {
        "name": "Shiping County",
        "zip_code": "662200"
    },
    {
        "name": "Yuanyang County",
        "zip_code": "662400"
    },
    {
        "name": "Lüchun County",
        "zip_code": "662500"
    },
    {
        "name": "Yanshan County",
        "zip_code": "663100"
    },
    {
        "name": "Qiubei County",
        "zip_code": "663200"
    },
    {
        "name": "Guangnan County",
        "zip_code": "663300"
    },
    {
        "name": "Funing County",
        "zip_code": "663400"
    },
    {
        "name": "Xichou County",
        "zip_code": "663500"
    },
    {
        "name": "Malipo County",
        "zip_code": "663600"
    },
    {
        "name": "Eryuan County",
        "zip_code": "671200"
    },
    {
        "name": "Jianchuan County",
        "zip_code": "671300"
    },
    {
        "name": "Heqing County",
        "zip_code": "671500"
    },
    {
        "name": "Xiangyun County",
        "zip_code": "672100"
    },
    {
        "name": "Weishan Yi and Hui Autonomous County",
        "zip_code": "672400"
    },
    {
        "name": "Yangbi Yi Autonomous County",
        "zip_code": "672500"
    },
    {
        "name": "Yongping County",
        "zip_code": "672600"
    },
    {
        "name": "Yunlong County",
        "zip_code": "672700"
    },
    {
        "name": "Midu County",
        "zip_code": "675600"
    },
    {
        "name": "Nanjian Yi Autonomous County",
        "zip_code": "675700"
    },
    {
        "name": "Mang City",
        "zip_code": "678400"
    },
    {
        "name": "Ruili City",
        "zip_code": "678500"
    },
    {
        "name": "Longchuan County",
        "zip_code": "678600"
    },
    {
        "name": "Lianghe County",
        "zip_code": "679200"
    },
    {
        "name": "Yingjiang County",
        "zip_code": "679300"
    },
    {
        "name": "Lanping Bai and Pumi Autonomous County",
        "zip_code": "671400"
    },
    {
        "name": "Lushui",
        "zip_code": "673200"
    },
    {
        "name": "Gongshan Derung and Nu Autonomous County",
        "zip_code": "673500"
    },
    {
        "name": "Shangri-La City",
        "zip_code": "674400"
    },
    {
        "name": "Dêqên County",
        "zip_code": "674500"
    },
    {
        "name": "Weixi Lisu Autonomous County",
        "zip_code": "674600"
    },
    {
        "name": "Kunming",
        "zip_code": "650000"
    },
    {
        "name": "Yuxi",
        "zip_code": "653100"
    },
    {
        "name": "Qujing",
        "zip_code": "655000"
    },
    {
        "name": "Zhaotong",
        "zip_code": "657000"
    },
    {
        "name": "Wenshan Zhuang and Miao Autonomous Prefecture",
        "zip_code": "663000"
    },
    {
        "name": "Dali Bai Autonomous Prefecture",
        "zip_code": "671000"
    },
    {
        "name": "Lijiang",
        "zip_code": "674100"
    },
    {
        "name": "Chuxiong Yi Autonomous Prefecture",
        "zip_code": "675000"
    },
    {
        "name": "Lincang",
        "zip_code": "677000"
    },
    {
        "name": "Baoshan",
        "zip_code": "678000"
    },
    {
        "name": "Huadu District",
        "zip_code": "510800"
    },
    {
        "name": "Conghua District",
        "zip_code": "510900"
    },
    {
        "name": "Zengcheng District",
        "zip_code": "511300"
    },
    {
        "name": "Panyu District and Nansha District",
        "zip_code": "511400"
    },
    {
        "name": "Xinfeng County",
        "zip_code": "511100"
    },
    {
        "name": "Qujiang District",
        "zip_code": "512100"
    },
    {
        "name": "Lechang",
        "zip_code": "512200"
    },
    {
        "name": "Renhua County",
        "zip_code": "512300"
    },
    {
        "name": "Nanxiong",
        "zip_code": "512400"
    },
    {
        "name": "Shixing County",
        "zip_code": "512500"
    },
    {
        "name": "Wengyuan County",
        "zip_code": "512600"
    },
    {
        "name": "Bao'an District",
        "zip_code": "518100"
    },
    {
        "name": "Longgang District",
        "zip_code": "518100"
    },
    {
        "name": "Doumen District",
        "zip_code": "519100"
    },
    {
        "name": "Chaoyang District",
        "zip_code": "515100"
    },
    {
        "name": "Chaonan District",
        "zip_code": "515100"
    },
    {
        "name": "Chenghai District",
        "zip_code": "515800"
    },
    {
        "name": "Nan'ao County",
        "zip_code": "515900"
    },
    {
        "name": "Sanshui District",
        "zip_code": "528100"
    },
    {
        "name": "Nanhai District",
        "zip_code": "528200"
    },
    {
        "name": "Shunde District",
        "zip_code": "528300"
    },
    {
        "name": "Gaoming District",
        "zip_code": "528500"
    },
    {
        "name": "Xinhui District",
        "zip_code": "529100"
    },
    {
        "name": "Taishan",
        "zip_code": "529200"
    },
    {
        "name": "Kaiping",
        "zip_code": "529300"
    },
    {
        "name": "Enping",
        "zip_code": "529400"
    },
    {
        "name": "Heshan",
        "zip_code": "529500"
    },
    {
        "name": "Xuwen County",
        "zip_code": "524100"
    },
    {
        "name": "Leizhou",
        "zip_code": "524200"
    },
    {
        "name": "Suixi County",
        "zip_code": "524300"
    },
    {
        "name": "Lianjiang",
        "zip_code": "524400"
    },
    {
        "name": "Wuchuan",
        "zip_code": "524500"
    },
    {
        "name": "Huazhou",
        "zip_code": "525100"
    },
    {
        "name": "Gaozhou",
        "zip_code": "525200"
    },
    {
        "name": "Xinyi",
        "zip_code": "525300"
    },
    {
        "name": "Dianbai District",
        "zip_code": "525400"
    },
    {
        "name": "Gaoyao District",
        "zip_code": "526100"
    },
    {
        "name": "Sihui",
        "zip_code": "526200"
    },
    {
        "name": "Guangning County",
        "zip_code": "526300"
    },
    {
        "name": "Huaiji County",
        "zip_code": "526400"
    },
    {
        "name": "Fengkai County",
        "zip_code": "526500"
    },
    {
        "name": "Deqing County",
        "zip_code": "526600"
    },
    {
        "name": "Boluo County",
        "zip_code": "516100"
    },
    {
        "name": "Huiyang District",
        "zip_code": "516200"
    },
    {
        "name": "Huidong County",
        "zip_code": "516300"
    },
    {
        "name": "Longmen County",
        "zip_code": "516800"
    },
    {
        "name": "Jiaoling County",
        "zip_code": "514100"
    },
    {
        "name": "Dabu County",
        "zip_code": "514200"
    },
    {
        "name": "Fengshun County",
        "zip_code": "514300"
    },
    {
        "name": "Wuhua County",
        "zip_code": "514400"
    },
    {
        "name": "Xingning",
        "zip_code": "514500"
    },
    {
        "name": "Pingyuan County",
        "zip_code": "514600"
    },
    {
        "name": "Haifeng County",
        "zip_code": "516400"
    },
    {
        "name": "Lufeng",
        "zip_code": "516500"
    },
    {
        "name": "Luhe County",
        "zip_code": "516700"
    },
    {
        "name": "Lianping County",
        "zip_code": "517100"
    },
    {
        "name": "Heping County",
        "zip_code": "517200"
    },
    {
        "name": "Longchuan County",
        "zip_code": "517300"
    },
    {
        "name": "Zijin County",
        "zip_code": "517400"
    },
    {
        "name": "Dongyuan County",
        "zip_code": "517500"
    },
    {
        "name": "Yangchun",
        "zip_code": "529700"
    },
    {
        "name": "Yangxi County",
        "zip_code": "529800"
    },
    {
        "name": "Fogang County",
        "zip_code": "511600"
    },
    {
        "name": "Ruyuan Yao Autonomous County",
        "zip_code": "512700"
    },
    {
        "name": "Yingde",
        "zip_code": "513000"
    },
    {
        "name": "Yangshan County",
        "zip_code": "513100"
    },
    {
        "name": "Lianshan Zhuang and Yao Autonomous County",
        "zip_code": "513200"
    },
    {
        "name": "Liannan Yao Autonomous County",
        "zip_code": "513300"
    },
    {
        "name": "Lianzhou",
        "zip_code": "513400"
    },
    {
        "name": "Chao'an District",
        "zip_code": "515600"
    },
    {
        "name": "Raoping County",
        "zip_code": "515700"
    },
    {
        "name": "Huilai County",
        "zip_code": "515200"
    },
    {
        "name": "Puning",
        "zip_code": "515300"
    },
    {
        "name": "Jiexi County",
        "zip_code": "515400"
    },
    {
        "name": "Jiedong District",
        "zip_code": "515500"
    },
    {
        "name": "Yunan County",
        "zip_code": "527100"
    },
    {
        "name": "Luoding",
        "zip_code": "527200"
    },
    {
        "name": "Yuncheng District",
        "zip_code": "527300"
    },
    {
        "name": "Xinxing County",
        "zip_code": "527400"
    },
    {
        "name": "Yun'an District",
        "zip_code": "527500"
    },
    {
        "name": "Guangzhou",
        "zip_code": "510000"
    },
    {
        "name": "Qingyuan",
        "zip_code": "511500"
    },
    {
        "name": "Shaoguan",
        "zip_code": "512000"
    },
    {
        "name": "Meizhou",
        "zip_code": "514000"
    },
    {
        "name": "Shantou",
        "zip_code": "515000"
    },
    {
        "name": "Huizhou",
        "zip_code": "516000"
    },
    {
        "name": "Shanwei",
        "zip_code": "516600"
    },
    {
        "name": "Heyuan",
        "zip_code": "517000"
    },
    {
        "name": "Shenzhen",
        "zip_code": "518000"
    },
    {
        "name": "Zhuhai",
        "zip_code": "519000"
    },
    {
        "name": "Chaozhou",
        "zip_code": "521000"
    },
    {
        "name": "Jieyang",
        "zip_code": "522000"
    },
    {
        "name": "Dongguan",
        "zip_code": "523000"
    },
    {
        "name": "Zhanjiang",
        "zip_code": "524000"
    },
    {
        "name": "Maoming",
        "zip_code": "525000"
    },
    {
        "name": "Zhaoqing",
        "zip_code": "526000"
    },
    {
        "name": "Yunfu",
        "zip_code": "527000"
    },
    {
        "name": "Foshan",
        "zip_code": "528000"
    },
    {
        "name": "Zhongshan",
        "zip_code": "528400"
    },
    {
        "name": "Jiangmen",
        "zip_code": "529000"
    },
    {
        "name": "Yangjiang",
        "zip_code": "529600"
    },
    {
        "name": "Dongfang",
        "zip_code": "572600"
    },
    {
        "name": "Qiongshan District",
        "zip_code": "571100"
    },
    {
        "name": "Yangpu Economic Development Zone",
        "zip_code": "578000"
    },
    {
        "name": "Haikou",
        "zip_code": "570000"
    },
    {
        "name": "Ding'an County",
        "zip_code": "571200"
    },
    {
        "name": "Wenchang",
        "zip_code": "571300"
    },
    {
        "name": "Qionghai",
        "zip_code": "571400"
    },
    {
        "name": "Wanning",
        "zip_code": "571500"
    },
    {
        "name": "Tunchang County",
        "zip_code": "571600"
    },
    {
        "name": "Danzhou",
        "zip_code": "571700"
    },
    {
        "name": "Lingao County",
        "zip_code": "571800"
    },
    {
        "name": "Chengmai County",
        "zip_code": "571900"
    },
    {
        "name": "Sanya",
        "zip_code": "572000"
    },
    {
        "name": "Wuzhishan City",
        "zip_code": "572200"
    },
    {
        "name": "Baoting Li and Miao Autonomous County",
        "zip_code": "572300"
    },
    {
        "name": "Lingshui Li Autonomous County",
        "zip_code": "572400"
    },
    {
        "name": "Ledong Li Autonomous County",
        "zip_code": "572500"
    },
    {
        "name": "Changjiang Li Autonomous County",
        "zip_code": "572700"
    },
    {
        "name": "Baisha Li Autonomous County",
        "zip_code": "572800"
    },
    {
        "name": "Qiongzhong Li and Miao Autonomous County",
        "zip_code": "572900"
    },
    {
        "name": "Sansha",
        "zip_code": "573100"
    },
    {
        "name": "Longquanyi District",
        "zip_code": "610100"
    },
    {
        "name": "Shuangliu District",
        "zip_code": "610200"
    },
    {
        "name": "Qingbaijiang District",
        "zip_code": "610300"
    },
    {
        "name": "Jintang County",
        "zip_code": "610400"
    },
    {
        "name": "Wenjiang District",
        "zip_code": "611100"
    },
    {
        "name": "Chongzhou",
        "zip_code": "611200"
    },
    {
        "name": "Dayi County",
        "zip_code": "611300"
    },
    {
        "name": "Xinjin County",
        "zip_code": "611400"
    },
    {
        "name": "Qionglai City",
        "zip_code": "611500"
    },
    {
        "name": "Pujiang County",
        "zip_code": "611600"
    },
    {
        "name": "Pi County",
        "zip_code": "611700"
    },
    {
        "name": "Dujiangyan City",
        "zip_code": "611800"
    },
    {
        "name": "Pengzhou",
        "zip_code": "611900"
    },
    {
        "name": "Jianyang",
        "zip_code": "641400"
    },
    {
        "name": "Rong County",
        "zip_code": "643100"
    },
    {
        "name": "Fushun County",
        "zip_code": "643200"
    },
    {
        "name": "Yanbian County",
        "zip_code": "617100"
    },
    {
        "name": "Miyi County",
        "zip_code": "617200"
    },
    {
        "name": "Lu County",
        "zip_code": "646100"
    },
    {
        "name": "Hejiang County",
        "zip_code": "646200"
    },
    {
        "name": "Naxi District",
        "zip_code": "646300"
    },
    {
        "name": "Xuyong County",
        "zip_code": "646400"
    },
    {
        "name": "Gulin County",
        "zip_code": "646500"
    },
    {
        "name": "Deyang",
        "zip_code": "618000"
    },
    {
        "name": "Zhongjiang County",
        "zip_code": "618100"
    },
    {
        "name": "Mianzhu",
        "zip_code": "618200"
    },
    {
        "name": "Guanghan",
        "zip_code": "618300"
    },
    {
        "name": "Shifang",
        "zip_code": "618400"
    },
    {
        "name": "Luojiang County",
        "zip_code": "618500"
    },
    {
        "name": "Santai County",
        "zip_code": "621100"
    },
    {
        "name": "Yanting County",
        "zip_code": "621600"
    },
    {
        "name": "Jiangyou",
        "zip_code": "621700"
    },
    {
        "name": "Zitong County",
        "zip_code": "622100"
    },
    {
        "name": "Pingwu County",
        "zip_code": "622500"
    },
    {
        "name": "Anzhou District",
        "zip_code": "622600"
    },
    {
        "name": "Beichuan Qiang Autonomous County",
        "zip_code": "622700"
    },
    {
        "name": "Qingchuan County",
        "zip_code": "628100"
    },
    {
        "name": "Wangcang County",
        "zip_code": "628200"
    },
    {
        "name": "Jiange County",
        "zip_code": "628300"
    },
    {
        "name": "Cangxi County",
        "zip_code": "628400"
    },
    {
        "name": "Suining",
        "zip_code": "629000"
    },
    {
        "name": "Pengxi County",
        "zip_code": "629100"
    },
    {
        "name": "Shehong County",
        "zip_code": "629200"
    },
    {
        "name": "Daying County",
        "zip_code": "629300"
    },
    {
        "name": "Neijiang",
        "zip_code": "641000"
    },
    {
        "name": "Dongxing District",
        "zip_code": "641100"
    },
    {
        "name": "Zizhong County",
        "zip_code": "641200"
    },
    {
        "name": "Longchang County",
        "zip_code": "642100"
    },
    {
        "name": "Weiyuan County",
        "zip_code": "642400"
    },
    {
        "name": "Jingyan County",
        "zip_code": "613100"
    },
    {
        "name": "Jiajiang County",
        "zip_code": "614100"
    },
    {
        "name": "Emeishan City",
        "zip_code": "614200"
    },
    {
        "name": "Ebian Yi Autonomous County",
        "zip_code": "614300"
    },
    {
        "name": "Qianwei County",
        "zip_code": "614400"
    },
    {
        "name": "Muchuan County",
        "zip_code": "614500"
    },
    {
        "name": "Mabian Yi Autonomous County",
        "zip_code": "614600"
    },
    {
        "name": "Jinkouhe District",
        "zip_code": "614700"
    },
    {
        "name": "Wutongqiao District",
        "zip_code": "614800"
    },
    {
        "name": "Shawan District",
        "zip_code": "614900"
    },
    {
        "name": "Shunqing District",
        "zip_code": "637000"
    },
    {
        "name": "Gaoping District",
        "zip_code": "637100"
    },
    {
        "name": "Xichong County",
        "zip_code": "637200"
    },
    {
        "name": "Nanbu County",
        "zip_code": "637300"
    },
    {
        "name": "Langzhong",
        "zip_code": "637400"
    },
    {
        "name": "Jialing District",
        "zip_code": "637500"
    },
    {
        "name": "Yilong County",
        "zip_code": "637600"
    },
    {
        "name": "Yingshan County",
        "zip_code": "637700"
    },
    {
        "name": "Peng'an County",
        "zip_code": "637800"
    },
    {
        "name": "Meishan",
        "zip_code": "620000"
    },
    {
        "name": "Danleng County",
        "zip_code": "620200"
    },
    {
        "name": "Hongya County",
        "zip_code": "620300"
    },
    {
        "name": "Qingshen County",
        "zip_code": "620400"
    },
    {
        "name": "Renshou County",
        "zip_code": "620500"
    },
    {
        "name": "Pengshan District",
        "zip_code": "620800"
    },
    {
        "name": "Yibin",
        "zip_code": "644000"
    },
    {
        "name": "Nanxi District",
        "zip_code": "644100"
    },
    {
        "name": "Jiang'an County",
        "zip_code": "644200"
    },
    {
        "name": "Changning County",
        "zip_code": "644300"
    },
    {
        "name": "Xingwen County",
        "zip_code": "644400"
    },
    {
        "name": "Gong County",
        "zip_code": "644500"
    },
    {
        "name": "Yibin County",
        "zip_code": "644600"
    },
    {
        "name": "Gao County",
        "zip_code": "645100"
    },
    {
        "name": "Junlian County",
        "zip_code": "645200"
    },
    {
        "name": "Pingshan County",
        "zip_code": "645300"
    },
    {
        "name": "Guang'an",
        "zip_code": "638000"
    },
    {
        "name": "Yuechi County",
        "zip_code": "638300"
    },
    {
        "name": "Wusheng County",
        "zip_code": "638400"
    },
    {
        "name": "Linshui County",
        "zip_code": "638500"
    },
    {
        "name": "Huaying",
        "zip_code": "638600"
    },
    {
        "name": "Dazhu County",
        "zip_code": "635100"
    },
    {
        "name": "Qu County",
        "zip_code": "635200"
    },
    {
        "name": "Xuanhan County",
        "zip_code": "636100"
    },
    {
        "name": "Kaijiang County",
        "zip_code": "636200"
    },
    {
        "name": "Wanyuan",
        "zip_code": "636300"
    },
    {
        "name": "Mingshan District",
        "zip_code": "625100"
    },
    {
        "name": "Yingjing County",
        "zip_code": "625200"
    },
    {
        "name": "Hanyuan County",
        "zip_code": "625300"
    },
    {
        "name": "Shimian County",
        "zip_code": "625400"
    },
    {
        "name": "Tianquan County",
        "zip_code": "625500"
    },
    {
        "name": "Lushan County",
        "zip_code": "625600"
    },
    {
        "name": "Baoxing County",
        "zip_code": "625700"
    },
    {
        "name": "Nanjiang County",
        "zip_code": "635600"
    },
    {
        "name": "Pingchang County",
        "zip_code": "636400"
    },
    {
        "name": "Bazhou District",
        "zip_code": "636600"
    },
    {
        "name": "Ziyang",
        "zip_code": "641300"
    },
    {
        "name": "Lezhi County",
        "zip_code": "641500"
    },
    {
        "name": "Anyue County",
        "zip_code": "642300"
    },
    {
        "name": "Wenchuan County",
        "zip_code": "623000"
    },
    {
        "name": "Li County",
        "zip_code": "623100"
    },
    {
        "name": "Mao County",
        "zip_code": "623200"
    },
    {
        "name": "Songpan County",
        "zip_code": "623300"
    },
    {
        "name": "Jiuzhaigou County",
        "zip_code": "623400"
    },
    {
        "name": "Heishui County",
        "zip_code": "623500"
    },
    {
        "name": "Barkam",
        "zip_code": "624000"
    },
    {
        "name": "Jinchuan County",
        "zip_code": "624100"
    },
    {
        "name": "Xiaojin County",
        "zip_code": "624200"
    },
    {
        "name": "Zamtang County",
        "zip_code": "624300"
    },
    {
        "name": "Hongyuan County",
        "zip_code": "624400"
    },
    {
        "name": "Zoigê County",
        "zip_code": "624500"
    },
    {
        "name": "Ngawa County",
        "zip_code": "624600"
    },
    {
        "name": "Luding County",
        "zip_code": "626100"
    },
    {
        "name": "Jiulong County",
        "zip_code": "626200"
    },
    {
        "name": "Danba County",
        "zip_code": "626300"
    },
    {
        "name": "Dawu County",
        "zip_code": "626400"
    },
    {
        "name": "Luhuo County",
        "zip_code": "626500"
    },
    {
        "name": "Sêrtar County",
        "zip_code": "626600"
    },
    {
        "name": "Garzê County",
        "zip_code": "626700"
    },
    {
        "name": "Xinlong County",
        "zip_code": "626800"
    },
    {
        "name": "Baiyü County",
        "zip_code": "627100"
    },
    {
        "name": "Dêgê County",
        "zip_code": "627200"
    },
    {
        "name": "Sêrxü County",
        "zip_code": "627300"
    },
    {
        "name": "Yajiang County",
        "zip_code": "627400"
    },
    {
        "name": "Litang County",
        "zip_code": "627500"
    },
    {
        "name": "Batang County",
        "zip_code": "627600"
    },
    {
        "name": "Xiangcheng County",
        "zip_code": "627700"
    },
    {
        "name": "Daocheng County",
        "zip_code": "627800"
    },
    {
        "name": "Dêrong County",
        "zip_code": "627900"
    },
    {
        "name": "Huili County",
        "zip_code": "615100"
    },
    {
        "name": "Huidong County",
        "zip_code": "615200"
    },
    {
        "name": "Puge County",
        "zip_code": "615300"
    },
    {
        "name": "Ningnan County",
        "zip_code": "615400"
    },
    {
        "name": "Dechang County",
        "zip_code": "615500"
    },
    {
        "name": "Mianning County",
        "zip_code": "615600"
    },
    {
        "name": "Yanyuan County",
        "zip_code": "615700"
    },
    {
        "name": "Muli Tibetan Autonomous County",
        "zip_code": "615800"
    },
    {
        "name": "Zhaojue County",
        "zip_code": "616100"
    },
    {
        "name": "Jinyang County",
        "zip_code": "616200"
    },
    {
        "name": "Butuo County",
        "zip_code": "616300"
    },
    {
        "name": "Meigu County",
        "zip_code": "616400"
    },
    {
        "name": "Leibo County",
        "zip_code": "616500"
    },
    {
        "name": "Yuexi County",
        "zip_code": "616600"
    },
    {
        "name": "Xide County",
        "zip_code": "616700"
    },
    {
        "name": "Ganluo County",
        "zip_code": "616800"
    },
    {
        "name": "Chengdu",
        "zip_code": "610000"
    },
    {
        "name": "Leshan",
        "zip_code": "614000"
    },
    {
        "name": "Liangshan Yi Autonomous Prefecture",
        "zip_code": "615000"
    },
    {
        "name": "Panzhihua",
        "zip_code": "617000"
    },
    {
        "name": "Mianyang",
        "zip_code": "621000"
    },
    {
        "name": "Ya'an",
        "zip_code": "625000"
    },
    {
        "name": "Garzê Tibetan Autonomous Prefecture",
        "zip_code": "626000"
    },
    {
        "name": "Guangyuan",
        "zip_code": "628000"
    },
    {
        "name": "Dazhou",
        "zip_code": "635000"
    },
    {
        "name": "Zigong",
        "zip_code": "643000"
    },
    {
        "name": "Luzhou",
        "zip_code": "646000"
    },
    {
        "name": "Chongqing Urban",
        "zip_code": "400000"
    },
    {
        "name": "Yubei District",
        "zip_code": "401100"
    },
    {
        "name": "Changshou District",
        "zip_code": "401200"
    },
    {
        "name": "Banan District",
        "zip_code": "401300"
    },
    {
        "name": "Qijiang District",
        "zip_code": "401400"
    },
    {
        "name": "Hechuan District",
        "zip_code": "401500"
    },
    {
        "name": "Yongchuan District",
        "zip_code": "402100"
    },
    {
        "name": "Jiangjin District",
        "zip_code": "402200"
    },
    {
        "name": "Dazu District",
        "zip_code": "402300"
    },
    {
        "name": "Rongchang District",
        "zip_code": "402400"
    },
    {
        "name": "Tongliang District",
        "zip_code": "402500"
    },
    {
        "name": "Tongnan District",
        "zip_code": "402600"
    },
    {
        "name": "Bishan District",
        "zip_code": "402700"
    },
    {
        "name": "Wanzhou District",
        "zip_code": "404000"
    },
    {
        "name": "Zhong County",
        "zip_code": "404300"
    },
    {
        "name": "Yunyang County",
        "zip_code": "404500"
    },
    {
        "name": "Fengjie County",
        "zip_code": "404600"
    },
    {
        "name": "Wushan County",
        "zip_code": "404700"
    },
    {
        "name": "Liangping County",
        "zip_code": "405200"
    },
    {
        "name": "Kai County",
        "zip_code": "405400"
    },
    {
        "name": "Wuxi County",
        "zip_code": "405800"
    },
    {
        "name": "Chengkou County",
        "zip_code": "405900"
    },
    {
        "name": "Fuling District",
        "zip_code": "408000"
    },
    {
        "name": "Dianjiang County",
        "zip_code": "408300"
    },
    {
        "name": "Nanchuan District",
        "zip_code": "408400"
    },
    {
        "name": "Wulong County",
        "zip_code": "408500"
    },
    {
        "name": "Shizhu Tujia Autonomous County",
        "zip_code": "409100"
    },
    {
        "name": "Pengshui Miao and Tujia Autonomous County",
        "zip_code": "409600"
    },
    {
        "name": "Qianjiang District",
        "zip_code": "409700"
    },
    {
        "name": "Youyang Tujia and Miao Autonomous County",
        "zip_code": "409800"
    },
    {
        "name": "Xiushan Tujia and Miao Autonomous County",
        "zip_code": "409900"
    }
]