[
    {
        "name": "Cayenne",
        "zip_code": "97300"
    },
    {
        "name": "Kourou",
        "zip_code": "97310"
    },
    {
        "name": "Roura",
        "zip_code": "97311"
    },
    {
        "name": "Saint-Élie",
        "zip_code": "97312"
    },
    {
        "name": "Saint-Georges",
        "zip_code": "97313"
    },
    {
        "name": "Saül",
        "zip_code": "97314"
    },
    {
        "name": "Sinnamary",
        "zip_code": "97315"
    },
    {
        "name": "Papaïchton",
        "zip_code": "97316"
    },
    {
        "name": "Apatou",
        "zip_code": "97317"
    },
    {
        "name": "Mana",
        "zip_code": "97318"
    },
    {
        "name": "Awala-Yalimapo",
        "zip_code": "97319"
    },
    {
        "name": "Saint-Laurent-du-Maroni",
        "zip_code": "97320"
    },
    {
        "name": "Camopi",
        "zip_code": "97330"
    },
    {
        "name": "Grand-Santi",
        "zip_code": "97340"
    },
    {
        "name": "Iracoubo",
        "zip_code": "97350"
    },
    {
        "name": "Matoury",
        "zip_code": "97351"
    },
    {
        "name": "Roura",
        "zip_code": "97352"
    },
    {
        "name": "Régina",
        "zip_code": "97353"
    },
    {
        "name": "Rémire-Montjoly",
        "zip_code": "97354"
    },
    {
        "name": "Macouria",
        "zip_code": "97355"
    },
    {
        "name": "Montsinéry-Tonnegrande",
        "zip_code": "97356"
    },
    {
        "name": "Mana",
        "zip_code": "97360"
    },
    {
        "name": "Maripasoula",
        "zip_code": "97370"
    },
    {
        "name": "Ouanary",
        "zip_code": "97380"
    },
    {
        "name": "Régina",
        "zip_code": "97390"
    }
]