[
    {
        "name": "Hagatna",
        "zip_code": "96910"
    },
    {
        "name": "Tamuning",
        "zip_code": "96911"
    },
    {
        "name": "Dededo",
        "zip_code": "96912"
    },
    {
        "name": "Barrigada",
        "zip_code": "96913"
    },
    {
        "name": "Yona",
        "zip_code": "96914"
    },
    {
        "name": "Santa Rita",
        "zip_code": "96915"
    },
    {
        "name": "Merizo",
        "zip_code": "96916"
    },
    {
        "name": "Inarajan",
        "zip_code": "96917"
    },
    {
        "name": "Umatac",
        "zip_code": "96918"
    },
    {
        "name": "Agana Heights",
        "zip_code": "96919"
    },
    {
        "name": "Barrigada",
        "zip_code": "96921"
    },
    {
        "name": "Asan",
        "zip_code": "96922"
    },
    {
        "name": "Mangilao",
        "zip_code": "96923"
    },
    {
        "name": "Piti",
        "zip_code": "96925"
    },
    {
        "name": "Sinajana",
        "zip_code": "96926"
    },
    {
        "name": "Mongmong",
        "zip_code": "96927"
    },
    {
        "name": "Agat",
        "zip_code": "96928"
    },
    {
        "name": "Yigo",
        "zip_code": "96929"
    },
    {
        "name": "Talofofo",
        "zip_code": "96930"
    },
    {
        "name": "Tamuning",
        "zip_code": "96931"
    },
    {
        "name": "Hagatna",
        "zip_code": "96932"
    }
]