[
    {
        "name": "Reykjavík -",
        "zip_code": "101"
    },
    {
        "name": "Reykjavík -",
        "zip_code": "103"
    },
    {
        "name": "Reykjavík -",
        "zip_code": "104"
    },
    {
        "name": "Reykjavík -",
        "zip_code": "105"
    },
    {
        "name": "Reykjavík -",
        "zip_code": "107"
    },
    {
        "name": "Reykjavík -",
        "zip_code": "108"
    },
    {
        "name": "Reykjavík -",
        "zip_code": "109"
    },
    {
        "name": "Reykjavík -",
        "zip_code": "110"
    },
    {
        "name": "Reykjavík -",
        "zip_code": "111"
    },
    {
        "name": "Reykjavík -",
        "zip_code": "112"
    },
    {
        "name": "Reykjavík -",
        "zip_code": "113"
    },
    {
        "name": "Kjalarnesi",
        "zip_code": "116"
    },
    {
        "name": "Reykjavík -",
        "zip_code": "121"
    },
    {
        "name": "Reykjavík -",
        "zip_code": "123"
    },
    {
        "name": "Reykjavík -",
        "zip_code": "124"
    },
    {
        "name": "Reykjavík -",
        "zip_code": "125"
    },
    {
        "name": "Reykjavík -",
        "zip_code": "127"
    },
    {
        "name": "Reykjavík -",
        "zip_code": "128"
    },
    {
        "name": "Reykjavík -",
        "zip_code": "129"
    },
    {
        "name": "Reykjavík -",
        "zip_code": "130"
    },
    {
        "name": "Reykjavík -",
        "zip_code": "132"
    },
    {
        "name": "Reykjavík",
        "zip_code": "150"
    },
    {
        "name": "Reykjavík",
        "zip_code": "155"
    },
    {
        "name": "Seltjarnarnesi",
        "zip_code": "170"
    },
    {
        "name": "Seltjarnarnesi",
        "zip_code": "172"
    },
    {
        "name": "Vogum",
        "zip_code": "190"
    },
    {
        "name": "Kópavogi",
        "zip_code": "200"
    },
    {
        "name": "Kópavogi",
        "zip_code": "201"
    },
    {
        "name": "Kópavogi",
        "zip_code": "202"
    },
    {
        "name": "Kópavogi",
        "zip_code": "203"
    },
    {
        "name": "Garðabæ",
        "zip_code": "210"
    },
    {
        "name": "Garðabæ",
        "zip_code": "212"
    },
    {
        "name": "Hafnarfirði",
        "zip_code": "220"
    },
    {
        "name": "Hafnarfirði",
        "zip_code": "221"
    },
    {
        "name": "Hafnarfirði",
        "zip_code": "222"
    },
    {
        "name": "Álftanesi",
        "zip_code": "225"
    },
    {
        "name": "Reykjanesbæ",
        "zip_code": "230"
    },
    {
        "name": "Reykjanesbæ",
        "zip_code": "232"
    },
    {
        "name": "Reykjanesbæ",
        "zip_code": "233"
    },
    {
        "name": "Keflavíkurflugvelli",
        "zip_code": "235"
    },
    {
        "name": "Grindavík",
        "zip_code": "240"
    },
    {
        "name": "Sandgerði",
        "zip_code": "245"
    },
    {
        "name": "Garði",
        "zip_code": "250"
    },
    {
        "name": "Reykjanesbæ",
        "zip_code": "260"
    },
    {
        "name": "Mosfellsbæ",
        "zip_code": "270"
    },
    {
        "name": "Mosfellsbæ",
        "zip_code": "271"
    },
    {
        "name": "Mosfellsbæ",
        "zip_code": "276"
    },
    {
        "name": "Akranesi",
        "zip_code": "300"
    },
    {
        "name": "Akranesi",
        "zip_code": "301"
    },
    {
        "name": "Akranesi",
        "zip_code": "302"
    },
    {
        "name": "Borgarnesi",
        "zip_code": "310"
    },
    {
        "name": "Borgarnesi",
        "zip_code": "311"
    },
    {
        "name": "Reykholt í Borgarfirði",
        "zip_code": "320"
    },
    {
        "name": "Stykkishólmi",
        "zip_code": "340"
    },
    {
        "name": "Flatey á Breiðafirði",
        "zip_code": "345"
    },
    {
        "name": "Grundarfirði",
        "zip_code": "350"
    },
    {
        "name": "Ólafsvík",
        "zip_code": "355"
    },
    {
        "name": "Snæfellsbæ",
        "zip_code": "356"
    },
    {
        "name": "Hellissandi",
        "zip_code": "360"
    },
    {
        "name": "Búðardal",
        "zip_code": "370"
    },
    {
        "name": "Búðardal",
        "zip_code": "371"
    },
    {
        "name": "Reykhólahreppi",
        "zip_code": "380"
    },
    {
        "name": "Ísafirði",
        "zip_code": "400"
    },
    {
        "name": "Ísafirði",
        "zip_code": "401"
    },
    {
        "name": "Hnífsdal",
        "zip_code": "410"
    },
    {
        "name": "Bolungarvík",
        "zip_code": "415"
    },
    {
        "name": "Súðavík",
        "zip_code": "420"
    },
    {
        "name": "Flateyri",
        "zip_code": "425"
    },
    {
        "name": "Suðureyri",
        "zip_code": "430"
    },
    {
        "name": "Patreksfirði",
        "zip_code": "450"
    },
    {
        "name": "Patreksfirði",
        "zip_code": "451"
    },
    {
        "name": "Tálknafirði",
        "zip_code": "460"
    },
    {
        "name": "Bíldudal",
        "zip_code": "465"
    },
    {
        "name": "Þingeyri",
        "zip_code": "470"
    },
    {
        "name": "Þingeyri",
        "zip_code": "471"
    },
    {
        "name": "Stað",
        "zip_code": "500"
    },
    {
        "name": "Hólmavík",
        "zip_code": "510"
    },
    {
        "name": "Hólmavík",
        "zip_code": "512"
    },
    {
        "name": "Drangsnesi",
        "zip_code": "520"
    },
    {
        "name": "Norðurfirði",
        "zip_code": "524"
    },
    {
        "name": "Hvammstanga",
        "zip_code": "530"
    },
    {
        "name": "Hvammstanga",
        "zip_code": "531"
    },
    {
        "name": "Blönduósi",
        "zip_code": "540"
    },
    {
        "name": "Blönduósi",
        "zip_code": "541"
    },
    {
        "name": "Skagaströnd",
        "zip_code": "545"
    },
    {
        "name": "Sauðárkróki",
        "zip_code": "550"
    },
    {
        "name": "Sauðárkróki",
        "zip_code": "551"
    },
    {
        "name": "Varmahlíð",
        "zip_code": "560"
    },
    {
        "name": "Hofsós",
        "zip_code": "565"
    },
    {
        "name": "Hofsós",
        "zip_code": "566"
    },
    {
        "name": "Fljótum",
        "zip_code": "570"
    },
    {
        "name": "Siglufirði",
        "zip_code": "580"
    },
    {
        "name": "Akureyri",
        "zip_code": "600"
    },
    {
        "name": "Akureyri",
        "zip_code": "601"
    },
    {
        "name": "Akureyri",
        "zip_code": "602"
    },
    {
        "name": "Akureyri",
        "zip_code": "603"
    },
    {
        "name": "Grenivík",
        "zip_code": "610"
    },
    {
        "name": "Grímsey",
        "zip_code": "611"
    },
    {
        "name": "Dalvík",
        "zip_code": "620"
    },
    {
        "name": "Dalvík",
        "zip_code": "621"
    },
    {
        "name": "Ólafsfirði",
        "zip_code": "625"
    },
    {
        "name": "Hrísey",
        "zip_code": "630"
    },
    {
        "name": "Húsavík",
        "zip_code": "640"
    },
    {
        "name": "Húsavík",
        "zip_code": "641"
    },
    {
        "name": "Fosshólli",
        "zip_code": "645"
    },
    {
        "name": "Laugum",
        "zip_code": "650"
    },
    {
        "name": "Mývatni",
        "zip_code": "660"
    },
    {
        "name": "Kópaskeri",
        "zip_code": "670"
    },
    {
        "name": "Kópaskeri",
        "zip_code": "671"
    },
    {
        "name": "Raufarhöfn",
        "zip_code": "675"
    },
    {
        "name": "Þórshöfn",
        "zip_code": "680"
    },
    {
        "name": "Þórshöfn",
        "zip_code": "681"
    },
    {
        "name": "Bakkafirði",
        "zip_code": "685"
    },
    {
        "name": "Vopnafirði",
        "zip_code": "690"
    },
    {
        "name": "Egilsstöðum",
        "zip_code": "700"
    },
    {
        "name": "Egilsstöðum",
        "zip_code": "701"
    },
    {
        "name": "Seyðisfirði",
        "zip_code": "710"
    },
    {
        "name": "Mjóafirði",
        "zip_code": "715"
    },
    {
        "name": "Borgarfirði (eystri)",
        "zip_code": "720"
    },
    {
        "name": "Reyðarfirði",
        "zip_code": "730"
    },
    {
        "name": "Eskifirði",
        "zip_code": "735"
    },
    {
        "name": "Neskaupstað",
        "zip_code": "740"
    },
    {
        "name": "Fáskrúðsfirði",
        "zip_code": "750"
    },
    {
        "name": "Stöðvarfirði",
        "zip_code": "755"
    },
    {
        "name": "Breiðdalsvík",
        "zip_code": "760"
    },
    {
        "name": "Djúpavogi",
        "zip_code": "765"
    },
    {
        "name": "Höfn í Hornafirði",
        "zip_code": "780"
    },
    {
        "name": "Höfn í Hornafirði",
        "zip_code": "781"
    },
    {
        "name": "Öræfum",
        "zip_code": "785"
    },
    {
        "name": "Selfossi",
        "zip_code": "800"
    },
    {
        "name": "Selfossi",
        "zip_code": "801"
    },
    {
        "name": "Selfossi",
        "zip_code": "802"
    },
    {
        "name": "Hveragerði",
        "zip_code": "810"
    },
    {
        "name": "Þorlákshöfn",
        "zip_code": "815"
    },
    {
        "name": "Eyrarbakka",
        "zip_code": "820"
    },
    {
        "name": "Stokkseyri",
        "zip_code": "825"
    },
    {
        "name": "Laugarvatni",
        "zip_code": "840"
    },
    {
        "name": "Flúðum",
        "zip_code": "845"
    },
    {
        "name": "Hellu",
        "zip_code": "850"
    },
    {
        "name": "Hellu",
        "zip_code": "851"
    },
    {
        "name": "Hvolsvelli",
        "zip_code": "860"
    },
    {
        "name": "Hvolsvelli",
        "zip_code": "861"
    },
    {
        "name": "Vík",
        "zip_code": "870"
    },
    {
        "name": "Vík",
        "zip_code": "871"
    },
    {
        "name": "Kirkjubæjarklaustri",
        "zip_code": "880"
    },
    {
        "name": "Vestmannaeyjum",
        "zip_code": "900"
    },
    {
        "name": "Vestmannaeyjum",
        "zip_code": "902"
    }
]