[
    {
        "name": "Kandy",
        "zip_code": "20000"
    },
    {
        "name": "Halloluwa",
        "zip_code": "20032"
    },
    {
        "name": "Yatihalagala",
        "zip_code": "20034"
    },
    {
        "name": "lhala Kobbekaduwa",
        "zip_code": "20042"
    },
    {
        "name": "Sangarajapura",
        "zip_code": "20044"
    },
    {
        "name": "Kulugammana",
        "zip_code": "20048"
    },
    {
        "name": "Uduwa",
        "zip_code": "20052"
    },
    {
        "name": "Hataraliyadda",
        "zip_code": "20060"
    },
    {
        "name": "Aludeniya",
        "zip_code": "20062"
    },
    {
        "name": "Dedunupitiya",
        "zip_code": "20068"
    },
    {
        "name": "Nugawela",
        "zip_code": "20072"
    },
    {
        "name": "Werellagama",
        "zip_code": "20080"
    },
    {
        "name": "Pallekotuwa",
        "zip_code": "20084"
    },
    {
        "name": "Kumburegama",
        "zip_code": "20086"
    },
    {
        "name": "Harankahawa",
        "zip_code": "20092"
    },
    {
        "name": "Udahingulwala",
        "zip_code": "20094"
    },
    {
        "name": "Gallellagama",
        "zip_code": "20095"
    },
    {
        "name": "Galagedara",
        "zip_code": "20100"
    },
    {
        "name": "Poholiyadda",
        "zip_code": "20106"
    },
    {
        "name": "Wettawa",
        "zip_code": "20108"
    },
    {
        "name": "Minigamuwa",
        "zip_code": "20109"
    },
    {
        "name": "Pujapitiya",
        "zip_code": "20112"
    },
    {
        "name": "Pattiya Watta",
        "zip_code": "20118"
    },
    {
        "name": "Medawala Harispattuwa",
        "zip_code": "20120"
    },
    {
        "name": "Dolapihilla",
        "zip_code": "20126"
    },
    {
        "name": "Rambukwella",
        "zip_code": "20128"
    },
    {
        "name": "Batugoda",
        "zip_code": "20132"
    },
    {
        "name": "Watagoda Harispattuwa",
        "zip_code": "20134"
    },
    {
        "name": "Ambatenna",
        "zip_code": "20136"
    },
    {
        "name": "Alawatugoda",
        "zip_code": "20140"
    },
    {
        "name": "Wilanagama",
        "zip_code": "20142"
    },
    {
        "name": "Ankumbura",
        "zip_code": "20150"
    },
    {
        "name": "Galhinna",
        "zip_code": "20152"
    },
    {
        "name": "Batagolladeniya",
        "zip_code": "20154"
    },
    {
        "name": "Ampitiya",
        "zip_code": "20160"
    },
    {
        "name": "Uduwela",
        "zip_code": "20164"
    },
    {
        "name": "Tennekumbura",
        "zip_code": "20166"
    },
    {
        "name": "Kundasale",
        "zip_code": "20168"
    },
    {
        "name": "Menikhinna",
        "zip_code": "20170"
    },
    {
        "name": "Lunuketiya Maditta",
        "zip_code": "20172"
    },
    {
        "name": "Naranpanawa",
        "zip_code": "20176"
    },
    {
        "name": "Rajawella",
        "zip_code": "20180"
    },
    {
        "name": "Gomagoda",
        "zip_code": "20184"
    },
    {
        "name": "Kengalla",
        "zip_code": "20186"
    },
    {
        "name": "Gurudeniya",
        "zip_code": "20189"
    },
    {
        "name": "Nattarampotha",
        "zip_code": "20194"
    },
    {
        "name": "Pilawala",
        "zip_code": "20196"
    },
    {
        "name": "Ketawala Leula",
        "zip_code": "20198"
    },
    {
        "name": "Talatuoya",
        "zip_code": "20200"
    },
    {
        "name": "Etulgama",
        "zip_code": "20202"
    },
    {
        "name": "Nugaliyadda",
        "zip_code": "20204"
    },
    {
        "name": "Kapuliyadde",
        "zip_code": "20206"
    },
    {
        "name": "Marassana",
        "zip_code": "20210"
    },
    {
        "name": "Kolabissa",
        "zip_code": "20212"
    },
    {
        "name": "Godamunna",
        "zip_code": "20214"
    },
    {
        "name": "Mahamedagama",
        "zip_code": "20216"
    },
    {
        "name": "Bawlana",
        "zip_code": "20218"
    },
    {
        "name": "Murutalawa",
        "zip_code": "20232"
    },
    {
        "name": "Yahalatenna",
        "zip_code": "20234"
    },
    {
        "name": "Polgolla",
        "zip_code": "20250"
    },
    {
        "name": "Madawala Bazaar",
        "zip_code": "20260"
    },
    {
        "name": "Gunnepana",
        "zip_code": "20270"
    },
    {
        "name": "Kadugannawa",
        "zip_code": "20300"
    },
    {
        "name": "Ketakumbura",
        "zip_code": "20306"
    },
    {
        "name": "Balana",
        "zip_code": "20308"
    },
    {
        "name": "Peradeniya",
        "zip_code": "20400"
    },
    {
        "name": "Uda Peradeniya",
        "zip_code": "20404"
    },
    {
        "name": "Megoda Kalugamuwa",
        "zip_code": "20409"
    },
    {
        "name": "Hindagala",
        "zip_code": "20414"
    },
    {
        "name": "Nillambe",
        "zip_code": "20418"
    },
    {
        "name": "Galaha",
        "zip_code": "20420"
    },
    {
        "name": "Deltota",
        "zip_code": "20430"
    },
    {
        "name": "Handawalapitiya",
        "zip_code": "20438"
    },
    {
        "name": "Hewaheta",
        "zip_code": "20440"
    },
    {
        "name": "Kiribathkumbura",
        "zip_code": "20442"
    },
    {
        "name": "Pilimatalawa",
        "zip_code": "20450"
    },
    {
        "name": "Wattappola",
        "zip_code": "20454"
    },
    {
        "name": "Danture",
        "zip_code": "20465"
    },
    {
        "name": "Menikdiwela",
        "zip_code": "20470"
    },
    {
        "name": "Handessa",
        "zip_code": "20480"
    },
    {
        "name": "Leemagahakotuwa",
        "zip_code": "20482"
    },
    {
        "name": "Gampola",
        "zip_code": "20500"
    },
    {
        "name": "Udahentenna",
        "zip_code": "20506"
    },
    {
        "name": "Dolosbage",
        "zip_code": "20510"
    },
    {
        "name": "Pattitalawa",
        "zip_code": "20511"
    },
    {
        "name": "Meetalawa",
        "zip_code": "20512"
    },
    {
        "name": "Hondiyadeniya",
        "zip_code": "20524"
    },
    {
        "name": "Muruthagahamulla",
        "zip_code": "20526"
    },
    {
        "name": "Doluwa",
        "zip_code": "20532"
    },
    {
        "name": "Panwilatenna",
        "zip_code": "20544"
    },
    {
        "name": "Pupuressa",
        "zip_code": "20546"
    },
    {
        "name": "Ulapane",
        "zip_code": "20562"
    },
    {
        "name": "Mawatura",
        "zip_code": "20564"
    },
    {
        "name": "Atabage",
        "zip_code": "20574"
    },
    {
        "name": "Paradeka",
        "zip_code": "20578"
    },
    {
        "name": "Pussellawa",
        "zip_code": "20580"
    },
    {
        "name": "Weligalla",
        "zip_code": "20610"
    },
    {
        "name": "Gelioya",
        "zip_code": "20620"
    },
    {
        "name": "Velamboda",
        "zip_code": "20640"
    },
    {
        "name": "Bambaragahaela",
        "zip_code": "20644"
    },
    {
        "name": "Nawalapitiya",
        "zip_code": "20650"
    },
    {
        "name": "Pasbage",
        "zip_code": "20654"
    },
    {
        "name": "Gonawalapatana",
        "zip_code": "20656"
    },
    {
        "name": "Dekinda",
        "zip_code": "20658"
    },
    {
        "name": "Mapakanda",
        "zip_code": "20662"
    },
    {
        "name": "Galaboda",
        "zip_code": "20664"
    },
    {
        "name": "Weligampola",
        "zip_code": "20666"
    },
    {
        "name": "Rambukpitiya",
        "zip_code": "20676"
    },
    {
        "name": "Mailapitiya",
        "zip_code": "20702"
    },
    {
        "name": "Unuwinna",
        "zip_code": "20708"
    },
    {
        "name": "Hanguranketha",
        "zip_code": "20710"
    },
    {
        "name": "Gonagantenna",
        "zip_code": "20712"
    },
    {
        "name": "Marymount Colony",
        "zip_code": "20714"
    },
    {
        "name": "Udawatta",
        "zip_code": "20722"
    },
    {
        "name": "lllagolla",
        "zip_code": "20724"
    },
    {
        "name": "Rikillagaskada",
        "zip_code": "20730"
    },
    {
        "name": "Ekiriya",
        "zip_code": "20732"
    },
    {
        "name": "Pallebowala",
        "zip_code": "20734"
    },
    {
        "name": "Karandagolla",
        "zip_code": "20738"
    },
    {
        "name": "Elamulla",
        "zip_code": "20742"
    },
    {
        "name": "Mandaram Nuwara",
        "zip_code": "20744"
    },
    {
        "name": "Maturata",
        "zip_code": "20748"
    },
    {
        "name": "Katugastota",
        "zip_code": "20800"
    },
    {
        "name": "Udatalawinna",
        "zip_code": "20802"
    },
    {
        "name": "Wattegama",
        "zip_code": "20810"
    },
    {
        "name": "Doragamuwa",
        "zip_code": "20816"
    },
    {
        "name": "Rathukohodigala",
        "zip_code": "20818"
    },
    {
        "name": "Jambugahapitiya",
        "zip_code": "20822"
    },
    {
        "name": "Dunuwila",
        "zip_code": "20824"
    },
    {
        "name": "Makkanigama",
        "zip_code": "20828"
    },
    {
        "name": "Panvila",
        "zip_code": "20830"
    },
    {
        "name": "Tawalantenna",
        "zip_code": "20838"
    },
    {
        "name": "Madulkele",
        "zip_code": "20840"
    },
    {
        "name": "Akurana",
        "zip_code": "20850"
    },
    {
        "name": "Teldeniya",
        "zip_code": "20900"
    },
    {
        "name": "Kumbukkandura",
        "zip_code": "20902"
    },
    {
        "name": "Senarathwela",
        "zip_code": "20904"
    },
    {
        "name": "Putuhapuwa",
        "zip_code": "20906"
    },
    {
        "name": "Werapitya",
        "zip_code": "20908"
    },
    {
        "name": "Wendaruwa",
        "zip_code": "20914"
    },
    {
        "name": "Udispattuwa",
        "zip_code": "20916"
    },
    {
        "name": "Makuldeniya",
        "zip_code": "20921"
    },
    {
        "name": "Rangala",
        "zip_code": "20922"
    },
    {
        "name": "Mimure",
        "zip_code": "20923"
    },
    {
        "name": "Kahataliyadda",
        "zip_code": "20924"
    },
    {
        "name": "Kalugala",
        "zip_code": "20926"
    },
    {
        "name": "Kobonila",
        "zip_code": "20928"
    },
    {
        "name": "Bopana",
        "zip_code": "20932"
    },
    {
        "name": "Uduwahinna",
        "zip_code": "20934"
    },
    {
        "name": "Madugalla",
        "zip_code": "20938"
    },
    {
        "name": "Medamahanuwara",
        "zip_code": "20940"
    },
    {
        "name": "Mahadoraliyadda",
        "zip_code": "20945"
    },
    {
        "name": "Hunnasgiriya",
        "zip_code": "20948"
    },
    {
        "name": "Ududumbara",
        "zip_code": "20950"
    },
    {
        "name": "Hasalaka",
        "zip_code": "20960"
    },
    {
        "name": "Ulpothagama",
        "zip_code": "20965"
    },
    {
        "name": "Batumulla",
        "zip_code": "20966"
    },
    {
        "name": "Barawardhana Oya",
        "zip_code": "20967"
    },
    {
        "name": "Kolongoda",
        "zip_code": "20971"
    },
    {
        "name": "Weragantota",
        "zip_code": "20982"
    },
    {
        "name": "Minipe",
        "zip_code": "20983"
    },
    {
        "name": "Handaganawa",
        "zip_code": "20984"
    },
    {
        "name": "Ambagahapelessa",
        "zip_code": "20986"
    },
    {
        "name": "Rantembe",
        "zip_code": "20990"
    },
    {
        "name": "Matale",
        "zip_code": "21000"
    },
    {
        "name": "Alwatta",
        "zip_code": "21004"
    },
    {
        "name": "Udatenna",
        "zip_code": "21006"
    },
    {
        "name": "Leliambe",
        "zip_code": "21008"
    },
    {
        "name": "Wehigala",
        "zip_code": "21009"
    },
    {
        "name": "Elkaduwa",
        "zip_code": "21012"
    },
    {
        "name": "Karagahinna",
        "zip_code": "21014"
    },
    {
        "name": "Katudeniya",
        "zip_code": "21016"
    },
    {
        "name": "Ovilikanda",
        "zip_code": "21020"
    },
    {
        "name": "Dankanda",
        "zip_code": "21032"
    },
    {
        "name": "Kiwula",
        "zip_code": "21042"
    },
    {
        "name": "Muwandeniya",
        "zip_code": "21044"
    },
    {
        "name": "Dunkolawatta",
        "zip_code": "21046"
    },
    {
        "name": "Walawela",
        "zip_code": "21048"
    },
    {
        "name": "Udasgiriya",
        "zip_code": "21051"
    },
    {
        "name": "Dullewa",
        "zip_code": "21054"
    },
    {
        "name": "Melipitiya",
        "zip_code": "21055"
    },
    {
        "name": "Yatawatta",
        "zip_code": "21056"
    },
    {
        "name": "Selagama",
        "zip_code": "21058"
    },
    {
        "name": "Metihakka",
        "zip_code": "21062"
    },
    {
        "name": "Imbulgolla",
        "zip_code": "21064"
    },
    {
        "name": "Kaikawala",
        "zip_code": "21066"
    },
    {
        "name": "Gammaduwa",
        "zip_code": "21068"
    },
    {
        "name": "Palapathwela",
        "zip_code": "21070"
    },
    {
        "name": "Kavudupelella",
        "zip_code": "21072"
    },
    {
        "name": "Madawala Ulpotha",
        "zip_code": "21074"
    },
    {
        "name": "Opalgala",
        "zip_code": "21076"
    },
    {
        "name": "Nalanda",
        "zip_code": "21082"
    },
    {
        "name": "Naula",
        "zip_code": "21090"
    },
    {
        "name": "Lenadora",
        "zip_code": "21094"
    },
    {
        "name": "Dambulla",
        "zip_code": "21100"
    },
    {
        "name": "Kandalama",
        "zip_code": "21106"
    },
    {
        "name": "Erawula Junction",
        "zip_code": "21108"
    },
    {
        "name": "Kalundawa",
        "zip_code": "21112"
    },
    {
        "name": "Wewalawewa",
        "zip_code": "21114"
    },
    {
        "name": "Talakiriyagama",
        "zip_code": "21116"
    },
    {
        "name": "Sigiriya",
        "zip_code": "21120"
    },
    {
        "name": "Kibissa",
        "zip_code": "21122"
    },
    {
        "name": "Inamaluwa",
        "zip_code": "21124"
    },
    {
        "name": "Mahawela",
        "zip_code": "21140"
    },
    {
        "name": "Akuramboda",
        "zip_code": "21142"
    },
    {
        "name": "Mananwatta",
        "zip_code": "21144"
    },
    {
        "name": "Pallepola",
        "zip_code": "21152"
    },
    {
        "name": "Millawana",
        "zip_code": "21154"
    },
    {
        "name": "Madipola",
        "zip_code": "21156"
    },
    {
        "name": "Wahacotte",
        "zip_code": "21160"
    },
    {
        "name": "Galewela",
        "zip_code": "21200"
    },
    {
        "name": "Dewahuwa",
        "zip_code": "21206"
    },
    {
        "name": "Bambaragaswewa",
        "zip_code": "21212"
    },
    {
        "name": "Beligamuwa",
        "zip_code": "21214"
    },
    {
        "name": "Ukuwela",
        "zip_code": "21300"
    },
    {
        "name": "Rattota",
        "zip_code": "21400"
    },
    {
        "name": "Etanawala",
        "zip_code": "21402"
    },
    {
        "name": "Gangala Puwakpitiya",
        "zip_code": "21404"
    },
    {
        "name": "lllukkumbura",
        "zip_code": "21406"
    },
    {
        "name": "Welangahawatte",
        "zip_code": "21408"
    },
    {
        "name": "Kongahawela",
        "zip_code": "21500"
    },
    {
        "name": "Pubbiliya",
        "zip_code": "21502"
    },
    {
        "name": "Ambana",
        "zip_code": "21504"
    },
    {
        "name": "Talagoda Junction",
        "zip_code": "21506"
    },
    {
        "name": "Ataragallewa",
        "zip_code": "21512"
    },
    {
        "name": "Hattota Amuna",
        "zip_code": "21514"
    },
    {
        "name": "Laggala Pallegama",
        "zip_code": "21520"
    },
    {
        "name": "Ranamuregama",
        "zip_code": "21524"
    },
    {
        "name": "Wilgamuwa",
        "zip_code": "21530"
    },
    {
        "name": "Perakanatta",
        "zip_code": "21532"
    },
    {
        "name": "Nugagolla",
        "zip_code": "21534"
    },
    {
        "name": "Handungamuwa",
        "zip_code": "21536"
    },
    {
        "name": "Dunuwilapitiya",
        "zip_code": "21538"
    },
    {
        "name": "Devagiriya",
        "zip_code": "21552"
    },
    {
        "name": "Maraka",
        "zip_code": "21554"
    },
    {
        "name": "Kotmale",
        "zip_code": "20560"
    },
    {
        "name": "Maswela",
        "zip_code": "20566"
    },
    {
        "name": "Doragala",
        "zip_code": "20567"
    },
    {
        "name": "Nayapana Janapadaya",
        "zip_code": "20568"
    },
    {
        "name": "Katukitula",
        "zip_code": "20588"
    },
    {
        "name": "Ramboda",
        "zip_code": "20590"
    },
    {
        "name": "Labukele",
        "zip_code": "20592"
    },
    {
        "name": "Ketaboola",
        "zip_code": "20660"
    },
    {
        "name": "Hapugastalawa",
        "zip_code": "20668"
    },
    {
        "name": "Harangalagama",
        "zip_code": "20669"
    },
    {
        "name": "Nawathispane",
        "zip_code": "20670"
    },
    {
        "name": "Ambagamuwa Udabulathgama",
        "zip_code": "20678"
    },
    {
        "name": "Ginigathena",
        "zip_code": "20680"
    },
    {
        "name": "Pitawala",
        "zip_code": "20682"
    },
    {
        "name": "Dagampitiya",
        "zip_code": "20684"
    },
    {
        "name": "Ambatalawa",
        "zip_code": "20686"
    },
    {
        "name": "Kelanigama",
        "zip_code": "20688"
    },
    {
        "name": "Padiyapelella",
        "zip_code": "20750"
    },
    {
        "name": "Munwatta",
        "zip_code": "20752"
    },
    {
        "name": "Hatton",
        "zip_code": "22000"
    },
    {
        "name": "Dunukedeniya",
        "zip_code": "22002"
    },
    {
        "name": "Rozella",
        "zip_code": "22008"
    },
    {
        "name": "Watawala",
        "zip_code": "22010"
    },
    {
        "name": "Patana",
        "zip_code": "22012"
    },
    {
        "name": "Wijebahukanda",
        "zip_code": "22018"
    },
    {
        "name": "Maldeniya",
        "zip_code": "22021"
    },
    {
        "name": "Hedunuwewa",
        "zip_code": "22024"
    },
    {
        "name": "Widulipura",
        "zip_code": "22032"
    },
    {
        "name": "Laxapana",
        "zip_code": "22034"
    },
    {
        "name": "Morahenagama",
        "zip_code": "22036"
    },
    {
        "name": "Kottellena",
        "zip_code": "22040"
    },
    {
        "name": "Hangarapitiya",
        "zip_code": "22044"
    },
    {
        "name": "Hitigegama",
        "zip_code": "22046"
    },
    {
        "name": "Dikoya",
        "zip_code": "22050"
    },
    {
        "name": "Norwood",
        "zip_code": "22058"
    },
    {
        "name": "Bogawantalawa",
        "zip_code": "22060"
    },
    {
        "name": "Maskeliya",
        "zip_code": "22070"
    },
    {
        "name": "Nissanka Uyana",
        "zip_code": "22075"
    },
    {
        "name": "Kotagala",
        "zip_code": "22080"
    },
    {
        "name": "Lindula",
        "zip_code": "22090"
    },
    {
        "name": "Agarapathana",
        "zip_code": "22094"
    },
    {
        "name": "Bopattalawa",
        "zip_code": "22095"
    },
    {
        "name": "Dayagama Bazaar",
        "zip_code": "22096"
    },
    {
        "name": "Talawakele",
        "zip_code": "22100"
    },
    {
        "name": "Watagoda",
        "zip_code": "22110"
    },
    {
        "name": "Pundaluoya",
        "zip_code": "22120"
    },
    {
        "name": "Nanuoya",
        "zip_code": "22150"
    },
    {
        "name": "Nuwara Eliya",
        "zip_code": "22200"
    },
    {
        "name": "Santhipura",
        "zip_code": "22202"
    },
    {
        "name": "Haggala",
        "zip_code": "22208"
    },
    {
        "name": "Ruwaneliya",
        "zip_code": "22212"
    },
    {
        "name": "Mipilimana",
        "zip_code": "22214"
    },
    {
        "name": "Ambewela",
        "zip_code": "22216"
    },
    {
        "name": "Kandapola",
        "zip_code": "22220"
    },
    {
        "name": "Gonakele",
        "zip_code": "22226"
    },
    {
        "name": "Halgranoya",
        "zip_code": "22240"
    },
    {
        "name": "Rupaha",
        "zip_code": "22245"
    },
    {
        "name": "Kumbukwela",
        "zip_code": "22246"
    },
    {
        "name": "Udapussallawa",
        "zip_code": "22250"
    },
    {
        "name": "Kurupanawela",
        "zip_code": "22252"
    },
    {
        "name": "Mipanawa",
        "zip_code": "22254"
    },
    {
        "name": "Madulla",
        "zip_code": "22256"
    },
    {
        "name": "Harasbedda",
        "zip_code": "22262"
    },
    {
        "name": "Walapane",
        "zip_code": "22270"
    },
    {
        "name": "Kumbalgamuwa",
        "zip_code": "22272"
    },
    {
        "name": "Keerthi Bandarapura",
        "zip_code": "22274"
    },
    {
        "name": "Nildandahinna",
        "zip_code": "22280"
    },
    {
        "name": "Kalaganwatta",
        "zip_code": "22282"
    },
    {
        "name": "Udamadura",
        "zip_code": "22285"
    },
    {
        "name": "Teripeha",
        "zip_code": "22287"
    },
    {
        "name": "Anuradhapura",
        "zip_code": "50000"
    },
    {
        "name": "Perimiyankulama",
        "zip_code": "50004"
    },
    {
        "name": "Galkadawala",
        "zip_code": "50006"
    },
    {
        "name": "Saliyapura",
        "zip_code": "50008"
    },
    {
        "name": "Viharapalugama",
        "zip_code": "50012"
    },
    {
        "name": "Elayapattuwa",
        "zip_code": "50014"
    },
    {
        "name": "Tantirimale",
        "zip_code": "50016"
    },
    {
        "name": "Pemaduwa",
        "zip_code": "50020"
    },
    {
        "name": "Mahawilachchiya",
        "zip_code": "50022"
    },
    {
        "name": "Pandulagama",
        "zip_code": "50029"
    },
    {
        "name": "Gnanikulama",
        "zip_code": "50036"
    },
    {
        "name": "Sravasthipura",
        "zip_code": "50042"
    },
    {
        "name": "Hidogama",
        "zip_code": "50044"
    },
    {
        "name": "Nachchaduwa",
        "zip_code": "50046"
    },
    {
        "name": "Parasangahawewa",
        "zip_code": "50055"
    },
    {
        "name": "Gambirigaswewa",
        "zip_code": "50057"
    },
    {
        "name": "Kurundankulama",
        "zip_code": "50062"
    },
    {
        "name": "Galkulama",
        "zip_code": "50064"
    },
    {
        "name": "Uttimaduwa",
        "zip_code": "50067"
    },
    {
        "name": "Sivalakulama",
        "zip_code": "50068"
    },
    {
        "name": "Tirappane",
        "zip_code": "50072"
    },
    {
        "name": "Maradankadawala",
        "zip_code": "50080"
    },
    {
        "name": "Walagambahuwa",
        "zip_code": "50086"
    },
    {
        "name": "Labunoruwa",
        "zip_code": "50088"
    },
    {
        "name": "Kekirawa",
        "zip_code": "50100"
    },
    {
        "name": "Tammennawa",
        "zip_code": "50104"
    },
    {
        "name": "Vijithapura",
        "zip_code": "50110"
    },
    {
        "name": "Palagala",
        "zip_code": "50111"
    },
    {
        "name": "Andiyagala",
        "zip_code": "50112"
    },
    {
        "name": "Galkiriyagama",
        "zip_code": "50120"
    },
    {
        "name": "Pubbogama",
        "zip_code": "50122"
    },
    {
        "name": "Halmillawa Dambulla",
        "zip_code": "50124"
    },
    {
        "name": "Maha Elagamuwa",
        "zip_code": "50126"
    },
    {
        "name": "Madatugama",
        "zip_code": "50130"
    },
    {
        "name": "Kitulhitiyawa",
        "zip_code": "50132"
    },
    {
        "name": "Ganewalpola",
        "zip_code": "50142"
    },
    {
        "name": "Palugaswewa",
        "zip_code": "50144"
    },
    {
        "name": "Habarana",
        "zip_code": "50150"
    },
    {
        "name": "Awukana",
        "zip_code": "50169"
    },
    {
        "name": "Galnewa",
        "zip_code": "50170"
    },
    {
        "name": "Kalankuttiya",
        "zip_code": "50174"
    },
    {
        "name": "Hurigaswewa",
        "zip_code": "50176"
    },
    {
        "name": "Negampaha",
        "zip_code": "50180"
    },
    {
        "name": "Maneruwa",
        "zip_code": "50182"
    },
    {
        "name": "Siyambalewa",
        "zip_code": "50184"
    },
    {
        "name": "Mahabulankulama",
        "zip_code": "50196"
    },
    {
        "name": "Nochchiyagama",
        "zip_code": "50200"
    },
    {
        "name": "Pahala Halmillewa",
        "zip_code": "50206"
    },
    {
        "name": "Udunuwara Colony",
        "zip_code": "50207"
    },
    {
        "name": "Galadivulwewa",
        "zip_code": "50210"
    },
    {
        "name": "Ranorawa",
        "zip_code": "50212"
    },
    {
        "name": "Dunumadalawa",
        "zip_code": "50214"
    },
    {
        "name": "Pahala Maragahawe",
        "zip_code": "50220"
    },
    {
        "name": "Horiwila",
        "zip_code": "50222"
    },
    {
        "name": "Gemunupura",
        "zip_code": "50224"
    },
    {
        "name": "Kalaoya",
        "zip_code": "50226"
    },
    {
        "name": "Talawa",
        "zip_code": "50230"
    },
    {
        "name": "Karagahawewa",
        "zip_code": "50232"
    },
    {
        "name": "Malwanagama",
        "zip_code": "50236"
    },
    {
        "name": "Tambuttegama",
        "zip_code": "50240"
    },
    {
        "name": "Telhiriyawa",
        "zip_code": "50242"
    },
    {
        "name": "Pahalagama",
        "zip_code": "50244"
    },
    {
        "name": "Rajanganaya",
        "zip_code": "50246"
    },
    {
        "name": "Angamuwa",
        "zip_code": "50248"
    },
    {
        "name": "Kiralogama",
        "zip_code": "50259"
    },
    {
        "name": "Eppawala",
        "zip_code": "50260"
    },
    {
        "name": "Katiyawa",
        "zip_code": "50261"
    },
    {
        "name": "lhala Halmillewa",
        "zip_code": "50262"
    },
    {
        "name": "Mahailluppallama",
        "zip_code": "50270"
    },
    {
        "name": "lpologama",
        "zip_code": "50280"
    },
    {
        "name": "Kagama",
        "zip_code": "50282"
    },
    {
        "name": "Senapura",
        "zip_code": "50284"
    },
    {
        "name": "Kalakarambewa",
        "zip_code": "50288"
    },
    {
        "name": "Mihintale",
        "zip_code": "50300"
    },
    {
        "name": "lhalagama",
        "zip_code": "50304"
    },
    {
        "name": "Mahakanadarawa",
        "zip_code": "50306"
    },
    {
        "name": "Maradankalla",
        "zip_code": "50308"
    },
    {
        "name": "Kahatagasdigiliya",
        "zip_code": "50320"
    },
    {
        "name": "Mulkiriyawa",
        "zip_code": "50324"
    },
    {
        "name": "Parakumpura",
        "zip_code": "50326"
    },
    {
        "name": "Mahapothana",
        "zip_code": "50327"
    },
    {
        "name": "Megodawewa",
        "zip_code": "50334"
    },
    {
        "name": "Padikaramaduwa",
        "zip_code": "50338"
    },
    {
        "name": "Namalpura",
        "zip_code": "50339"
    },
    {
        "name": "Muriyakadawala",
        "zip_code": "50344"
    },
    {
        "name": "Morakewa",
        "zip_code": "50349"
    },
    {
        "name": "Horawpatana",
        "zip_code": "50350"
    },
    {
        "name": "Parangiyawadiya",
        "zip_code": "50354"
    },
    {
        "name": "Dematawewa",
        "zip_code": "50356"
    },
    {
        "name": "Welimuwapotana",
        "zip_code": "50358"
    },
    {
        "name": "Kapugallawa",
        "zip_code": "50370"
    },
    {
        "name": "Seeppukulama",
        "zip_code": "50380"
    },
    {
        "name": "Upuldeniya",
        "zip_code": "50382"
    },
    {
        "name": "Mailagaswewa",
        "zip_code": "50384"
    },
    {
        "name": "Rampathwila",
        "zip_code": "50386"
    },
    {
        "name": "Galenbindunuwewa",
        "zip_code": "50390"
    },
    {
        "name": "Getalawa",
        "zip_code": "50392"
    },
    {
        "name": "Dutuwewa",
        "zip_code": "50393"
    },
    {
        "name": "Hurulunikawewa",
        "zip_code": "50394"
    },
    {
        "name": "Pandukabayapura",
        "zip_code": "50448"
    },
    {
        "name": "Rambewa",
        "zip_code": "50450"
    },
    {
        "name": "Kendewa",
        "zip_code": "50452"
    },
    {
        "name": "Kallanchiya",
        "zip_code": "50454"
    },
    {
        "name": "Wahamalgollewa",
        "zip_code": "50492"
    },
    {
        "name": "Kebithigollewa",
        "zip_code": "50500"
    },
    {
        "name": "Medawachchiya",
        "zip_code": "50500"
    },
    {
        "name": "Punewa",
        "zip_code": "50506"
    },
    {
        "name": "Kirigalwewa",
        "zip_code": "50511"
    },
    {
        "name": "Pihimbiyagolewa",
        "zip_code": "50512"
    },
    {
        "name": "Rathmalgahawewa",
        "zip_code": "50514"
    },
    {
        "name": "Walahaviddawewa",
        "zip_code": "50516"
    },
    {
        "name": "Etaweeragollewa",
        "zip_code": "50518"
    },
    {
        "name": "Halmillawetiya",
        "zip_code": "50552"
    },
    {
        "name": "Gonahaddenawa",
        "zip_code": "50554"
    },
    {
        "name": "Kalawedi Ulpotha",
        "zip_code": "50556"
    },
    {
        "name": "Tittagonewa",
        "zip_code": "50558"
    },
    {
        "name": "Kahatagollewa",
        "zip_code": "50562"
    },
    {
        "name": "Wahalkada",
        "zip_code": "50564"
    },
    {
        "name": "Bogahawewa",
        "zip_code": "50566"
    },
    {
        "name": "Pulmoddai",
        "zip_code": "50567"
    },
    {
        "name": "Padaviya",
        "zip_code": "50570"
    },
    {
        "name": "Padavi Maithripura",
        "zip_code": "50572"
    },
    {
        "name": "Mahasenpura",
        "zip_code": "50574"
    },
    {
        "name": "Padavi Parakramapura",
        "zip_code": "50582"
    },
    {
        "name": "Etawatunuwewa",
        "zip_code": "50584"
    },
    {
        "name": "Welioya Project",
        "zip_code": "50586"
    },
    {
        "name": "Padavi Sripura",
        "zip_code": "50587"
    },
    {
        "name": "Padavi Sritissapura",
        "zip_code": "50588"
    },
    {
        "name": "Polonnaruwa",
        "zip_code": "51000"
    },
    {
        "name": "Kalingaela",
        "zip_code": "51002"
    },
    {
        "name": "Onegama",
        "zip_code": "51004"
    },
    {
        "name": "Lakshauyana",
        "zip_code": "51006"
    },
    {
        "name": "Unagalavehera",
        "zip_code": "51008"
    },
    {
        "name": "Alutwewa",
        "zip_code": "51014"
    },
    {
        "name": "Parakramasamudraya",
        "zip_code": "51016"
    },
    {
        "name": "Jayanthipura",
        "zip_code": "51024"
    },
    {
        "name": "Giritale",
        "zip_code": "51026"
    },
    {
        "name": "Dimbulagala",
        "zip_code": "51031"
    },
    {
        "name": "Kashyapapura",
        "zip_code": "51032"
    },
    {
        "name": "Pelatiyawa",
        "zip_code": "51033"
    },
    {
        "name": "Ellewewa",
        "zip_code": "51034"
    },
    {
        "name": "Kalukele Badanagala",
        "zip_code": "51037"
    },
    {
        "name": "Nuwaragala",
        "zip_code": "51039"
    },
    {
        "name": "Wijayabapura",
        "zip_code": "51042"
    },
    {
        "name": "Talpotha",
        "zip_code": "51044"
    },
    {
        "name": "Palugasdamana",
        "zip_code": "51046"
    },
    {
        "name": "Tambala",
        "zip_code": "51049"
    },
    {
        "name": "Pulastigama",
        "zip_code": "51050"
    },
    {
        "name": "Sungavila",
        "zip_code": "51052"
    },
    {
        "name": "Sevanapitiya",
        "zip_code": "51062"
    },
    {
        "name": "Mutugala",
        "zip_code": "51064"
    },
    {
        "name": "Nawasenapura",
        "zip_code": "51066"
    },
    {
        "name": "Welikanda",
        "zip_code": "51070"
    },
    {
        "name": "Aselapura",
        "zip_code": "51072"
    },
    {
        "name": "Mahawela Sinhapura",
        "zip_code": "51076"
    },
    {
        "name": "Tamankaduwa",
        "zip_code": "51089"
    },
    {
        "name": "Mampitiya",
        "zip_code": "51090"
    },
    {
        "name": "Dalukana",
        "zip_code": "51092"
    },
    {
        "name": "Dewagala",
        "zip_code": "51094"
    },
    {
        "name": "Nelumwewa",
        "zip_code": "51096"
    },
    {
        "name": "Hansayapalama",
        "zip_code": "51098"
    },
    {
        "name": "Aralaganwila",
        "zip_code": "51100"
    },
    {
        "name": "Pimburattewa",
        "zip_code": "51102"
    },
    {
        "name": "Divuldamana",
        "zip_code": "51104"
    },
    {
        "name": "Damminna",
        "zip_code": "51106"
    },
    {
        "name": "Maduruoya",
        "zip_code": "51108"
    },
    {
        "name": "Diyabeduma",
        "zip_code": "51225"
    },
    {
        "name": "Attanakadawala",
        "zip_code": "51235"
    },
    {
        "name": "Kottapitiya",
        "zip_code": "51244"
    },
    {
        "name": "Jayasiripura",
        "zip_code": "51246"
    },
    {
        "name": "Bakamuna",
        "zip_code": "51250"
    },
    {
        "name": "Orubendi Siyambalawa",
        "zip_code": "51256"
    },
    {
        "name": "Elahera",
        "zip_code": "51258"
    },
    {
        "name": "Galoya Junction",
        "zip_code": "51375"
    },
    {
        "name": "Sinhagama",
        "zip_code": "51378"
    },
    {
        "name": "Hingurakgoda",
        "zip_code": "51400"
    },
    {
        "name": "Hingurakdamana",
        "zip_code": "51408"
    },
    {
        "name": "Minneriya",
        "zip_code": "51410"
    },
    {
        "name": "Kumaragama",
        "zip_code": "51412"
    },
    {
        "name": "Kawudulla",
        "zip_code": "51414"
    },
    {
        "name": "Galamuna",
        "zip_code": "51416"
    },
    {
        "name": "Yodaela",
        "zip_code": "51422"
    },
    {
        "name": "Yudaganawa",
        "zip_code": "51424"
    },
    {
        "name": "Divulankadawala",
        "zip_code": "51428"
    },
    {
        "name": "Medirigiriya",
        "zip_code": "51500"
    },
    {
        "name": "Diyasenpura",
        "zip_code": "51504"
    },
    {
        "name": "Mahatalakolawewa",
        "zip_code": "51506"
    },
    {
        "name": "Meegaswewa",
        "zip_code": "51508"
    },
    {
        "name": "Kawuduluwewa Stagell",
        "zip_code": "51514"
    },
    {
        "name": "Maha Ambagaswewa",
        "zip_code": "51518"
    },
    {
        "name": "Kurunegala",
        "zip_code": "60000"
    },
    {
        "name": "Kudagalgamuwa",
        "zip_code": "60003"
    },
    {
        "name": "Minhettiya",
        "zip_code": "60004"
    },
    {
        "name": "Doratiyawa",
        "zip_code": "60013"
    },
    {
        "name": "Indulgodakanda",
        "zip_code": "60016"
    },
    {
        "name": "Demataluwa",
        "zip_code": "60024"
    },
    {
        "name": "Ithanawatta",
        "zip_code": "60025"
    },
    {
        "name": "Boyagane",
        "zip_code": "60027"
    },
    {
        "name": "Kohilagedara",
        "zip_code": "60028"
    },
    {
        "name": "Kosgolla",
        "zip_code": "60029"
    },
    {
        "name": "Hindagolla",
        "zip_code": "60034"
    },
    {
        "name": "Ambakote",
        "zip_code": "60036"
    },
    {
        "name": "Morathiha",
        "zip_code": "60038"
    },
    {
        "name": "Ridigama",
        "zip_code": "60040"
    },
    {
        "name": "Delwite",
        "zip_code": "60044"
    },
    {
        "name": "Iriyagolla",
        "zip_code": "60045"
    },
    {
        "name": "Alawatuwala",
        "zip_code": "60047"
    },
    {
        "name": "Panagamuwa",
        "zip_code": "60052"
    },
    {
        "name": "Pihimbuwa",
        "zip_code": "60053"
    },
    {
        "name": "Kanadeniyawala",
        "zip_code": "60054"
    },
    {
        "name": "Pilessa",
        "zip_code": "60058"
    },
    {
        "name": "Mawathagama",
        "zip_code": "60060"
    },
    {
        "name": "Kahapathwala",
        "zip_code": "60062"
    },
    {
        "name": "Inguruwatta",
        "zip_code": "60064"
    },
    {
        "name": "Meetanwala",
        "zip_code": "60066"
    },
    {
        "name": "Puswelitenna",
        "zip_code": "60072"
    },
    {
        "name": "Anhandiya",
        "zip_code": "60074"
    },
    {
        "name": "Buluwala",
        "zip_code": "60076"
    },
    {
        "name": "Weuda",
        "zip_code": "60080"
    },
    {
        "name": "Uhumiya",
        "zip_code": "60094"
    },
    {
        "name": "Kalugamuwa",
        "zip_code": "60096"
    },
    {
        "name": "Narammala",
        "zip_code": "60100"
    },
    {
        "name": "Karagahagedara",
        "zip_code": "60106"
    },
    {
        "name": "Bogamulla",
        "zip_code": "60107"
    },
    {
        "name": "Lonahettiya",
        "zip_code": "60108"
    },
    {
        "name": "Pahamune",
        "zip_code": "60112"
    },
    {
        "name": "Metiyagane",
        "zip_code": "60121"
    },
    {
        "name": "Muruthenge",
        "zip_code": "60122"
    },
    {
        "name": "Dambadeniya",
        "zip_code": "60130"
    },
    {
        "name": "Ihala Katugampala",
        "zip_code": "60135"
    },
    {
        "name": "Giriulla",
        "zip_code": "60140"
    },
    {
        "name": "Narangoda",
        "zip_code": "60152"
    },
    {
        "name": "Bopitiya",
        "zip_code": "60155"
    },
    {
        "name": "Elibichchiya",
        "zip_code": "60156"
    },
    {
        "name": "Pannala",
        "zip_code": "60160"
    },
    {
        "name": "Labbala",
        "zip_code": "60162"
    },
    {
        "name": "Gonawila",
        "zip_code": "60170"
    },
    {
        "name": "Daraluwa",
        "zip_code": "60174"
    },
    {
        "name": "Sandalankawa",
        "zip_code": "60176"
    },
    {
        "name": "Horambawa",
        "zip_code": "60181"
    },
    {
        "name": "Alahitiyawa",
        "zip_code": "60182"
    },
    {
        "name": "Kekunagolla",
        "zip_code": "60183"
    },
    {
        "name": "Kirimetiyawa",
        "zip_code": "60184"
    },
    {
        "name": "Nakkawatta",
        "zip_code": "60186"
    },
    {
        "name": "Kithalawa",
        "zip_code": "60188"
    },
    {
        "name": "Wewagama",
        "zip_code": "60195"
    },
    {
        "name": "Walakumburumulla",
        "zip_code": "60198"
    },
    {
        "name": "Kuliyapitiya",
        "zip_code": "60200"
    },
    {
        "name": "Yakwila",
        "zip_code": "60202"
    },
    {
        "name": "Wadumunnegedara",
        "zip_code": "60204"
    },
    {
        "name": "Welpalla",
        "zip_code": "60206"
    },
    {
        "name": "Thalahitimulla",
        "zip_code": "60208"
    },
    {
        "name": "Madakumburumulla",
        "zip_code": "60209"
    },
    {
        "name": "Ihala Gomugomuwa",
        "zip_code": "60211"
    },
    {
        "name": "Kirindawa",
        "zip_code": "60212"
    },
    {
        "name": "Anukkane",
        "zip_code": "60214"
    },
    {
        "name": "Munamaldeniya",
        "zip_code": "60218"
    },
    {
        "name": "Magulagama",
        "zip_code": "60221"
    },
    {
        "name": "Nagollagoda",
        "zip_code": "60226"
    },
    {
        "name": "Tharana Udawela",
        "zip_code": "60227"
    },
    {
        "name": "Deegalla",
        "zip_code": "60228"
    },
    {
        "name": "llukhena",
        "zip_code": "60232"
    },
    {
        "name": "Padiwela",
        "zip_code": "60236"
    },
    {
        "name": "lhala Kadigamuwa",
        "zip_code": "60238"
    },
    {
        "name": "Welipennagahamulla",
        "zip_code": "60240"
    },
    {
        "name": "Udubaddawa",
        "zip_code": "60250"
    },
    {
        "name": "Dummalasuriya",
        "zip_code": "60260"
    },
    {
        "name": "Watuwatta",
        "zip_code": "60262"
    },
    {
        "name": "Etungahakotuwa",
        "zip_code": "60266"
    },
    {
        "name": "Alawwa",
        "zip_code": "60280"
    },
    {
        "name": "Wennoruwa",
        "zip_code": "60284"
    },
    {
        "name": "Maharachchimulla",
        "zip_code": "60286"
    },
    {
        "name": "Keppitiwalana",
        "zip_code": "60288"
    },
    {
        "name": "Bujjomuwa",
        "zip_code": "60291"
    },
    {
        "name": "Nawatalwatta",
        "zip_code": "60292"
    },
    {
        "name": "Polgahawela",
        "zip_code": "60300"
    },
    {
        "name": "Metikumbura",
        "zip_code": "60304"
    },
    {
        "name": "Talawattegedara",
        "zip_code": "60306"
    },
    {
        "name": "Aragoda",
        "zip_code": "60308"
    },
    {
        "name": "Panaliya",
        "zip_code": "60312"
    },
    {
        "name": "Yatigaloluwa",
        "zip_code": "60314"
    },
    {
        "name": "Wadakada",
        "zip_code": "60318"
    },
    {
        "name": "Pothuhera",
        "zip_code": "60330"
    },
    {
        "name": "Maspotha",
        "zip_code": "60344"
    },
    {
        "name": "Bamunukotuwa",
        "zip_code": "60347"
    },
    {
        "name": "Panadaragama",
        "zip_code": "60348"
    },
    {
        "name": "Katupota",
        "zip_code": "60350"
    },
    {
        "name": "Moragane",
        "zip_code": "60354"
    },
    {
        "name": "Kosdeniya",
        "zip_code": "60356"
    },
    {
        "name": "Wariyapola",
        "zip_code": "60400"
    },
    {
        "name": "Wellagala",
        "zip_code": "60402"
    },
    {
        "name": "Malagane",
        "zip_code": "60404"
    },
    {
        "name": "Minuwangete",
        "zip_code": "60406"
    },
    {
        "name": "Mirihanagama",
        "zip_code": "60408"
    },
    {
        "name": "Kobeigane",
        "zip_code": "60410"
    },
    {
        "name": "Hengamuwa",
        "zip_code": "60414"
    },
    {
        "name": "Alahengama",
        "zip_code": "60416"
    },
    {
        "name": "Kanattewewa",
        "zip_code": "60422"
    },
    {
        "name": "Bandara Koswatta",
        "zip_code": "60424"
    },
    {
        "name": "Tuttiripitigama",
        "zip_code": "60426"
    },
    {
        "name": "Hettipola",
        "zip_code": "60430"
    },
    {
        "name": "Mandapola",
        "zip_code": "60434"
    },
    {
        "name": "Sunandapura",
        "zip_code": "60436"
    },
    {
        "name": "Boraluwewa",
        "zip_code": "60437"
    },
    {
        "name": "Kuratihena",
        "zip_code": "60438"
    },
    {
        "name": "Pihimbiya Ratmale",
        "zip_code": "60439"
    },
    {
        "name": "Halmillawewa",
        "zip_code": "60441"
    },
    {
        "name": "Bingiriya",
        "zip_code": "60450"
    },
    {
        "name": "Tisogama",
        "zip_code": "60453"
    },
    {
        "name": "Weerapokuna",
        "zip_code": "60454"
    },
    {
        "name": "Wellarawa",
        "zip_code": "60456"
    },
    {
        "name": "Hiruwalpola",
        "zip_code": "60458"
    },
    {
        "name": "Padeniya",
        "zip_code": "60461"
    },
    {
        "name": "Awulegama",
        "zip_code": "60462"
    },
    {
        "name": "Welawa Juncton",
        "zip_code": "60464"
    },
    {
        "name": "Wannigama",
        "zip_code": "60465"
    },
    {
        "name": "Nikaweratiya",
        "zip_code": "60470"
    },
    {
        "name": "Divullegoda",
        "zip_code": "60472"
    },
    {
        "name": "Hulogedara",
        "zip_code": "60474"
    },
    {
        "name": "Thimbiriyawa",
        "zip_code": "60476"
    },
    {
        "name": "Hulugalla",
        "zip_code": "60477"
    },
    {
        "name": "Sirisetagama",
        "zip_code": "60478"
    },
    {
        "name": "Mahagirilla",
        "zip_code": "60479"
    },
    {
        "name": "Nabadewa",
        "zip_code": "60482"
    },
    {
        "name": "Kotawehera",
        "zip_code": "60483"
    },
    {
        "name": "Meewellawa",
        "zip_code": "60484"
    },
    {
        "name": "Digannewa",
        "zip_code": "60485"
    },
    {
        "name": "Hilogama",
        "zip_code": "60486"
    },
    {
        "name": "Wannirasnayakapura",
        "zip_code": "60490"
    },
    {
        "name": "Kadigawa",
        "zip_code": "60492"
    },
    {
        "name": "Monnekulama",
        "zip_code": "60495"
    },
    {
        "name": "Torayaya",
        "zip_code": "60499"
    },
    {
        "name": "lbbagamuwa",
        "zip_code": "60500"
    },
    {
        "name": "Kirindigalla",
        "zip_code": "60502"
    },
    {
        "name": "Kumbukwewa",
        "zip_code": "60506"
    },
    {
        "name": "Kumbukgeta",
        "zip_code": "60508"
    },
    {
        "name": "Maeliya",
        "zip_code": "60512"
    },
    {
        "name": "Makulpotha",
        "zip_code": "60514"
    },
    {
        "name": "Mahamukalanyaya",
        "zip_code": "60516"
    },
    {
        "name": "Periyakadneluwa",
        "zip_code": "60518"
    },
    {
        "name": "Gokaralla",
        "zip_code": "60522"
    },
    {
        "name": "Dodangaslanda",
        "zip_code": "60530"
    },
    {
        "name": "Maduragoda",
        "zip_code": "60532"
    },
    {
        "name": "Melsiripura",
        "zip_code": "60540"
    },
    {
        "name": "Diddeniya",
        "zip_code": "60544"
    },
    {
        "name": "Hiriyala Lenawa",
        "zip_code": "60546"
    },
    {
        "name": "Kimbulwanaoya",
        "zip_code": "60548"
    },
    {
        "name": "Nelliya",
        "zip_code": "60549"
    },
    {
        "name": "Madahapola",
        "zip_code": "60552"
    },
    {
        "name": "Pansiyagama",
        "zip_code": "60554"
    },
    {
        "name": "Panliyadda",
        "zip_code": "60558"
    },
    {
        "name": "Wellawa",
        "zip_code": "60570"
    },
    {
        "name": "Thalwita",
        "zip_code": "60572"
    },
    {
        "name": "Makulwewa",
        "zip_code": "60578"
    },
    {
        "name": "Nikadalupotha",
        "zip_code": "60580"
    },
    {
        "name": "Hunupola",
        "zip_code": "60582"
    },
    {
        "name": "Thambagalla",
        "zip_code": "60584"
    },
    {
        "name": "Nagollagama",
        "zip_code": "60590"
    },
    {
        "name": "Maho",
        "zip_code": "60600"
    },
    {
        "name": "Karambe",
        "zip_code": "60602"
    },
    {
        "name": "Balalla",
        "zip_code": "60604"
    },
    {
        "name": "Ridibendiella",
        "zip_code": "60606"
    },
    {
        "name": "Medivawa",
        "zip_code": "60612"
    },
    {
        "name": "Polpitigama",
        "zip_code": "60620"
    },
    {
        "name": "Ulpotha Pallekele",
        "zip_code": "60622"
    },
    {
        "name": "Thalakolawewa",
        "zip_code": "60624"
    },
    {
        "name": "Konwewa",
        "zip_code": "60630"
    },
    {
        "name": "Moragollagama",
        "zip_code": "60640"
    },
    {
        "name": "Siyambalangamuwa",
        "zip_code": "60646"
    },
    {
        "name": "Ambanpola",
        "zip_code": "60650"
    },
    {
        "name": "Galgamuwa",
        "zip_code": "60700"
    },
    {
        "name": "Palukadawala",
        "zip_code": "60704"
    },
    {
        "name": "Ataragalla",
        "zip_code": "60706"
    },
    {
        "name": "Gallewa",
        "zip_code": "60712"
    },
    {
        "name": "Makulewa",
        "zip_code": "60714"
    },
    {
        "name": "Ehetuwewa",
        "zip_code": "60716"
    },
    {
        "name": "Embogama",
        "zip_code": "60718"
    },
    {
        "name": "Wannikudawewa",
        "zip_code": "60721"
    },
    {
        "name": "Wannilhalagama",
        "zip_code": "60722"
    },
    {
        "name": "Mahananneriya",
        "zip_code": "60724"
    },
    {
        "name": "Mahagalkadawala",
        "zip_code": "60731"
    },
    {
        "name": "Usgala Siyabmalangamuwa",
        "zip_code": "60732"
    },
    {
        "name": "Tambutta",
        "zip_code": "60734"
    },
    {
        "name": "Pahalagiribawa",
        "zip_code": "60735"
    },
    {
        "name": "Saliya Asokapura",
        "zip_code": "60736"
    },
    {
        "name": "Solepura",
        "zip_code": "60737"
    },
    {
        "name": "Solewewa",
        "zip_code": "60738"
    },
    {
        "name": "Warawewa",
        "zip_code": "60739"
    },
    {
        "name": "Meegalawa",
        "zip_code": "60750"
    },
    {
        "name": "Girathalana",
        "zip_code": "60752"
    },
    {
        "name": "Kudakatnoruwa",
        "zip_code": "60754"
    },
    {
        "name": "Chilaw",
        "zip_code": "61000"
    },
    {
        "name": "Udappuwa",
        "zip_code": "61004"
    },
    {
        "name": "Wijeyakatupotha",
        "zip_code": "61006"
    },
    {
        "name": "Wilpotha",
        "zip_code": "61008"
    },
    {
        "name": "Adippala",
        "zip_code": "61012"
    },
    {
        "name": "Mugunuwatawana",
        "zip_code": "61014"
    },
    {
        "name": "Ilippadeniya",
        "zip_code": "61018"
    },
    {
        "name": "Karawitagara",
        "zip_code": "61022"
    },
    {
        "name": "Ambakandawila",
        "zip_code": "61024"
    },
    {
        "name": "Kumarakattuwa",
        "zip_code": "61032"
    },
    {
        "name": "Pallama",
        "zip_code": "61040"
    },
    {
        "name": "Serukele",
        "zip_code": "61042"
    },
    {
        "name": "Waikkal",
        "zip_code": "61110"
    },
    {
        "name": "Nainamadama",
        "zip_code": "61120"
    },
    {
        "name": "Dankotuwa",
        "zip_code": "61130"
    },
    {
        "name": "Bujjampola",
        "zip_code": "61136"
    },
    {
        "name": "Lihiriyagama",
        "zip_code": "61138"
    },
    {
        "name": "Yogiyana",
        "zip_code": "61144"
    },
    {
        "name": "Lunuwila",
        "zip_code": "61150"
    },
    {
        "name": "Ihala Kottaramulla",
        "zip_code": "61154"
    },
    {
        "name": "Koswatta",
        "zip_code": "61158"
    },
    {
        "name": "Pothuwatawana",
        "zip_code": "61162"
    },
    {
        "name": "Wennappuwa",
        "zip_code": "61170"
    },
    {
        "name": "Katuneriya",
        "zip_code": "61180"
    },
    {
        "name": "Nattandiya",
        "zip_code": "61190"
    },
    {
        "name": "Dunkannawa",
        "zip_code": "61192"
    },
    {
        "name": "Muttibendiwila",
        "zip_code": "61195"
    },
    {
        "name": "Watugahamulla",
        "zip_code": "61198"
    },
    {
        "name": "Marawila",
        "zip_code": "61210"
    },
    {
        "name": "Mahawewa",
        "zip_code": "61220"
    },
    {
        "name": "Toduwawa",
        "zip_code": "61224"
    },
    {
        "name": "Kudawewa",
        "zip_code": "61226"
    },
    {
        "name": "Madampe",
        "zip_code": "61230"
    },
    {
        "name": "Galmuruwa",
        "zip_code": "61233"
    },
    {
        "name": "Panirendawa",
        "zip_code": "61234"
    },
    {
        "name": "Kakkapalliya",
        "zip_code": "61236"
    },
    {
        "name": "Bangadeniya",
        "zip_code": "61238"
    },
    {
        "name": "Rajakadaluwa",
        "zip_code": "61242"
    },
    {
        "name": "Nalladarankattuwa",
        "zip_code": "61244"
    },
    {
        "name": "Battuluoya",
        "zip_code": "61246"
    },
    {
        "name": "Mundel",
        "zip_code": "61250"
    },
    {
        "name": "Kottantivu",
        "zip_code": "61252"
    },
    {
        "name": "Baranankattuwa",
        "zip_code": "61262"
    },
    {
        "name": "Angunawila",
        "zip_code": "61264"
    },
    {
        "name": "Mangalaeliya",
        "zip_code": "61266"
    },
    {
        "name": "Madurankuliya",
        "zip_code": "61270"
    },
    {
        "name": "Mahakumbukkadawala",
        "zip_code": "61272"
    },
    {
        "name": "Mukkutoduwawa",
        "zip_code": "61274"
    },
    {
        "name": "Palaviya",
        "zip_code": "61280"
    },
    {
        "name": "Puttalam",
        "zip_code": "61300"
    },
    {
        "name": "Ismailpuram",
        "zip_code": "61302"
    },
    {
        "name": "Vanathawilluwa",
        "zip_code": "61306"
    },
    {
        "name": "Karativponparappi",
        "zip_code": "61307"
    },
    {
        "name": "Eluwankulama",
        "zip_code": "61308"
    },
    {
        "name": "Sirambiadiya",
        "zip_code": "61312"
    },
    {
        "name": "Karuwalagaswewa",
        "zip_code": "61314"
    },
    {
        "name": "Ihala Puliyankulama",
        "zip_code": "61316"
    },
    {
        "name": "Tabbowa",
        "zip_code": "61322"
    },
    {
        "name": "Saliyawewa Junction",
        "zip_code": "61324"
    },
    {
        "name": "Puttalam Cement Factory",
        "zip_code": "61326"
    },
    {
        "name": "Attawilluwa",
        "zip_code": "61328"
    },
    {
        "name": "Mampuri",
        "zip_code": "61341"
    },
    {
        "name": "Norachcholai",
        "zip_code": "61342"
    },
    {
        "name": "Ettale",
        "zip_code": "61343"
    },
    {
        "name": "Talawila Church",
        "zip_code": "61344"
    },
    {
        "name": "Palliwasalturai",
        "zip_code": "61354"
    },
    {
        "name": "Kurinjanpitiya",
        "zip_code": "61356"
    },
    {
        "name": "Kandakuliya",
        "zip_code": "61358"
    },
    {
        "name": "Kalpitiya",
        "zip_code": "61360"
    },
    {
        "name": "Kirimundalama",
        "zip_code": "61362"
    },
    {
        "name": "Anamaduwa",
        "zip_code": "61500"
    },
    {
        "name": "Uridyawa",
        "zip_code": "61502"
    },
    {
        "name": "Siyambalagashene",
        "zip_code": "61504"
    },
    {
        "name": "Mudalakkuliya",
        "zip_code": "61506"
    },
    {
        "name": "Andigama",
        "zip_code": "61508"
    },
    {
        "name": "Mahauswewa",
        "zip_code": "61512"
    },
    {
        "name": "Inginimitiya",
        "zip_code": "61514"
    },
    {
        "name": "Kuruketiyawa",
        "zip_code": "61516"
    },
    {
        "name": "Nawagattegama",
        "zip_code": "61520"
    },
    {
        "name": "Kottukachchiya",
        "zip_code": "61532"
    },
    {
        "name": "Kalladiya",
        "zip_code": "61534"
    },
    {
        "name": "Kegalle",
        "zip_code": "71000"
    },
    {
        "name": "Deldeniya",
        "zip_code": "71009"
    },
    {
        "name": "Hiriwadunna",
        "zip_code": "71014"
    },
    {
        "name": "Molagoda",
        "zip_code": "71016"
    },
    {
        "name": "Deewala Pallegama",
        "zip_code": "71022"
    },
    {
        "name": "Yattogoda",
        "zip_code": "71029"
    },
    {
        "name": "Damunupola",
        "zip_code": "71034"
    },
    {
        "name": "Watura",
        "zip_code": "71035"
    },
    {
        "name": "Debathgama",
        "zip_code": "71037"
    },
    {
        "name": "Pothukoladeniya",
        "zip_code": "71039"
    },
    {
        "name": "Aruggammana",
        "zip_code": "71041"
    },
    {
        "name": "Beligala(Sab)",
        "zip_code": "71044"
    },
    {
        "name": "Helamada",
        "zip_code": "71046"
    },
    {
        "name": "Dewalegama",
        "zip_code": "71050"
    },
    {
        "name": "Imbulgasdeniya",
        "zip_code": "71055"
    },
    {
        "name": "Nelundeniya",
        "zip_code": "71060"
    },
    {
        "name": "Tuntota",
        "zip_code": "71062"
    },
    {
        "name": "Mahapallegama",
        "zip_code": "71063"
    },
    {
        "name": "Rambukkana",
        "zip_code": "71100"
    },
    {
        "name": "Parape",
        "zip_code": "71105"
    },
    {
        "name": "Thotawella",
        "zip_code": "71106"
    },
    {
        "name": "Hewadiwela",
        "zip_code": "71108"
    },
    {
        "name": "Udagaldeniya",
        "zip_code": "71113"
    },
    {
        "name": "Dombemada",
        "zip_code": "71115"
    },
    {
        "name": "Yatagama",
        "zip_code": "71116"
    },
    {
        "name": "Pattampitiya",
        "zip_code": "71130"
    },
    {
        "name": "Undugoda",
        "zip_code": "71200"
    },
    {
        "name": "Kabagamuwa",
        "zip_code": "71202"
    },
    {
        "name": "Alawatura",
        "zip_code": "71204"
    },
    {
        "name": "Bossella",
        "zip_code": "71208"
    },
    {
        "name": "Hettimulla",
        "zip_code": "71210"
    },
    {
        "name": "Maharangalla",
        "zip_code": "71211"
    },
    {
        "name": "Morontota",
        "zip_code": "71220"
    },
    {
        "name": "Gantuna",
        "zip_code": "71222"
    },
    {
        "name": "Bulathkohupitiya",
        "zip_code": "71230"
    },
    {
        "name": "Ampagala",
        "zip_code": "71232"
    },
    {
        "name": "Wegalla",
        "zip_code": "71234"
    },
    {
        "name": "Udapotha",
        "zip_code": "71236"
    },
    {
        "name": "Dedugala",
        "zip_code": "71237"
    },
    {
        "name": "Ruwanwella",
        "zip_code": "71300"
    },
    {
        "name": "Wahakula",
        "zip_code": "71303"
    },
    {
        "name": "Waharaka",
        "zip_code": "71304"
    },
    {
        "name": "Galpatha(Sab)",
        "zip_code": "71312"
    },
    {
        "name": "Imbulana",
        "zip_code": "71313"
    },
    {
        "name": "Lewangama",
        "zip_code": "71315"
    },
    {
        "name": "Gonagala",
        "zip_code": "71318"
    },
    {
        "name": "Amitirigala",
        "zip_code": "71320"
    },
    {
        "name": "Batuwita",
        "zip_code": "71321"
    },
    {
        "name": "Malmaduwa",
        "zip_code": "71325"
    },
    {
        "name": "Yatapana",
        "zip_code": "71326"
    },
    {
        "name": "Galigamuwa Town",
        "zip_code": "71350"
    },
    {
        "name": "Hakahinna",
        "zip_code": "71352"
    },
    {
        "name": "Pitagaldeniya",
        "zip_code": "71360"
    },
    {
        "name": "Atale",
        "zip_code": "71363"
    },
    {
        "name": "Kotiyakumbura",
        "zip_code": "71370"
    },
    {
        "name": "Kannattota",
        "zip_code": "71372"
    },
    {
        "name": "Dehiowita",
        "zip_code": "71400"
    },
    {
        "name": "Deloluwa",
        "zip_code": "71401"
    },
    {
        "name": "Anhettigama",
        "zip_code": "71403"
    },
    {
        "name": "Noori",
        "zip_code": "71407"
    },
    {
        "name": "Maliboda",
        "zip_code": "71411"
    },
    {
        "name": "Hinguralakanda",
        "zip_code": "71417"
    },
    {
        "name": "Boralankada",
        "zip_code": "71418"
    },
    {
        "name": "Deraniyagala",
        "zip_code": "71430"
    },
    {
        "name": "Miyanawita",
        "zip_code": "71432"
    },
    {
        "name": "Mawanella",
        "zip_code": "71500"
    },
    {
        "name": "Kondeniya",
        "zip_code": "71501"
    },
    {
        "name": "Ambulugala",
        "zip_code": "71503"
    },
    {
        "name": "Galatara",
        "zip_code": "71505"
    },
    {
        "name": "Makehelwala",
        "zip_code": "71507"
    },
    {
        "name": "Alutnuwara",
        "zip_code": "71508"
    },
    {
        "name": "Ussapitiya",
        "zip_code": "71510"
    },
    {
        "name": "Hingula",
        "zip_code": "71520"
    },
    {
        "name": "Udumulla",
        "zip_code": "71521"
    },
    {
        "name": "Dewanagala",
        "zip_code": "71527"
    },
    {
        "name": "Hemmatagama",
        "zip_code": "71530"
    },
    {
        "name": "Kehelpannala",
        "zip_code": "71533"
    },
    {
        "name": "Aranayaka",
        "zip_code": "71540"
    },
    {
        "name": "Talgaspitiya",
        "zip_code": "71541"
    },
    {
        "name": "Ambalakanda",
        "zip_code": "71546"
    },
    {
        "name": "Warakapola",
        "zip_code": "71600"
    },
    {
        "name": "Dorawaka",
        "zip_code": "71601"
    },
    {
        "name": "Niyadurupola",
        "zip_code": "71602"
    },
    {
        "name": "Galapitamada",
        "zip_code": "71603"
    },
    {
        "name": "Dunumala",
        "zip_code": "71605"
    },
    {
        "name": "Algama",
        "zip_code": "71607"
    },
    {
        "name": "Tulhiriya",
        "zip_code": "71610"
    },
    {
        "name": "Bopitiya (SAB)",
        "zip_code": "71612"
    },
    {
        "name": "Tholangamuwa",
        "zip_code": "71619"
    },
    {
        "name": "Weragala",
        "zip_code": "71622"
    },
    {
        "name": "Yatiyantota",
        "zip_code": "71700"
    },
    {
        "name": "Weeoya",
        "zip_code": "71702"
    },
    {
        "name": "Malalpola",
        "zip_code": "71704"
    },
    {
        "name": "Berannawa",
        "zip_code": "71706"
    },
    {
        "name": "Seaforth Colony",
        "zip_code": "71708"
    },
    {
        "name": "Welihelatenna",
        "zip_code": "71712"
    },
    {
        "name": "Hakbellawaka",
        "zip_code": "71715"
    },
    {
        "name": "Migastenna Sabara",
        "zip_code": "71716"
    },
    {
        "name": "Kitulgala",
        "zip_code": "71720"
    },
    {
        "name": "Mahabage",
        "zip_code": "71722"
    },
    {
        "name": "Teligama",
        "zip_code": "71724"
    },
    {
        "name": "Ratnapura",
        "zip_code": "70000"
    },
    {
        "name": "Malwala Junction",
        "zip_code": "70001"
    },
    {
        "name": "Gillimale",
        "zip_code": "70002"
    },
    {
        "name": "Sri Palabaddala",
        "zip_code": "70004"
    },
    {
        "name": "Kudawa",
        "zip_code": "70005"
    },
    {
        "name": "Hidellana",
        "zip_code": "70012"
    },
    {
        "name": "Kahangama",
        "zip_code": "70016"
    },
    {
        "name": "Dodampe",
        "zip_code": "70017"
    },
    {
        "name": "Karangoda",
        "zip_code": "70018"
    },
    {
        "name": "Dambuluwana",
        "zip_code": "70019"
    },
    {
        "name": "Medagalatur",
        "zip_code": "70021"
    },
    {
        "name": "Ayagama",
        "zip_code": "70024"
    },
    {
        "name": "Gawaragiriya",
        "zip_code": "70026"
    },
    {
        "name": "Elapatha",
        "zip_code": "70032"
    },
    {
        "name": "Udaniriella",
        "zip_code": "70034"
    },
    {
        "name": "Ratna Hangamuwa",
        "zip_code": "70036"
    },
    {
        "name": "Niralagama",
        "zip_code": "70038"
    },
    {
        "name": "Marapana",
        "zip_code": "70041"
    },
    {
        "name": "Dela",
        "zip_code": "70042"
    },
    {
        "name": "Udakarawita",
        "zip_code": "70044"
    },
    {
        "name": "Pebotuwa",
        "zip_code": "70045"
    },
    {
        "name": "Delwala",
        "zip_code": "70046"
    },
    {
        "name": "Lellopitiya",
        "zip_code": "70056"
    },
    {
        "name": "Gallella",
        "zip_code": "70062"
    },
    {
        "name": "Wewelwatta",
        "zip_code": "70066"
    },
    {
        "name": "Pelmadulla",
        "zip_code": "70070"
    },
    {
        "name": "Opanayaka",
        "zip_code": "70080"
    },
    {
        "name": "Akarella",
        "zip_code": "70082"
    },
    {
        "name": "Balangoda",
        "zip_code": "70100"
    },
    {
        "name": "Talakolahinna",
        "zip_code": "70101"
    },
    {
        "name": "Weligepola",
        "zip_code": "70104"
    },
    {
        "name": "Hatangala",
        "zip_code": "70105"
    },
    {
        "name": "Handagiriya",
        "zip_code": "70106"
    },
    {
        "name": "Hatarabage",
        "zip_code": "70108"
    },
    {
        "name": "Mahawalatenna",
        "zip_code": "70112"
    },
    {
        "name": "Wikiliya",
        "zip_code": "70114"
    },
    {
        "name": "Rajawaka",
        "zip_code": "70116"
    },
    {
        "name": "Mulgama",
        "zip_code": "70117"
    },
    {
        "name": "Tanjantenna",
        "zip_code": "70118"
    },
    {
        "name": "Kaltota",
        "zip_code": "70122"
    },
    {
        "name": "Welipathayaya",
        "zip_code": "70124"
    },
    {
        "name": "Meddekanda",
        "zip_code": "70127"
    },
    {
        "name": "Morahela",
        "zip_code": "70129"
    },
    {
        "name": "Pinnawala",
        "zip_code": "70130"
    },
    {
        "name": "Bolthumbe",
        "zip_code": "70131"
    },
    {
        "name": "Pambagolla",
        "zip_code": "70133"
    },
    {
        "name": "lmbulpe",
        "zip_code": "70134"
    },
    {
        "name": "Rassagala",
        "zip_code": "70135"
    },
    {
        "name": "Gurubewilagama",
        "zip_code": "70136"
    },
    {
        "name": "Waleboda",
        "zip_code": "70138"
    },
    {
        "name": "Belihuloya",
        "zip_code": "70140"
    },
    {
        "name": "Samanalawewa",
        "zip_code": "70142"
    },
    {
        "name": "Ihalagama",
        "zip_code": "70144"
    },
    {
        "name": "Halpe",
        "zip_code": "70145"
    },
    {
        "name": "Kahawatta",
        "zip_code": "70150"
    },
    {
        "name": "Panapitiya",
        "zip_code": "70152"
    },
    {
        "name": "Udaha Hawupe",
        "zip_code": "70154"
    },
    {
        "name": "Gabbela",
        "zip_code": "70156"
    },
    {
        "name": "Madalagama",
        "zip_code": "70158"
    },
    {
        "name": "Godakawela",
        "zip_code": "70160"
    },
    {
        "name": "Ranwala",
        "zip_code": "70162"
    },
    {
        "name": "Hapugastenna",
        "zip_code": "70164"
    },
    {
        "name": "NawinnaPinnakanda",
        "zip_code": "70165"
    },
    {
        "name": "Pallebedda",
        "zip_code": "70170"
    },
    {
        "name": "Halwinna",
        "zip_code": "70171"
    },
    {
        "name": "Kolambageara",
        "zip_code": "70180"
    },
    {
        "name": "Udawalawe",
        "zip_code": "70190"
    },
    {
        "name": "Gangeyaya",
        "zip_code": "70195"
    },
    {
        "name": "Embilipitiya",
        "zip_code": "70200"
    },
    {
        "name": "Tunkama",
        "zip_code": "70205"
    },
    {
        "name": "Mulendiyawala",
        "zip_code": "70212"
    },
    {
        "name": "Omalpe",
        "zip_code": "70215"
    },
    {
        "name": "Panamura",
        "zip_code": "70218"
    },
    {
        "name": "Padalangala",
        "zip_code": "70230"
    },
    {
        "name": "Atakalanpanna",
        "zip_code": "70294"
    },
    {
        "name": "Hiramadagama",
        "zip_code": "70296"
    },
    {
        "name": "Makandura Sabara",
        "zip_code": "70298"
    },
    {
        "name": "Rakwana",
        "zip_code": "70300"
    },
    {
        "name": "Demuwatha",
        "zip_code": "70332"
    },
    {
        "name": "Pothupitiya",
        "zip_code": "70338"
    },
    {
        "name": "Ittakanda",
        "zip_code": "70342"
    },
    {
        "name": "Bomluwageaina",
        "zip_code": "70344"
    },
    {
        "name": "Ullinduwawa",
        "zip_code": "70345"
    },
    {
        "name": "Bulutota",
        "zip_code": "70346"
    },
    {
        "name": "Vijeriya",
        "zip_code": "70348"
    },
    {
        "name": "Kolonna",
        "zip_code": "70350"
    },
    {
        "name": "Kella Junction",
        "zip_code": "70352"
    },
    {
        "name": "Nivitigala",
        "zip_code": "70400"
    },
    {
        "name": "Kolombugama",
        "zip_code": "70403"
    },
    {
        "name": "Doloswalakanda",
        "zip_code": "70404"
    },
    {
        "name": "Watapotha",
        "zip_code": "70408"
    },
    {
        "name": "Kalawana",
        "zip_code": "70450"
    },
    {
        "name": "Daugala",
        "zip_code": "70455"
    },
    {
        "name": "Waturawa",
        "zip_code": "70456"
    },
    {
        "name": "Veddagala",
        "zip_code": "70459"
    },
    {
        "name": "Panapola",
        "zip_code": "70461"
    },
    {
        "name": "Nawalakanda",
        "zip_code": "70469"
    },
    {
        "name": "Pimbura",
        "zip_code": "70472"
    },
    {
        "name": "Kiriella",
        "zip_code": "70480"
    },
    {
        "name": "Matuwagalagama",
        "zip_code": "70482"
    },
    {
        "name": "Karandana",
        "zip_code": "70488"
    },
    {
        "name": "Ellagawa",
        "zip_code": "70492"
    },
    {
        "name": "Minipura Dumbara",
        "zip_code": "70494"
    },
    {
        "name": "Dumbara Manana",
        "zip_code": "70495"
    },
    {
        "name": "Kuruwita",
        "zip_code": "70500"
    },
    {
        "name": "Sudagala",
        "zip_code": "70502"
    },
    {
        "name": "Batatota",
        "zip_code": "70504"
    },
    {
        "name": "Eratna",
        "zip_code": "70506"
    },
    {
        "name": "Teppanawa",
        "zip_code": "70512"
    },
    {
        "name": "Parakaduwa",
        "zip_code": "70550"
    },
    {
        "name": "Ellaulla",
        "zip_code": "70552"
    },
    {
        "name": "Godagampola",
        "zip_code": "70556"
    },
    {
        "name": "Eheliyagoda",
        "zip_code": "70600"
    },
    {
        "name": "Erepola",
        "zip_code": "70602"
    },
    {
        "name": "Mitipola",
        "zip_code": "70604"
    },
    {
        "name": "Ellawala",
        "zip_code": "70606"
    },
    {
        "name": "Panawala",
        "zip_code": "70612"
    },
    {
        "name": "Getahetta",
        "zip_code": "70620"
    },
    {
        "name": "Galle",
        "zip_code": "80000"
    },
    {
        "name": "Wakwella",
        "zip_code": "80042"
    },
    {
        "name": "Anangoda",
        "zip_code": "80044"
    },
    {
        "name": "Walahanduwa",
        "zip_code": "80046"
    },
    {
        "name": "Ankokkawala",
        "zip_code": "80048"
    },
    {
        "name": "Gonamulla Junction",
        "zip_code": "80054"
    },
    {
        "name": "Hiyare",
        "zip_code": "80056"
    },
    {
        "name": "Talagampola",
        "zip_code": "80058"
    },
    {
        "name": "Kottawagama",
        "zip_code": "80062"
    },
    {
        "name": "Nakiyadeniya",
        "zip_code": "80064"
    },
    {
        "name": "Udugama",
        "zip_code": "80070"
    },
    {
        "name": "Panangala",
        "zip_code": "80075"
    },
    {
        "name": "Hiniduma",
        "zip_code": "80080"
    },
    {
        "name": "Neluwa",
        "zip_code": "80082"
    },
    {
        "name": "Warukandeniya",
        "zip_code": "80084"
    },
    {
        "name": "Pannimulla Panagoda",
        "zip_code": "80086"
    },
    {
        "name": "Akmeemana",
        "zip_code": "80090"
    },
    {
        "name": "Meda-Keembiya",
        "zip_code": "80092"
    },
    {
        "name": "Wanduramba",
        "zip_code": "80100"
    },
    {
        "name": "Yatalamatta",
        "zip_code": "80107"
    },
    {
        "name": "Udalamatta",
        "zip_code": "80108"
    },
    {
        "name": "Nagoda",
        "zip_code": "80110"
    },
    {
        "name": "Mapalagama",
        "zip_code": "80112"
    },
    {
        "name": "Parana ThanaYamgoda",
        "zip_code": "80114"
    },
    {
        "name": "Mapalagama Central",
        "zip_code": "80116"
    },
    {
        "name": "Wanchawela",
        "zip_code": "80120"
    },
    {
        "name": "Angulugaha",
        "zip_code": "80122"
    },
    {
        "name": "lmaduwa",
        "zip_code": "80130"
    },
    {
        "name": "Hawpe",
        "zip_code": "80132"
    },
    {
        "name": "Ihala Walpola",
        "zip_code": "80134"
    },
    {
        "name": "Kananke Bazaar",
        "zip_code": "80136"
    },
    {
        "name": "Opatha",
        "zip_code": "80142"
    },
    {
        "name": "Banagala",
        "zip_code": "80143"
    },
    {
        "name": "Malgalla Talangalla",
        "zip_code": "80144"
    },
    {
        "name": "Halvitigala Colony",
        "zip_code": "80146"
    },
    {
        "name": "Tawalama",
        "zip_code": "80148"
    },
    {
        "name": "Yakkalamulla",
        "zip_code": "80150"
    },
    {
        "name": "Karagoda",
        "zip_code": "80151"
    },
    {
        "name": "Magedara",
        "zip_code": "80152"
    },
    {
        "name": "Uluvitike",
        "zip_code": "80168"
    },
    {
        "name": "Poddala",
        "zip_code": "80170"
    },
    {
        "name": "Baddegama",
        "zip_code": "80200"
    },
    {
        "name": "Ampegama",
        "zip_code": "80204"
    },
    {
        "name": "Agaliya",
        "zip_code": "80212"
    },
    {
        "name": "Unenwitiya",
        "zip_code": "80214"
    },
    {
        "name": "Weihena",
        "zip_code": "80216"
    },
    {
        "name": "Ginimellagaha",
        "zip_code": "80220"
    },
    {
        "name": "Gonapinuwala",
        "zip_code": "80230"
    },
    {
        "name": "Hikkaduwa",
        "zip_code": "80240"
    },
    {
        "name": "Tiranagama",
        "zip_code": "80244"
    },
    {
        "name": "Dodanduwa",
        "zip_code": "80250"
    },
    {
        "name": "Ratgama",
        "zip_code": "80260"
    },
    {
        "name": "Boossa",
        "zip_code": "80270"
    },
    {
        "name": "Gintota",
        "zip_code": "80280"
    },
    {
        "name": "Ambalangoda",
        "zip_code": "80300"
    },
    {
        "name": "Godahena",
        "zip_code": "80302"
    },
    {
        "name": "Kahawa",
        "zip_code": "80312"
    },
    {
        "name": "Nindana",
        "zip_code": "80318"
    },
    {
        "name": "Batapola",
        "zip_code": "80320"
    },
    {
        "name": "Kuleegoda",
        "zip_code": "80328"
    },
    {
        "name": "Meetiyagoda",
        "zip_code": "80330"
    },
    {
        "name": "Aluthwala",
        "zip_code": "80332"
    },
    {
        "name": "Watugedara",
        "zip_code": "80340"
    },
    {
        "name": "Uragasmanhandiya",
        "zip_code": "80350"
    },
    {
        "name": "Uragaha",
        "zip_code": "80352"
    },
    {
        "name": "Rantotuwila",
        "zip_code": "80354"
    },
    {
        "name": "Karandeniya",
        "zip_code": "80360"
    },
    {
        "name": "Elpitiya",
        "zip_code": "80400"
    },
    {
        "name": "Ella Tanabaddegama",
        "zip_code": "80402"
    },
    {
        "name": "Talgaspe",
        "zip_code": "80406"
    },
    {
        "name": "Porawagama",
        "zip_code": "80408"
    },
    {
        "name": "Nawadagala",
        "zip_code": "80416"
    },
    {
        "name": "Pitigala",
        "zip_code": "80420"
    },
    {
        "name": "Amugoda",
        "zip_code": "80422"
    },
    {
        "name": "Mattaka",
        "zip_code": "80424"
    },
    {
        "name": "lhalahewessa",
        "zip_code": "80432"
    },
    {
        "name": "Ganegoda",
        "zip_code": "80440"
    },
    {
        "name": "Ethkandura",
        "zip_code": "80458"
    },
    {
        "name": "Kahaduwa",
        "zip_code": "80460"
    },
    {
        "name": "Talgaswela",
        "zip_code": "80470"
    },
    {
        "name": "Bentota",
        "zip_code": "80500"
    },
    {
        "name": "Gonagalpura",
        "zip_code": "80502"
    },
    {
        "name": "Haburugala",
        "zip_code": "80506"
    },
    {
        "name": "Miriswatta",
        "zip_code": "80508"
    },
    {
        "name": "lnduruwa",
        "zip_code": "80510"
    },
    {
        "name": "Balapitiya",
        "zip_code": "80550"
    },
    {
        "name": "Ahungalla",
        "zip_code": "80562"
    },
    {
        "name": "Kosgoda",
        "zip_code": "80570"
    },
    {
        "name": "Unawatuna",
        "zip_code": "80600"
    },
    {
        "name": "Talpe",
        "zip_code": "80615"
    },
    {
        "name": "Habaraduwa",
        "zip_code": "80630"
    },
    {
        "name": "Ahangama",
        "zip_code": "80650"
    },
    {
        "name": "Dikkumbura",
        "zip_code": "80654"
    },
    {
        "name": "Hambantota",
        "zip_code": "82000"
    },
    {
        "name": "Bundala",
        "zip_code": "82002"
    },
    {
        "name": "Weligatta",
        "zip_code": "82004"
    },
    {
        "name": "Bandagiriya Colony",
        "zip_code": "82005"
    },
    {
        "name": "Gonnoruwa",
        "zip_code": "82006"
    },
    {
        "name": "Pahala Andarawewa",
        "zip_code": "82008"
    },
    {
        "name": "Sooriyawewa Town",
        "zip_code": "82010"
    },
    {
        "name": "Migahajandur",
        "zip_code": "82014"
    },
    {
        "name": "Mahagalwewa",
        "zip_code": "82016"
    },
    {
        "name": "Ranmuduwewa",
        "zip_code": "82018"
    },
    {
        "name": "Ambalantota",
        "zip_code": "82100"
    },
    {
        "name": "Beragama",
        "zip_code": "82102"
    },
    {
        "name": "RU/Ridiyagama",
        "zip_code": "82106"
    },
    {
        "name": "Lunama",
        "zip_code": "82108"
    },
    {
        "name": "Mamadala",
        "zip_code": "82109"
    },
    {
        "name": "Barawakumbuka",
        "zip_code": "82110"
    },
    {
        "name": "Hungama",
        "zip_code": "82120"
    },
    {
        "name": "Ranna",
        "zip_code": "82125"
    },
    {
        "name": "Kahandamodara",
        "zip_code": "82126"
    },
    {
        "name": "Netolpitiya",
        "zip_code": "82135"
    },
    {
        "name": "Tangalla",
        "zip_code": "82200"
    },
    {
        "name": "Angunakolapelessa",
        "zip_code": "82220"
    },
    {
        "name": "Vitharandeniya",
        "zip_code": "82232"
    },
    {
        "name": "Weeraketiya",
        "zip_code": "82240"
    },
    {
        "name": "Mulkirigala",
        "zip_code": "82242"
    },
    {
        "name": "Wekandawela",
        "zip_code": "82246"
    },
    {
        "name": "Hakuruwela",
        "zip_code": "82248"
    },
    {
        "name": "Julampitiya",
        "zip_code": "82252"
    },
    {
        "name": "Medamulana",
        "zip_code": "82254"
    },
    {
        "name": "Middeniya",
        "zip_code": "82270"
    },
    {
        "name": "Kariyamaditta",
        "zip_code": "82274"
    },
    {
        "name": "Ratmalwala",
        "zip_code": "82276"
    },
    {
        "name": "Uswewa",
        "zip_code": "82278"
    },
    {
        "name": "Nakulugamuwa",
        "zip_code": "82300"
    },
    {
        "name": "Beliatta",
        "zip_code": "82400"
    },
    {
        "name": "Goda Koggalla",
        "zip_code": "82401"
    },
    {
        "name": "Ihala Beligalla",
        "zip_code": "82412"
    },
    {
        "name": "Nihiluwa",
        "zip_code": "82414"
    },
    {
        "name": "Modarawana",
        "zip_code": "82416"
    },
    {
        "name": "Yatigala",
        "zip_code": "82418"
    },
    {
        "name": "Getamanna",
        "zip_code": "82420"
    },
    {
        "name": "Walasmulla",
        "zip_code": "82450"
    },
    {
        "name": "Pallekanda",
        "zip_code": "82454"
    },
    {
        "name": "Horewelagoda",
        "zip_code": "82456"
    },
    {
        "name": "Bowalagama",
        "zip_code": "82458"
    },
    {
        "name": "Ittademaliya",
        "zip_code": "82462"
    },
    {
        "name": "Katuwana",
        "zip_code": "82500"
    },
    {
        "name": "Uda Gomadiya",
        "zip_code": "82504"
    },
    {
        "name": "Kirama",
        "zip_code": "82550"
    },
    {
        "name": "Rammalawarapitiya",
        "zip_code": "82554"
    },
    {
        "name": "Gangulandeniya",
        "zip_code": "82586"
    },
    {
        "name": "Tissamaharama",
        "zip_code": "82600"
    },
    {
        "name": "Gonagamuwa Uduwila",
        "zip_code": "82602"
    },
    {
        "name": "Magama",
        "zip_code": "82608"
    },
    {
        "name": "Ranakeliya",
        "zip_code": "82612"
    },
    {
        "name": "Kirinda",
        "zip_code": "82614"
    },
    {
        "name": "Weerawila NewTown",
        "zip_code": "82615"
    },
    {
        "name": "Beralihela",
        "zip_code": "82618"
    },
    {
        "name": "Ellagala",
        "zip_code": "82619"
    },
    {
        "name": "Kawantissapura",
        "zip_code": "82622"
    },
    {
        "name": "Weerawila",
        "zip_code": "82632"
    },
    {
        "name": "Lunugamwehera",
        "zip_code": "82634"
    },
    {
        "name": "Padawkema",
        "zip_code": "82636"
    },
    {
        "name": "Udamattala",
        "zip_code": "82638"
    },
    {
        "name": "Matara",
        "zip_code": "81000"
    },
    {
        "name": "Naimana",
        "zip_code": "81017"
    },
    {
        "name": "Kekanadurra",
        "zip_code": "81020"
    },
    {
        "name": "Ratmale",
        "zip_code": "81030"
    },
    {
        "name": "Aparekka",
        "zip_code": "81032"
    },
    {
        "name": "Yatiyana",
        "zip_code": "81034"
    },
    {
        "name": "Diyagaha",
        "zip_code": "81038"
    },
    {
        "name": "Palatuwa",
        "zip_code": "81050"
    },
    {
        "name": "Sultanagoda",
        "zip_code": "81051"
    },
    {
        "name": "Telijjawila",
        "zip_code": "81060"
    },
    {
        "name": "Ransegoda",
        "zip_code": "81064"
    },
    {
        "name": "Makandura",
        "zip_code": "81070"
    },
    {
        "name": "Mulatiyana Junction",
        "zip_code": "81071"
    },
    {
        "name": "Gomilamawarala",
        "zip_code": "81072"
    },
    {
        "name": "Rotumba",
        "zip_code": "81074"
    },
    {
        "name": "Karagoda Uyangoda",
        "zip_code": "81082"
    },
    {
        "name": "Nadugala",
        "zip_code": "81092"
    },
    {
        "name": "Kamburupitiya",
        "zip_code": "81100"
    },
    {
        "name": "Karaputugala",
        "zip_code": "81106"
    },
    {
        "name": "Horapawita",
        "zip_code": "81108"
    },
    {
        "name": "Devinuwara (Dondra)",
        "zip_code": "81160"
    },
    {
        "name": "Gandara",
        "zip_code": "81170"
    },
    {
        "name": "Kottegoda",
        "zip_code": "81180"
    },
    {
        "name": "Dikwella",
        "zip_code": "81200"
    },
    {
        "name": "Walasgala",
        "zip_code": "81220"
    },
    {
        "name": "Urugamuwa",
        "zip_code": "81230"
    },
    {
        "name": "Thihagoda",
        "zip_code": "81280"
    },
    {
        "name": "Puhulwella",
        "zip_code": "81290"
    },
    {
        "name": "Walakanda",
        "zip_code": "81294"
    },
    {
        "name": "Hakmana",
        "zip_code": "81300"
    },
    {
        "name": "Narawelpita",
        "zip_code": "81302"
    },
    {
        "name": "Miella",
        "zip_code": "81312"
    },
    {
        "name": "Denagama",
        "zip_code": "81314"
    },
    {
        "name": "Radawela",
        "zip_code": "81316"
    },
    {
        "name": "Karatota",
        "zip_code": "81318"
    },
    {
        "name": "Deiyandara",
        "zip_code": "81320"
    },
    {
        "name": "Parapamulla",
        "zip_code": "81322"
    },
    {
        "name": "Handugala",
        "zip_code": "81326"
    },
    {
        "name": "Akuressa",
        "zip_code": "81400"
    },
    {
        "name": "Athuraliya",
        "zip_code": "81402"
    },
    {
        "name": "Wilpita",
        "zip_code": "81404"
    },
    {
        "name": "Godapitiya",
        "zip_code": "81408"
    },
    {
        "name": "Bopagoda",
        "zip_code": "81412"
    },
    {
        "name": "Urumutta",
        "zip_code": "81414"
    },
    {
        "name": "Maramba",
        "zip_code": "81416"
    },
    {
        "name": "Diyalape",
        "zip_code": "81422"
    },
    {
        "name": "Maliduwa",
        "zip_code": "81424"
    },
    {
        "name": "Pitabeddara",
        "zip_code": "81450"
    },
    {
        "name": "Deegala Lenama",
        "zip_code": "81452"
    },
    {
        "name": "Derangala",
        "zip_code": "81454"
    },
    {
        "name": "Kiriwelkele",
        "zip_code": "81456"
    },
    {
        "name": "Siyambalagoda",
        "zip_code": "81462"
    },
    {
        "name": "Morawaka",
        "zip_code": "81470"
    },
    {
        "name": "Pahala Millawa",
        "zip_code": "81472"
    },
    {
        "name": "Paragala",
        "zip_code": "81474"
    },
    {
        "name": "Alapaladeniya",
        "zip_code": "81475"
    },
    {
        "name": "Dellawa",
        "zip_code": "81477"
    },
    {
        "name": "Kalubowitiyana",
        "zip_code": "81478"
    },
    {
        "name": "Waralla",
        "zip_code": "81479"
    },
    {
        "name": "Kotapola",
        "zip_code": "81480"
    },
    {
        "name": "Deniyaya",
        "zip_code": "81500"
    },
    {
        "name": "Viharahena",
        "zip_code": "81508"
    },
    {
        "name": "Kiriweldola",
        "zip_code": "81514"
    },
    {
        "name": "Kolawenigama",
        "zip_code": "81522"
    },
    {
        "name": "Mediripitiya",
        "zip_code": "81524"
    },
    {
        "name": "Lankagama",
        "zip_code": "81526"
    },
    {
        "name": "Moragala Kirillapone",
        "zip_code": "81532"
    },
    {
        "name": "Pothdeniya",
        "zip_code": "81538"
    },
    {
        "name": "Beralapanathara",
        "zip_code": "81541"
    },
    {
        "name": "Urubokka",
        "zip_code": "81600"
    },
    {
        "name": "Dampahala",
        "zip_code": "81612"
    },
    {
        "name": "Bengamuwa",
        "zip_code": "81614"
    },
    {
        "name": "Pasgoda",
        "zip_code": "81615"
    },
    {
        "name": "Weligama",
        "zip_code": "81700"
    },
    {
        "name": "Penetiyana",
        "zip_code": "81722"
    },
    {
        "name": "Denipitiya",
        "zip_code": "81730"
    },
    {
        "name": "Mirissa",
        "zip_code": "81740"
    },
    {
        "name": "Kamburugamuwa",
        "zip_code": "81750"
    },
    {
        "name": "Badulla",
        "zip_code": "90000"
    },
    {
        "name": "Soranatota",
        "zip_code": "90008"
    },
    {
        "name": "Timbirigaspitiya",
        "zip_code": "90012"
    },
    {
        "name": "Egodawela",
        "zip_code": "90013"
    },
    {
        "name": "Taldena",
        "zip_code": "90014"
    },
    {
        "name": "Meegahakiula",
        "zip_code": "90015"
    },
    {
        "name": "Ketawatta",
        "zip_code": "90016"
    },
    {
        "name": "Arawa",
        "zip_code": "90017"
    },
    {
        "name": "Baduluoya",
        "zip_code": "90019"
    },
    {
        "name": "Kandaketya",
        "zip_code": "90020"
    },
    {
        "name": "Maliyadda",
        "zip_code": "90022"
    },
    {
        "name": "Rilpola",
        "zip_code": "90026"
    },
    {
        "name": "Spring Valley",
        "zip_code": "90028"
    },
    {
        "name": "Wineethagama",
        "zip_code": "90034"
    },
    {
        "name": "Nelumgama",
        "zip_code": "90042"
    },
    {
        "name": "Sirimalgoda",
        "zip_code": "90044"
    },
    {
        "name": "Kuttiyagolla",
        "zip_code": "90046"
    },
    {
        "name": "Kendagolla",
        "zip_code": "90048"
    },
    {
        "name": "Kahataruppa",
        "zip_code": "90052"
    },
    {
        "name": "Hali Ela",
        "zip_code": "90060"
    },
    {
        "name": "Uva Uduwara",
        "zip_code": "90061"
    },
    {
        "name": "Uva Deegalla",
        "zip_code": "90062"
    },
    {
        "name": "Jangulla",
        "zip_code": "90063"
    },
    {
        "name": "Narangala",
        "zip_code": "90064"
    },
    {
        "name": "Galauda",
        "zip_code": "90065"
    },
    {
        "name": "Beramada",
        "zip_code": "90066"
    },
    {
        "name": "Godunna",
        "zip_code": "90067"
    },
    {
        "name": "Landewela",
        "zip_code": "90068"
    },
    {
        "name": "Kandegedara",
        "zip_code": "90070"
    },
    {
        "name": "Pathanewatta",
        "zip_code": "90071"
    },
    {
        "name": "Tennepanguwa",
        "zip_code": "90072"
    },
    {
        "name": "Demodara",
        "zip_code": "90080"
    },
    {
        "name": "Gawarawela",
        "zip_code": "90082"
    },
    {
        "name": "Ella",
        "zip_code": "90090"
    },
    {
        "name": "Uva Karandagolla",
        "zip_code": "90091"
    },
    {
        "name": "Ballaketuwa",
        "zip_code": "90092"
    },
    {
        "name": "Helapupula",
        "zip_code": "90094"
    },
    {
        "name": "Bandarawela",
        "zip_code": "90100"
    },
    {
        "name": "Kebillawela",
        "zip_code": "90102"
    },
    {
        "name": "Dulgolla",
        "zip_code": "90104"
    },
    {
        "name": "Liyangahawela",
        "zip_code": "90106"
    },
    {
        "name": "Ambadandegama",
        "zip_code": "90108"
    },
    {
        "name": "Heeloya",
        "zip_code": "90112"
    },
    {
        "name": "Makulella",
        "zip_code": "90114"
    },
    {
        "name": "Helahalpe",
        "zip_code": "90122"
    },
    {
        "name": "Diganatenna",
        "zip_code": "90132"
    },
    {
        "name": "Mirahawatta",
        "zip_code": "90134"
    },
    {
        "name": "Pattiyagedara",
        "zip_code": "90138"
    },
    {
        "name": "Ettampitiya",
        "zip_code": "90140"
    },
    {
        "name": "Diyatalawa",
        "zip_code": "90150"
    },
    {
        "name": "Haputale",
        "zip_code": "90160"
    },
    {
        "name": "Ratkarawwa",
        "zip_code": "90164"
    },
    {
        "name": "Nikapotha",
        "zip_code": "90165"
    },
    {
        "name": "Akkarasiyaya",
        "zip_code": "90166"
    },
    {
        "name": "Ohiya",
        "zip_code": "90168"
    },
    {
        "name": "Boralanda",
        "zip_code": "90170"
    },
    {
        "name": "Pitapola",
        "zip_code": "90171"
    },
    {
        "name": "Haldummulla",
        "zip_code": "90180"
    },
    {
        "name": "Soragune",
        "zip_code": "90183"
    },
    {
        "name": "Kiriwanagama",
        "zip_code": "90184"
    },
    {
        "name": "Kalupahana",
        "zip_code": "90186"
    },
    {
        "name": "Uva Tenna",
        "zip_code": "90188"
    },
    {
        "name": "Koslanda",
        "zip_code": "90190"
    },
    {
        "name": "Uva Mawelagama",
        "zip_code": "90192"
    },
    {
        "name": "Welimada",
        "zip_code": "90200"
    },
    {
        "name": "Amunumulla",
        "zip_code": "90204"
    },
    {
        "name": "Galedanda",
        "zip_code": "90206"
    },
    {
        "name": "Gurutalawa",
        "zip_code": "90208"
    },
    {
        "name": "Puhulpola",
        "zip_code": "90212"
    },
    {
        "name": "Dikkapitiya",
        "zip_code": "90214"
    },
    {
        "name": "Nugatalawa",
        "zip_code": "90216"
    },
    {
        "name": "Medawela Udukinda",
        "zip_code": "90218"
    },
    {
        "name": "Perawella",
        "zip_code": "90222"
    },
    {
        "name": "Hangunnawa",
        "zip_code": "90224"
    },
    {
        "name": "Uduhawara",
        "zip_code": "90226"
    },
    {
        "name": "Uvaparanagama",
        "zip_code": "90230"
    },
    {
        "name": "Ambagasdowa",
        "zip_code": "90300"
    },
    {
        "name": "Bowela",
        "zip_code": "90302"
    },
    {
        "name": "Lunuwatta",
        "zip_code": "90310"
    },
    {
        "name": "Bambarapana",
        "zip_code": "90322"
    },
    {
        "name": "Dimbulana",
        "zip_code": "90324"
    },
    {
        "name": "Ambagahawatta",
        "zip_code": "90326"
    },
    {
        "name": "Maspanna",
        "zip_code": "90328"
    },
    {
        "name": "Yalagamuwa",
        "zip_code": "90329"
    },
    {
        "name": "Keppetipola",
        "zip_code": "90350"
    },
    {
        "name": "Kalubululanda",
        "zip_code": "90352"
    },
    {
        "name": "Bogahakumbura",
        "zip_code": "90354"
    },
    {
        "name": "Kandepuhulpola",
        "zip_code": "90356"
    },
    {
        "name": "Hewanakumbura",
        "zip_code": "90358"
    },
    {
        "name": "Boragas",
        "zip_code": "90362"
    },
    {
        "name": "Silmiyapura",
        "zip_code": "90364"
    },
    {
        "name": "Passara",
        "zip_code": "90500"
    },
    {
        "name": "Bibilegama",
        "zip_code": "90502"
    },
    {
        "name": "Miriyabedda",
        "zip_code": "90504"
    },
    {
        "name": "Kotamuduna",
        "zip_code": "90506"
    },
    {
        "name": "Hingurukaduwa",
        "zip_code": "90508"
    },
    {
        "name": "Gamewela",
        "zip_code": "90512"
    },
    {
        "name": "Medawelagama",
        "zip_code": "90518"
    },
    {
        "name": "Pelagahatenna",
        "zip_code": "90522"
    },
    {
        "name": "Hopton",
        "zip_code": "90524"
    },
    {
        "name": "Lunugala",
        "zip_code": "90530"
    },
    {
        "name": "Arawakumbura",
        "zip_code": "90532"
    },
    {
        "name": "Pallekiruwa",
        "zip_code": "90534"
    },
    {
        "name": "Madulsima",
        "zip_code": "90535"
    },
    {
        "name": "Metigahatenna",
        "zip_code": "90540"
    },
    {
        "name": "Atakiriya",
        "zip_code": "90542"
    },
    {
        "name": "Pitamaruwa",
        "zip_code": "90544"
    },
    {
        "name": "Kalugahakandura",
        "zip_code": "90546"
    },
    {
        "name": "Namunukula",
        "zip_code": "90580"
    },
    {
        "name": "Maussagolla",
        "zip_code": "90582"
    },
    {
        "name": "Miyanakandura",
        "zip_code": "90584"
    },
    {
        "name": "Mahiyanganaya",
        "zip_code": "90700"
    },
    {
        "name": "Uraniya",
        "zip_code": "90702"
    },
    {
        "name": "Ridimaliyadda",
        "zip_code": "90704"
    },
    {
        "name": "Yalwela",
        "zip_code": "90706"
    },
    {
        "name": "Arawatta",
        "zip_code": "90712"
    },
    {
        "name": "Dambana",
        "zip_code": "90714"
    },
    {
        "name": "Wewatta",
        "zip_code": "90716"
    },
    {
        "name": "Sorabora Colony",
        "zip_code": "90718"
    },
    {
        "name": "Aluttaramma",
        "zip_code": "90722"
    },
    {
        "name": "Hebarawa",
        "zip_code": "90724"
    },
    {
        "name": "Divulapelessa",
        "zip_code": "90726"
    },
    {
        "name": "Kuruwitenna",
        "zip_code": "90728"
    },
    {
        "name": "Mapakadawewa",
        "zip_code": "90730"
    },
    {
        "name": "Uva Tissapura",
        "zip_code": "90734"
    },
    {
        "name": "Aluketiyawa",
        "zip_code": "90736"
    },
    {
        "name": "Keselpotha",
        "zip_code": "90738"
    },
    {
        "name": "Girandurukotte",
        "zip_code": "90750"
    },
    {
        "name": "Galporuyaya",
        "zip_code": "90752"
    },
    {
        "name": "Malgoda",
        "zip_code": "90754"
    },
    {
        "name": "Pahalarathkinda",
        "zip_code": "90756"
    },
    {
        "name": "Idalgashinna",
        "zip_code": "96167"
    },
    {
        "name": "Sewanagala",
        "zip_code": "70250"
    },
    {
        "name": "Kiriibbanwewa",
        "zip_code": "70252"
    },
    {
        "name": "Ekamutugama",
        "zip_code": "70254"
    },
    {
        "name": "Mahagama Colony",
        "zip_code": "70256"
    },
    {
        "name": "Monaragala",
        "zip_code": "91000"
    },
    {
        "name": "Pangura",
        "zip_code": "91002"
    },
    {
        "name": "Nakkala",
        "zip_code": "91003"
    },
    {
        "name": "Hulandawa",
        "zip_code": "91004"
    },
    {
        "name": "Wedikumbura",
        "zip_code": "91005"
    },
    {
        "name": "Marawa",
        "zip_code": "91006"
    },
    {
        "name": "Obbegoda",
        "zip_code": "91007"
    },
    {
        "name": "Galabedda",
        "zip_code": "91008"
    },
    {
        "name": "Dombagahawela",
        "zip_code": "91010"
    },
    {
        "name": "Ethimalewewa",
        "zip_code": "91020"
    },
    {
        "name": "Wilaoya",
        "zip_code": "91022"
    },
    {
        "name": "Kotiyagala",
        "zip_code": "91024"
    },
    {
        "name": "Siyambalanduwa",
        "zip_code": "91030"
    },
    {
        "name": "Kandaudapanguwa",
        "zip_code": "91032"
    },
    {
        "name": "Buddama",
        "zip_code": "91038"
    },
    {
        "name": "Inginiyagala",
        "zip_code": "91040"
    },
    {
        "name": "Nelliyadda",
        "zip_code": "91042"
    },
    {
        "name": "Dambagalla",
        "zip_code": "91050"
    },
    {
        "name": "Mariarawa",
        "zip_code": "91052"
    },
    {
        "name": "Uva Gangodagama",
        "zip_code": "91054"
    },
    {
        "name": "Ruwalwela",
        "zip_code": "91056"
    },
    {
        "name": "Baduluwela",
        "zip_code": "91058"
    },
    {
        "name": "Okkampitiya",
        "zip_code": "91060"
    },
    {
        "name": "Badalkumbura",
        "zip_code": "91070"
    },
    {
        "name": "Kumbukkana",
        "zip_code": "91098"
    },
    {
        "name": "Buttala",
        "zip_code": "91100"
    },
    {
        "name": "Moretuwegama",
        "zip_code": "91108"
    },
    {
        "name": "Uva Pelwatta",
        "zip_code": "91112"
    },
    {
        "name": "Warunagama",
        "zip_code": "91198"
    },
    {
        "name": "Wellawaya",
        "zip_code": "91200"
    },
    {
        "name": "Siyambalagune",
        "zip_code": "91202"
    },
    {
        "name": "Randeniya",
        "zip_code": "91204"
    },
    {
        "name": "Weherayaya Handapanagala",
        "zip_code": "91206"
    },
    {
        "name": "Ettiliwewa",
        "zip_code": "91250"
    },
    {
        "name": "Balaharuwa",
        "zip_code": "91295"
    },
    {
        "name": "Uva Kudaoya",
        "zip_code": "91298"
    },
    {
        "name": "Tanamalwila",
        "zip_code": "91300"
    },
    {
        "name": "Angunakolawewa",
        "zip_code": "91302"
    },
    {
        "name": "Suriara",
        "zip_code": "91306"
    },
    {
        "name": "Hambegamuwa",
        "zip_code": "91308"
    },
    {
        "name": "Kotawehera Mankada",
        "zip_code": "91312"
    },
    {
        "name": "Kataragama",
        "zip_code": "91400"
    },
    {
        "name": "Sella Kataragama",
        "zip_code": "91405"
    },
    {
        "name": "Bibile",
        "zip_code": "91500"
    },
    {
        "name": "Ekiriyankumbura",
        "zip_code": "91502"
    },
    {
        "name": "Pitakumbura",
        "zip_code": "91505"
    },
    {
        "name": "Nilgala",
        "zip_code": "91508"
    },
    {
        "name": "Kotagama",
        "zip_code": "91512"
    },
    {
        "name": "Diyakobala",
        "zip_code": "91514"
    },
    {
        "name": "Ayiwela",
        "zip_code": "91516"
    },
    {
        "name": "Nannapurawa",
        "zip_code": "91519"
    },
    {
        "name": "Medagana",
        "zip_code": "91550"
    },
    {
        "name": "Kandawinna",
        "zip_code": "91552"
    },
    {
        "name": "Bakinigahawela",
        "zip_code": "91554"
    },
    {
        "name": "Fort",
        "zip_code": "00100"
    },
    {
        "name": "Slave Island",
        "zip_code": "00200"
    },
    {
        "name": "Slave lsland",
        "zip_code": "00200"
    },
    {
        "name": "Colpetty",
        "zip_code": "00300"
    },
    {
        "name": "Bambalapitiya",
        "zip_code": "00400"
    },
    {
        "name": "Havelock Town",
        "zip_code": "00500"
    },
    {
        "name": "Wellawatta",
        "zip_code": "00600"
    },
    {
        "name": "Kirulapone",
        "zip_code": "00600"
    },
    {
        "name": "Borella",
        "zip_code": "00800"
    },
    {
        "name": "Kotahena",
        "zip_code": "01300"
    },
    {
        "name": "Mutwal",
        "zip_code": "01500"
    },
    {
        "name": "Sri Jayawardenepu",
        "zip_code": "10100"
    },
    {
        "name": "Malabe",
        "zip_code": "10115"
    },
    {
        "name": "Talawatugoda",
        "zip_code": "10116"
    },
    {
        "name": "Hokandara",
        "zip_code": "10118"
    },
    {
        "name": "Battaramulla",
        "zip_code": "10120"
    },
    {
        "name": "Athurugiriya",
        "zip_code": "10150"
    },
    {
        "name": "Homagama",
        "zip_code": "10200"
    },
    {
        "name": "Mullegama",
        "zip_code": "10202"
    },
    {
        "name": "Habarakada",
        "zip_code": "10204"
    },
    {
        "name": "Pitipana Homagama",
        "zip_code": "10206"
    },
    {
        "name": "Kiriwattuduwa",
        "zip_code": "10208"
    },
    {
        "name": "Pannipitiya",
        "zip_code": "10230"
    },
    {
        "name": "Hiripitya",
        "zip_code": "10232"
    },
    {
        "name": "Nugegoda",
        "zip_code": "10250"
    },
    {
        "name": "Maharagama",
        "zip_code": "10280"
    },
    {
        "name": "Boralesgamuwa",
        "zip_code": "10290"
    },
    {
        "name": "Piliyandala",
        "zip_code": "10300"
    },
    {
        "name": "Deltara",
        "zip_code": "10302"
    },
    {
        "name": "Siddamulla",
        "zip_code": "10304"
    },
    {
        "name": "Madapatha",
        "zip_code": "10306"
    },
    {
        "name": "Polgasowita",
        "zip_code": "10320"
    },
    {
        "name": "Dehiwala",
        "zip_code": "10350"
    },
    {
        "name": "Mount Lavinia",
        "zip_code": "10370"
    },
    {
        "name": "Moratuwa",
        "zip_code": "10400"
    },
    {
        "name": "Padukka",
        "zip_code": "10500"
    },
    {
        "name": "Horagala",
        "zip_code": "10502"
    },
    {
        "name": "Meegoda",
        "zip_code": "10504"
    },
    {
        "name": "Kahawala",
        "zip_code": "10508"
    },
    {
        "name": "Watareka",
        "zip_code": "10511"
    },
    {
        "name": "Batawala",
        "zip_code": "10513"
    },
    {
        "name": "Bope",
        "zip_code": "10522"
    },
    {
        "name": "Handapangoda",
        "zip_code": "10524"
    },
    {
        "name": "Batugampola",
        "zip_code": "10526"
    },
    {
        "name": "Kolonnawa",
        "zip_code": "10600"
    },
    {
        "name": "Mulleriyawa New Town",
        "zip_code": "10620"
    },
    {
        "name": "Kaduwela",
        "zip_code": "10640"
    },
    {
        "name": "Hanwella",
        "zip_code": "10650"
    },
    {
        "name": "Ranala",
        "zip_code": "10654"
    },
    {
        "name": "Dedigamuwa",
        "zip_code": "10656"
    },
    {
        "name": "Waga",
        "zip_code": "10680"
    },
    {
        "name": "Tummodara",
        "zip_code": "10682"
    },
    {
        "name": "Avissawella",
        "zip_code": "10700"
    },
    {
        "name": "Napawela",
        "zip_code": "10704"
    },
    {
        "name": "Puwakpitiya",
        "zip_code": "10712"
    },
    {
        "name": "Hewainna",
        "zip_code": "10714"
    },
    {
        "name": "Kalatuwawa",
        "zip_code": "10718"
    },
    {
        "name": "Kosgama",
        "zip_code": "10730"
    },
    {
        "name": "Akarawita",
        "zip_code": "10732"
    },
    {
        "name": "Pugoda",
        "zip_code": "10660"
    },
    {
        "name": "Kapugoda",
        "zip_code": "10662"
    },
    {
        "name": "Tittapattara",
        "zip_code": "10664"
    },
    {
        "name": "Gampaha",
        "zip_code": "11000"
    },
    {
        "name": "Ragama",
        "zip_code": "11010"
    },
    {
        "name": "Batuwatta",
        "zip_code": "11011"
    },
    {
        "name": "Walpola (WP)",
        "zip_code": "11012"
    },
    {
        "name": "Ganemulla",
        "zip_code": "11020"
    },
    {
        "name": "Bollete (WP)",
        "zip_code": "11024"
    },
    {
        "name": "Udugampola",
        "zip_code": "11030"
    },
    {
        "name": "Madelgamuwa",
        "zip_code": "11033"
    },
    {
        "name": "Uggalboda",
        "zip_code": "11034"
    },
    {
        "name": "Bemmulla",
        "zip_code": "11040"
    },
    {
        "name": "Pethiyagoda",
        "zip_code": "11043"
    },
    {
        "name": "Ambagaspitiya",
        "zip_code": "11052"
    },
    {
        "name": "Udathuthiripitiya",
        "zip_code": "11054"
    },
    {
        "name": "Mudungoda",
        "zip_code": "11056"
    },
    {
        "name": "Mandawala",
        "zip_code": "11061"
    },
    {
        "name": "Lunugama",
        "zip_code": "11062"
    },
    {
        "name": "Naranwala",
        "zip_code": "11063"
    },
    {
        "name": "Nedungamuwa",
        "zip_code": "11066"
    },
    {
        "name": "Wanaluwewa",
        "zip_code": "11068"
    },
    {
        "name": "Veyangoda",
        "zip_code": "11100"
    },
    {
        "name": "Dewalapola",
        "zip_code": "11102"
    },
    {
        "name": "Watinapaha",
        "zip_code": "11104"
    },
    {
        "name": "Wattala",
        "zip_code": "11104"
    },
    {
        "name": "Kumbaloluwa",
        "zip_code": "11105"
    },
    {
        "name": "Essella",
        "zip_code": "11108"
    },
    {
        "name": "Muddaragama",
        "zip_code": "11112"
    },
    {
        "name": "Mabodale",
        "zip_code": "11114"
    },
    {
        "name": "Ellakkala",
        "zip_code": "11116"
    },
    {
        "name": "Attanagalla",
        "zip_code": "11120"
    },
    {
        "name": "Alawala",
        "zip_code": "11122"
    },
    {
        "name": "Urapola",
        "zip_code": "11126"
    },
    {
        "name": "Nikahetikanda",
        "zip_code": "11128"
    },
    {
        "name": "Rukmale",
        "zip_code": "11129"
    },
    {
        "name": "Bopagama",
        "zip_code": "11134"
    },
    {
        "name": "Ruggahawila",
        "zip_code": "11142"
    },
    {
        "name": "Kahatowita",
        "zip_code": "11144"
    },
    {
        "name": "Walgammulla",
        "zip_code": "11146"
    },
    {
        "name": "Pallewela",
        "zip_code": "11150"
    },
    {
        "name": "Kaleliya",
        "zip_code": "11160"
    },
    {
        "name": "Mirigama",
        "zip_code": "11200"
    },
    {
        "name": "Loluwagoda",
        "zip_code": "11204"
    },
    {
        "name": "Kitalawalana",
        "zip_code": "11206"
    },
    {
        "name": "Divuldeniya",
        "zip_code": "11208"
    },
    {
        "name": "Ambepussa",
        "zip_code": "11212"
    },
    {
        "name": "Pamunuwatta",
        "zip_code": "11214"
    },
    {
        "name": "Bokalagama",
        "zip_code": "11216"
    },
    {
        "name": "Nawana",
        "zip_code": "11222"
    },
    {
        "name": "Kaluaggala",
        "zip_code": "11224"
    },
    {
        "name": "Walpita",
        "zip_code": "11226"
    },
    {
        "name": "Delwagura",
        "zip_code": "11228"
    },
    {
        "name": "Kotadeniyawa",
        "zip_code": "11232"
    },
    {
        "name": "Mellawagedara",
        "zip_code": "11234"
    },
    {
        "name": "Kitulwala",
        "zip_code": "11242"
    },
    {
        "name": "Banduragoda",
        "zip_code": "11244"
    },
    {
        "name": "Divulapitiya",
        "zip_code": "11250"
    },
    {
        "name": "Marandagahamula",
        "zip_code": "11260"
    },
    {
        "name": "Hunumulla",
        "zip_code": "11262"
    },
    {
        "name": "Dunagaha",
        "zip_code": "11264"
    },
    {
        "name": "Ihala Madampella",
        "zip_code": "11265"
    },
    {
        "name": "Demanhandiya",
        "zip_code": "11270"
    },
    {
        "name": "Kandana",
        "zip_code": "11320"
    },
    {
        "name": "Polpithimukulana",
        "zip_code": "11324"
    },
    {
        "name": "Uswetakeiyawa",
        "zip_code": "11328"
    },
    {
        "name": "Ja-Ela",
        "zip_code": "11350"
    },
    {
        "name": "Niwandama",
        "zip_code": "11354"
    },
    {
        "name": "Makewita",
        "zip_code": "11358"
    },
    {
        "name": "Pamunugama",
        "zip_code": "11370"
    },
    {
        "name": "Ekala",
        "zip_code": "11380"
    },
    {
        "name": "Kotugoda",
        "zip_code": "11390"
    },
    {
        "name": "Raddolugama",
        "zip_code": "11400"
    },
    {
        "name": "Seeduwa",
        "zip_code": "11410"
    },
    {
        "name": "Katunayake(FTZ)",
        "zip_code": "11420"
    },
    {
        "name": "Katunayake Air Force Camp",
        "zip_code": "11440"
    },
    {
        "name": "Katunayake",
        "zip_code": "11450"
    },
    {
        "name": "Negombo",
        "zip_code": "11500"
    },
    {
        "name": "Talahena",
        "zip_code": "11504"
    },
    {
        "name": "Kimbulapitiya",
        "zip_code": "11522"
    },
    {
        "name": "Dagonna",
        "zip_code": "11524"
    },
    {
        "name": "Katuwellegama",
        "zip_code": "11526"
    },
    {
        "name": "Thimbirigaskatuwa",
        "zip_code": "11532"
    },
    {
        "name": "Katana",
        "zip_code": "11534"
    },
    {
        "name": "Akaragama",
        "zip_code": "11536"
    },
    {
        "name": "Badalgama",
        "zip_code": "11538"
    },
    {
        "name": "Kochchikade",
        "zip_code": "11540"
    },
    {
        "name": "Minuwangoda",
        "zip_code": "11550"
    },
    {
        "name": "Andiambalama",
        "zip_code": "11558"
    },
    {
        "name": "Wegowwa",
        "zip_code": "11562"
    },
    {
        "name": "Horampella",
        "zip_code": "11564"
    },
    {
        "name": "Yatiyana(WP)",
        "zip_code": "11566"
    },
    {
        "name": "Hinatiyana Madawala",
        "zip_code": "11568"
    },
    {
        "name": "Kelaniya",
        "zip_code": "11600"
    },
    {
        "name": "Siyambalape",
        "zip_code": "11607"
    },
    {
        "name": "Heiyanthuduwa",
        "zip_code": "11618"
    },
    {
        "name": "GonawalaWP",
        "zip_code": "11630"
    },
    {
        "name": "Makola",
        "zip_code": "11640"
    },
    {
        "name": "Biyagama",
        "zip_code": "11650"
    },
    {
        "name": "Malwana",
        "zip_code": "11670"
    },
    {
        "name": "Biyagama IPZ",
        "zip_code": "11672"
    },
    {
        "name": "Dompe",
        "zip_code": "11680"
    },
    {
        "name": "Dekatana",
        "zip_code": "11690"
    },
    {
        "name": "Demalagama",
        "zip_code": "11692"
    },
    {
        "name": "Delgoda",
        "zip_code": "11700"
    },
    {
        "name": "Weliveriya",
        "zip_code": "11710"
    },
    {
        "name": "Henegama",
        "zip_code": "11715"
    },
    {
        "name": "Buthpitiya",
        "zip_code": "11720"
    },
    {
        "name": "Wathurugama",
        "zip_code": "11724"
    },
    {
        "name": "Radawana",
        "zip_code": "11725"
    },
    {
        "name": "Kirindiwela",
        "zip_code": "11730"
    },
    {
        "name": "Hiswella",
        "zip_code": "11734"
    },
    {
        "name": "Pepiliyawala",
        "zip_code": "11741"
    },
    {
        "name": "Mithirigala",
        "zip_code": "11742"
    },
    {
        "name": "Peliyagoda",
        "zip_code": "11830"
    },
    {
        "name": "Kadawatha",
        "zip_code": "11850"
    },
    {
        "name": "Imbulgoda",
        "zip_code": "11856"
    },
    {
        "name": "Weboda",
        "zip_code": "11858"
    },
    {
        "name": "Yakkala",
        "zip_code": "11870"
    },
    {
        "name": "Kalagedihena",
        "zip_code": "11875"
    },
    {
        "name": "Nittambuwa",
        "zip_code": "11880"
    },
    {
        "name": "Debahera",
        "zip_code": "11889"
    },
    {
        "name": "Pasyala",
        "zip_code": "11890"
    },
    {
        "name": "Radawadunna",
        "zip_code": "11892"
    },
    {
        "name": "Weweldeniya",
        "zip_code": "11894"
    },
    {
        "name": "Danowita",
        "zip_code": "11896"
    },
    {
        "name": "Kalutara",
        "zip_code": "12000"
    },
    {
        "name": "Galpatha",
        "zip_code": "12005"
    },
    {
        "name": "Yatawara Junction",
        "zip_code": "12006"
    },
    {
        "name": "Koholana",
        "zip_code": "12007"
    },
    {
        "name": "Bolossagama",
        "zip_code": "12008"
    },
    {
        "name": "Remunagoda",
        "zip_code": "12009"
    },
    {
        "name": "Gamagoda",
        "zip_code": "12016"
    },
    {
        "name": "Dodangoda",
        "zip_code": "12020"
    },
    {
        "name": "Bombuwala",
        "zip_code": "12024"
    },
    {
        "name": "Tebuwana",
        "zip_code": "12025"
    },
    {
        "name": "Neboda",
        "zip_code": "12030"
    },
    {
        "name": "Paiyagala",
        "zip_code": "12050"
    },
    {
        "name": "Halkandawila",
        "zip_code": "12055"
    },
    {
        "name": "Maggona",
        "zip_code": "12060"
    },
    {
        "name": "Beruwala",
        "zip_code": "12070"
    },
    {
        "name": "Padagoda",
        "zip_code": "12074"
    },
    {
        "name": "Kalawila Kiranthidiya",
        "zip_code": "12078"
    },
    {
        "name": "Alutgama",
        "zip_code": "12080"
    },
    {
        "name": "Dharga Town",
        "zip_code": "12090"
    },
    {
        "name": "Meegama",
        "zip_code": "12094"
    },
    {
        "name": "Matugama",
        "zip_code": "12100"
    },
    {
        "name": "Yatadolawatta",
        "zip_code": "12104"
    },
    {
        "name": "Nawattuduwa",
        "zip_code": "12106"
    },
    {
        "name": "Welipenna",
        "zip_code": "12108"
    },
    {
        "name": "Walagedara",
        "zip_code": "12112"
    },
    {
        "name": "Pannila",
        "zip_code": "12114"
    },
    {
        "name": "Ittapana",
        "zip_code": "12116"
    },
    {
        "name": "Halwala",
        "zip_code": "12118"
    },
    {
        "name": "Paraigama",
        "zip_code": "12122"
    },
    {
        "name": "Yagirala",
        "zip_code": "12124"
    },
    {
        "name": "Mahakalupahana",
        "zip_code": "12126"
    },
    {
        "name": "Utumgama",
        "zip_code": "12127"
    },
    {
        "name": "Meegahatenna",
        "zip_code": "12130"
    },
    {
        "name": "Walallawita",
        "zip_code": "12134"
    },
    {
        "name": "Polgampola",
        "zip_code": "12136"
    },
    {
        "name": "Pelawatta",
        "zip_code": "12138"
    },
    {
        "name": "Boralugoda",
        "zip_code": "12142"
    },
    {
        "name": "Pahalahewessa",
        "zip_code": "12144"
    },
    {
        "name": "Danawala Thiniyawala",
        "zip_code": "12148"
    },
    {
        "name": "Agalawatta",
        "zip_code": "12200"
    },
    {
        "name": "Veyangalla",
        "zip_code": "12204"
    },
    {
        "name": "Mahagama",
        "zip_code": "12210"
    },
    {
        "name": "Pelanda",
        "zip_code": "12214"
    },
    {
        "name": "Molkawa",
        "zip_code": "12216"
    },
    {
        "name": "Kelinkanda",
        "zip_code": "12218"
    },
    {
        "name": "Kitulgoda",
        "zip_code": "12222"
    },
    {
        "name": "Bellana",
        "zip_code": "12224"
    },
    {
        "name": "Baduraliya",
        "zip_code": "12230"
    },
    {
        "name": "Morapitiya",
        "zip_code": "12232"
    },
    {
        "name": "Hedigalla Colony",
        "zip_code": "12234"
    },
    {
        "name": "Gurulubadda",
        "zip_code": "12236"
    },
    {
        "name": "Bulathsinhala",
        "zip_code": "12300"
    },
    {
        "name": "Paragoda",
        "zip_code": "12302"
    },
    {
        "name": "Delmella",
        "zip_code": "12304"
    },
    {
        "name": "Halwatura",
        "zip_code": "12306"
    },
    {
        "name": "Diwalakada",
        "zip_code": "12308"
    },
    {
        "name": "Govinna",
        "zip_code": "12310"
    },
    {
        "name": "Anguruwatota",
        "zip_code": "12320"
    },
    {
        "name": "Uduwara",
        "zip_code": "12322"
    },
    {
        "name": "Horana",
        "zip_code": "12400"
    },
    {
        "name": "Pokunuwita",
        "zip_code": "12404"
    },
    {
        "name": "Gonapola Junction",
        "zip_code": "12410"
    },
    {
        "name": "Millaniya",
        "zip_code": "12412"
    },
    {
        "name": "Paragastota",
        "zip_code": "12414"
    },
    {
        "name": "Dombagoda",
        "zip_code": "12416"
    },
    {
        "name": "Kananwila",
        "zip_code": "12418"
    },
    {
        "name": "Millewa",
        "zip_code": "12422"
    },
    {
        "name": "Miwanapalana",
        "zip_code": "12424"
    },
    {
        "name": "Kuda Uduwa",
        "zip_code": "12426"
    },
    {
        "name": "Kandanagama",
        "zip_code": "12428"
    },
    {
        "name": "Poruwedanda",
        "zip_code": "12432"
    },
    {
        "name": "lngiriya",
        "zip_code": "12440"
    },
    {
        "name": "Panadura",
        "zip_code": "12500"
    },
    {
        "name": "Alubomulla",
        "zip_code": "12524"
    },
    {
        "name": "Bandaragama",
        "zip_code": "12530"
    },
    {
        "name": "Welmilla Junction",
        "zip_code": "12534"
    },
    {
        "name": "Haltota",
        "zip_code": "12538"
    },
    {
        "name": "Kehelwatta",
        "zip_code": "12550"
    },
    {
        "name": "Wadduwa",
        "zip_code": "12560"
    },
    {
        "name": "Morontuduwa",
        "zip_code": "12564"
    },
    {
        "name": "Waskaduwa",
        "zip_code": "12580"
    },
    {
        "name": "Ampara",
        "zip_code": "32000"
    },
    {
        "name": "Deegawapiya",
        "zip_code": "32006"
    },
    {
        "name": "Digamadulla Weeragoda",
        "zip_code": "32008"
    },
    {
        "name": "Hingurana",
        "zip_code": "32010"
    },
    {
        "name": "Moragahapallama",
        "zip_code": "32012"
    },
    {
        "name": "Damana",
        "zip_code": "32014"
    },
    {
        "name": "Madawalalanda",
        "zip_code": "32016"
    },
    {
        "name": "Mahanagapura",
        "zip_code": "32018"
    },
    {
        "name": "Pannalagama",
        "zip_code": "32022"
    },
    {
        "name": "Bakmitiyawa",
        "zip_code": "32024"
    },
    {
        "name": "Paragahakele",
        "zip_code": "32031"
    },
    {
        "name": "Polwaga Janapadaya",
        "zip_code": "32032"
    },
    {
        "name": "Pahalalanda",
        "zip_code": "32034"
    },
    {
        "name": "Koknahara",
        "zip_code": "32035"
    },
    {
        "name": "Namaloya",
        "zip_code": "32037"
    },
    {
        "name": "Devalahinda",
        "zip_code": "32038"
    },
    {
        "name": "Wadinagala",
        "zip_code": "32039"
    },
    {
        "name": "Dadayamtalawa",
        "zip_code": "32046"
    },
    {
        "name": "Siyambalawewa",
        "zip_code": "32048"
    },
    {
        "name": "Central Camp",
        "zip_code": "32050"
    },
    {
        "name": "Uhana",
        "zip_code": "32060"
    },
    {
        "name": "Werunketagoda",
        "zip_code": "32062"
    },
    {
        "name": "Gonagolla",
        "zip_code": "32064"
    },
    {
        "name": "Galapitagala",
        "zip_code": "32066"
    },
    {
        "name": "Rajagalatenna",
        "zip_code": "32068"
    },
    {
        "name": "Mangalagama",
        "zip_code": "32069"
    },
    {
        "name": "Mahaoya",
        "zip_code": "32070"
    },
    {
        "name": "Tempitiya",
        "zip_code": "32072"
    },
    {
        "name": "Kekirihena",
        "zip_code": "32074"
    },
    {
        "name": "Padiyatalawa",
        "zip_code": "32100"
    },
    {
        "name": "Serankada",
        "zip_code": "32101"
    },
    {
        "name": "Kolamanthalawa",
        "zip_code": "32102"
    },
    {
        "name": "Dorakumbura",
        "zip_code": "32104"
    },
    {
        "name": "Nawamedagama",
        "zip_code": "32120"
    },
    {
        "name": "Damanewela",
        "zip_code": "32126"
    },
    {
        "name": "Dehiattakandiya",
        "zip_code": "32150"
    },
    {
        "name": "Siripura",
        "zip_code": "32155"
    },
    {
        "name": "Mawanagama",
        "zip_code": "32158"
    },
    {
        "name": "Malwatta",
        "zip_code": "32198"
    },
    {
        "name": "Samanthurai",
        "zip_code": "32200"
    },
    {
        "name": "Karativu",
        "zip_code": "32250"
    },
    {
        "name": "Sainthamaruthu",
        "zip_code": "32280"
    },
    {
        "name": "Kalmunai",
        "zip_code": "32300"
    },
    {
        "name": "Navithanveli",
        "zip_code": "32308"
    },
    {
        "name": "Marathamune",
        "zip_code": "32314"
    },
    {
        "name": "Periyaneelavanai",
        "zip_code": "32316"
    },
    {
        "name": "Nintavur",
        "zip_code": "32340"
    },
    {
        "name": "Addalaichenai",
        "zip_code": "32350"
    },
    {
        "name": "Palamunai",
        "zip_code": "32354"
    },
    {
        "name": "Oluvil",
        "zip_code": "32360"
    },
    {
        "name": "Akkaraipattu",
        "zip_code": "32400"
    },
    {
        "name": "Kannakipuram",
        "zip_code": "32405"
    },
    {
        "name": "Thambiluvil",
        "zip_code": "32415"
    },
    {
        "name": "Komari",
        "zip_code": "32418"
    },
    {
        "name": "Tirukovil",
        "zip_code": "32420"
    },
    {
        "name": "lmkkamam",
        "zip_code": "32450"
    },
    {
        "name": "Wanagamuwa",
        "zip_code": "32454"
    },
    {
        "name": "Pottuvil",
        "zip_code": "32500"
    },
    {
        "name": "Panama",
        "zip_code": "32508"
    },
    {
        "name": "Lahugala",
        "zip_code": "32512"
    },
    {
        "name": "Hulannuge",
        "zip_code": "32514"
    },
    {
        "name": "Batticaloa",
        "zip_code": "30000"
    },
    {
        "name": "Kannankudah",
        "zip_code": "30016"
    },
    {
        "name": "Navatkadu",
        "zip_code": "30018"
    },
    {
        "name": "Pillaiyaradi",
        "zip_code": "30022"
    },
    {
        "name": "Thannamunai",
        "zip_code": "30024"
    },
    {
        "name": "Kattankudi",
        "zip_code": "30100"
    },
    {
        "name": "Araipattai",
        "zip_code": "30150"
    },
    {
        "name": "Puthukudiyiruppu",
        "zip_code": "30158"
    },
    {
        "name": "Kirankulam",
        "zip_code": "30159"
    },
    {
        "name": "Kokkaddichcholai",
        "zip_code": "30160"
    },
    {
        "name": "Ampilanthurai",
        "zip_code": "30162"
    },
    {
        "name": "Kurukkalmadam",
        "zip_code": "30192"
    },
    {
        "name": "Cheddipalayam",
        "zip_code": "30194"
    },
    {
        "name": "Thettativu",
        "zip_code": "30196"
    },
    {
        "name": "Kaluwanchikudi",
        "zip_code": "30200"
    },
    {
        "name": "Vellavely",
        "zip_code": "30204"
    },
    {
        "name": "Bakiella",
        "zip_code": "30206"
    },
    {
        "name": "Mandur",
        "zip_code": "30220"
    },
    {
        "name": "Periyaporativu",
        "zip_code": "30230"
    },
    {
        "name": "Thirupalugamam",
        "zip_code": "30234"
    },
    {
        "name": "Thikkodai",
        "zip_code": "30236"
    },
    {
        "name": "Navagirinagar",
        "zip_code": "30238"
    },
    {
        "name": "Koddaikallar",
        "zip_code": "30249"
    },
    {
        "name": "Kallar",
        "zip_code": "30250"
    },
    {
        "name": "Thuraineelavanai",
        "zip_code": "30254"
    },
    {
        "name": "Eravur",
        "zip_code": "30300"
    },
    {
        "name": "Chenkaladi",
        "zip_code": "30350"
    },
    {
        "name": "Pankudavely",
        "zip_code": "30352"
    },
    {
        "name": "Karadiyanaru",
        "zip_code": "30354"
    },
    {
        "name": "Periyapullumalai",
        "zip_code": "30358"
    },
    {
        "name": "Ayithiyamalai",
        "zip_code": "30362"
    },
    {
        "name": "Unnichchai",
        "zip_code": "30364"
    },
    {
        "name": "Kaluwankemy",
        "zip_code": "30372"
    },
    {
        "name": "Vantharumoolai",
        "zip_code": "30376"
    },
    {
        "name": "Murakottanchanai",
        "zip_code": "30392"
    },
    {
        "name": "Kiran",
        "zip_code": "30394"
    },
    {
        "name": "Valaichenai",
        "zip_code": "30400"
    },
    {
        "name": "Kalkudah",
        "zip_code": "30410"
    },
    {
        "name": "Oddamavadi",
        "zip_code": "30420"
    },
    {
        "name": "Vakaneri",
        "zip_code": "30424"
    },
    {
        "name": "Miravodai",
        "zip_code": "30426"
    },
    {
        "name": "Punanai",
        "zip_code": "30428"
    },
    {
        "name": "Mankemi",
        "zip_code": "30442"
    },
    {
        "name": "Panichankemi",
        "zip_code": "30444"
    },
    {
        "name": "Vakarai",
        "zip_code": "30450"
    },
    {
        "name": "Kathiraveli",
        "zip_code": "30456"
    },
    {
        "name": "Trincomalee",
        "zip_code": "31000"
    },
    {
        "name": "Sampaltivu",
        "zip_code": "31006"
    },
    {
        "name": "Nilaveli",
        "zip_code": "31010"
    },
    {
        "name": "Kumburupiddy",
        "zip_code": "31012"
    },
    {
        "name": "Kuchchaveli",
        "zip_code": "31014"
    },
    {
        "name": "Tiriyayi",
        "zip_code": "31016"
    },
    {
        "name": "Gomarankadawala",
        "zip_code": "31026"
    },
    {
        "name": "Buckmigama",
        "zip_code": "31028"
    },
    {
        "name": "Kanniya",
        "zip_code": "31032"
    },
    {
        "name": "Pankulam",
        "zip_code": "31034"
    },
    {
        "name": "Mahadivulwewa",
        "zip_code": "31036"
    },
    {
        "name": "Rottawewa",
        "zip_code": "31038"
    },
    {
        "name": "Tampalakamam",
        "zip_code": "31046"
    },
    {
        "name": "Chinabay",
        "zip_code": "31050"
    },
    {
        "name": "Vellamanal",
        "zip_code": "31053"
    },
    {
        "name": "Kinniya",
        "zip_code": "31100"
    },
    {
        "name": "Maharugiramam",
        "zip_code": "31106"
    },
    {
        "name": "Kurinchakemy",
        "zip_code": "31112"
    },
    {
        "name": "Mutur",
        "zip_code": "31200"
    },
    {
        "name": "Kaddaiparichchan",
        "zip_code": "31212"
    },
    {
        "name": "Sampur",
        "zip_code": "31216"
    },
    {
        "name": "Kiliveddy",
        "zip_code": "31220"
    },
    {
        "name": "Somapura",
        "zip_code": "31222"
    },
    {
        "name": "Mallikativu",
        "zip_code": "31224"
    },
    {
        "name": "Dehiwatte",
        "zip_code": "31226"
    },
    {
        "name": "Neelapola",
        "zip_code": "31228"
    },
    {
        "name": "Serunuwara",
        "zip_code": "31232"
    },
    {
        "name": "Lankapatuna",
        "zip_code": "31234"
    },
    {
        "name": "Echchilampattai",
        "zip_code": "31236"
    },
    {
        "name": "Mawadichenai",
        "zip_code": "31238"
    },
    {
        "name": "Toppur",
        "zip_code": "31250"
    },
    {
        "name": "Seruwila",
        "zip_code": "31260"
    },
    {
        "name": "Kantalai",
        "zip_code": "31300"
    },
    {
        "name": "Agbopura",
        "zip_code": "31304"
    },
    {
        "name": "Kantalai Sugar Factory",
        "zip_code": "31306"
    },
    {
        "name": "Wanela",
        "zip_code": "31308"
    },
    {
        "name": "Mullipothana",
        "zip_code": "31312"
    },
    {
        "name": "Sirajnagar",
        "zip_code": "31314"
    },
    {
        "name": "Galmetiyawa",
        "zip_code": "31318"
    },
    {
        "name": "Jaffna",
        "zip_code": "40000"
    },
    {
        "name": "Mannar",
        "zip_code": "41000"
    },
    {
        "name": "Mullativu",
        "zip_code": "42000"
    },
    {
        "name": "Vavuniya",
        "zip_code": "43000"
    }
]