[
    {
        "name": "Bocas Del Toro (Cabecera)",
        "zip_code": "01001"
    },
    {
        "name": "Bastimentos",
        "zip_code": "01002"
    },
    {
        "name": "Punta Laurel",
        "zip_code": "01003"
    },
    {
        "name": "Cauchero",
        "zip_code": "01004"
    },
    {
        "name": "Tierra Oscura",
        "zip_code": "01005"
    },
    {
        "name": "Changuinola (Cabec)",
        "zip_code": "01006"
    },
    {
        "name": "Almirante",
        "zip_code": "01007"
    },
    {
        "name": "Guabito",
        "zip_code": "01008"
    },
    {
        "name": "El Teribe",
        "zip_code": "01009"
    },
    {
        "name": "Valle Del Risco",
        "zip_code": "01010"
    },
    {
        "name": "El Empalme",
        "zip_code": "01011"
    },
    {
        "name": "Las Tablas",
        "zip_code": "01012"
    },
    {
        "name": "Chiriqui Grande (Cabec)",
        "zip_code": "01013"
    },
    {
        "name": "Punta Robalo",
        "zip_code": "01014"
    },
    {
        "name": "Miramar",
        "zip_code": "01015"
    },
    {
        "name": "Punta Peða",
        "zip_code": "01016"
    },
    {
        "name": "Rambala",
        "zip_code": "01017"
    },
    {
        "name": "Alanje (Cabec)",
        "zip_code": "04029"
    },
    {
        "name": "Divala",
        "zip_code": "04030"
    },
    {
        "name": "Guarumal",
        "zip_code": "04031"
    },
    {
        "name": "Palo Grande",
        "zip_code": "04032"
    },
    {
        "name": "Querevalo",
        "zip_code": "04033"
    },
    {
        "name": "Santo Tomas",
        "zip_code": "04034"
    },
    {
        "name": "Canta Gallo",
        "zip_code": "04035"
    },
    {
        "name": "Nuevo Mexico",
        "zip_code": "04036"
    },
    {
        "name": "Puerto Armuelles (Cabec)",
        "zip_code": "04011"
    },
    {
        "name": "Limones",
        "zip_code": "04012"
    },
    {
        "name": "Progreso",
        "zip_code": "04013"
    },
    {
        "name": "Baco",
        "zip_code": "04014"
    },
    {
        "name": "Rodolfo Aguilar",
        "zip_code": "04015"
    },
    {
        "name": "Boqueron (Cabec)",
        "zip_code": "04037"
    },
    {
        "name": "Bagala",
        "zip_code": "04038"
    },
    {
        "name": "Cordillera",
        "zip_code": "04039"
    },
    {
        "name": "Guabal",
        "zip_code": "04040"
    },
    {
        "name": "Guayabal",
        "zip_code": "04041"
    },
    {
        "name": "Paraiso",
        "zip_code": "04042"
    },
    {
        "name": "Pedregal",
        "zip_code": "04043"
    },
    {
        "name": "Tijeras",
        "zip_code": "04044"
    },
    {
        "name": "Bajo Boquete (Cabec)",
        "zip_code": "04053"
    },
    {
        "name": "Caldera",
        "zip_code": "04054"
    },
    {
        "name": "Palmira",
        "zip_code": "04055"
    },
    {
        "name": "Alto Boquete",
        "zip_code": "04056"
    },
    {
        "name": "Jaramillo",
        "zip_code": "04057"
    },
    {
        "name": "Los Naranjos",
        "zip_code": "04058"
    },
    {
        "name": "La Concepcion (Cabec)",
        "zip_code": "04016"
    },
    {
        "name": "Aserrio De Gariche",
        "zip_code": "04017"
    },
    {
        "name": "Bugaba",
        "zip_code": "04018"
    },
    {
        "name": "Cerro Punta",
        "zip_code": "04019"
    },
    {
        "name": "Gomez",
        "zip_code": "04020"
    },
    {
        "name": "La Estrella",
        "zip_code": "04021"
    },
    {
        "name": "San Andres",
        "zip_code": "04022"
    },
    {
        "name": "Santa Marta",
        "zip_code": "04023"
    },
    {
        "name": "Santa Rosa",
        "zip_code": "04024"
    },
    {
        "name": "Santo Domingo",
        "zip_code": "04025"
    },
    {
        "name": "Sortova",
        "zip_code": "04026"
    },
    {
        "name": "Volcan",
        "zip_code": "04027"
    },
    {
        "name": "El Bongo",
        "zip_code": "04028"
    },
    {
        "name": "David (Cabec)",
        "zip_code": "04001"
    },
    {
        "name": "Bijagual",
        "zip_code": "04002"
    },
    {
        "name": "Cochea",
        "zip_code": "04003"
    },
    {
        "name": "Chiriqui",
        "zip_code": "04004"
    },
    {
        "name": "Guaca",
        "zip_code": "04005"
    },
    {
        "name": "Las Lomas",
        "zip_code": "04006"
    },
    {
        "name": "Pedregal",
        "zip_code": "04007"
    },
    {
        "name": "San Carlos",
        "zip_code": "04008"
    },
    {
        "name": "San Pablo Nuevo",
        "zip_code": "04009"
    },
    {
        "name": "San Pablo Viejo",
        "zip_code": "04010"
    },
    {
        "name": "Dolega (Cabec)",
        "zip_code": "04059"
    },
    {
        "name": "Dos Rios",
        "zip_code": "04060"
    },
    {
        "name": "Los Anastacios",
        "zip_code": "04061"
    },
    {
        "name": "Potrerillos",
        "zip_code": "04062"
    },
    {
        "name": "Potrerillos Abajo",
        "zip_code": "04063"
    },
    {
        "name": "Rovira",
        "zip_code": "04064"
    },
    {
        "name": "Tinajas",
        "zip_code": "04065"
    },
    {
        "name": "Los Algarrobos",
        "zip_code": "04066"
    },
    {
        "name": "Gualaca (Cabec)",
        "zip_code": "04067"
    },
    {
        "name": "Hornito",
        "zip_code": "04068"
    },
    {
        "name": "Los Angeles",
        "zip_code": "04069"
    },
    {
        "name": "Paja De Sombrero",
        "zip_code": "04070"
    },
    {
        "name": "Rincon",
        "zip_code": "04071"
    },
    {
        "name": "Remedios (Cabec)",
        "zip_code": "04072"
    },
    {
        "name": "El Nancito",
        "zip_code": "04073"
    },
    {
        "name": "El Porvenir",
        "zip_code": "04074"
    },
    {
        "name": "El Puerto",
        "zip_code": "04075"
    },
    {
        "name": "Santa Lucia",
        "zip_code": "04076"
    },
    {
        "name": "Rio Sereno (Cabec)",
        "zip_code": "04045"
    },
    {
        "name": "Breðon",
        "zip_code": "04046"
    },
    {
        "name": "Caðas Gordas",
        "zip_code": "04047"
    },
    {
        "name": "Monte Lirio",
        "zip_code": "04048"
    },
    {
        "name": "Plaza De Caisan",
        "zip_code": "04049"
    },
    {
        "name": "Santa Cruz",
        "zip_code": "04050"
    },
    {
        "name": "Santa Clara",
        "zip_code": "04051"
    },
    {
        "name": "Dominical",
        "zip_code": "04052"
    },
    {
        "name": "Las Lajas (Cabec)",
        "zip_code": "04091"
    },
    {
        "name": "Juay",
        "zip_code": "04092"
    },
    {
        "name": "San Felix",
        "zip_code": "04093"
    },
    {
        "name": "Lajas Adentro",
        "zip_code": "04094"
    },
    {
        "name": "Santa Cruz",
        "zip_code": "04095"
    },
    {
        "name": "Horconcitos (Cabec)",
        "zip_code": "04077"
    },
    {
        "name": "Boca Chica",
        "zip_code": "04078"
    },
    {
        "name": "Boca Del Monte",
        "zip_code": "04079"
    },
    {
        "name": "San Juan",
        "zip_code": "04080"
    },
    {
        "name": "San Lorenzo",
        "zip_code": "04081"
    },
    {
        "name": "Tole(Cabec)",
        "zip_code": "04082"
    },
    {
        "name": "Cerro Viejo",
        "zip_code": "04083"
    },
    {
        "name": "Lasjas De Tole",
        "zip_code": "04084"
    },
    {
        "name": "Potrero De Caða",
        "zip_code": "04085"
    },
    {
        "name": "Quebrada De Piedra",
        "zip_code": "04086"
    },
    {
        "name": "Cbella Vista",
        "zip_code": "04087"
    },
    {
        "name": "El Cristo",
        "zip_code": "04088"
    },
    {
        "name": "Justo Fidel Palacios",
        "zip_code": "04089"
    },
    {
        "name": "Veladero",
        "zip_code": "04090"
    },
    {
        "name": "Aguadulce (Cabec)",
        "zip_code": "02038"
    },
    {
        "name": "El Cristo",
        "zip_code": "02039"
    },
    {
        "name": "El Roble",
        "zip_code": "02040"
    },
    {
        "name": "Pocri",
        "zip_code": "02041"
    },
    {
        "name": "Barrios Unidos",
        "zip_code": "02042"
    },
    {
        "name": "Anton (Cabec)",
        "zip_code": "02001"
    },
    {
        "name": "Cabuya",
        "zip_code": "02002"
    },
    {
        "name": "El Chiru",
        "zip_code": "02003"
    },
    {
        "name": "El Retiro",
        "zip_code": "02004"
    },
    {
        "name": "El Valle",
        "zip_code": "02005"
    },
    {
        "name": "Juan Diaz",
        "zip_code": "02006"
    },
    {
        "name": "Rio Hato",
        "zip_code": "02007"
    },
    {
        "name": "San Juan De Dios",
        "zip_code": "02008"
    },
    {
        "name": "Santa Rita",
        "zip_code": "02009"
    },
    {
        "name": "Caballero",
        "zip_code": "02010"
    },
    {
        "name": "El Valle",
        "zip_code": "02043"
    },
    {
        "name": "La Pintada (Cabec)",
        "zip_code": "02021"
    },
    {
        "name": "El Harino",
        "zip_code": "02022"
    },
    {
        "name": "El Potrero",
        "zip_code": "02023"
    },
    {
        "name": "Llano Grande",
        "zip_code": "02024"
    },
    {
        "name": "Piedras Gordas",
        "zip_code": "02025"
    },
    {
        "name": "Las Lomas",
        "zip_code": "02026"
    },
    {
        "name": "Nata (Cabec)",
        "zip_code": "02027"
    },
    {
        "name": "Capellania",
        "zip_code": "02028"
    },
    {
        "name": "El Caðo",
        "zip_code": "02029"
    },
    {
        "name": "Guzman",
        "zip_code": "02030"
    },
    {
        "name": "Las Huacas",
        "zip_code": "02031"
    },
    {
        "name": "Toza",
        "zip_code": "02032"
    },
    {
        "name": "Ola (Cabec)",
        "zip_code": "02033"
    },
    {
        "name": "El Cope",
        "zip_code": "02034"
    },
    {
        "name": "El Palmar",
        "zip_code": "02035"
    },
    {
        "name": "El Picacho",
        "zip_code": "02036"
    },
    {
        "name": "La Pava",
        "zip_code": "02037"
    },
    {
        "name": "Penonome (Cabec)",
        "zip_code": "02011"
    },
    {
        "name": "Caðaberal",
        "zip_code": "02012"
    },
    {
        "name": "Cocle",
        "zip_code": "02013"
    },
    {
        "name": "Chiriqui Arriba",
        "zip_code": "02014"
    },
    {
        "name": "El Coco",
        "zip_code": "02015"
    },
    {
        "name": "Pajonal",
        "zip_code": "02016"
    },
    {
        "name": "Rio Grande",
        "zip_code": "02017"
    },
    {
        "name": "Rio Indio",
        "zip_code": "02018"
    },
    {
        "name": "Toabre",
        "zip_code": "02019"
    },
    {
        "name": "Tulu",
        "zip_code": "02020"
    },
    {
        "name": "Barrio Norte",
        "zip_code": "03001"
    },
    {
        "name": "Barrio Sur",
        "zip_code": "03002"
    },
    {
        "name": "Buena Vista",
        "zip_code": "03003"
    },
    {
        "name": "Cativa",
        "zip_code": "03004"
    },
    {
        "name": "Ciricito",
        "zip_code": "03005"
    },
    {
        "name": "Cristobal",
        "zip_code": "03006"
    },
    {
        "name": "Escobal",
        "zip_code": "03007"
    },
    {
        "name": "Limon",
        "zip_code": "03008"
    },
    {
        "name": "Nueva Providencia",
        "zip_code": "03009"
    },
    {
        "name": "Puerto Pilon",
        "zip_code": "03010"
    },
    {
        "name": "Sabanitas",
        "zip_code": "03011"
    },
    {
        "name": "Salamanca",
        "zip_code": "03012"
    },
    {
        "name": "San Juan",
        "zip_code": "03013"
    },
    {
        "name": "Santa Rosa",
        "zip_code": "03014"
    },
    {
        "name": "Colon",
        "zip_code": "03041"
    },
    {
        "name": "Bahia La Mina",
        "zip_code": "03042"
    },
    {
        "name": "El Espinar",
        "zip_code": "03046"
    },
    {
        "name": "Manzanillo",
        "zip_code": "03047"
    },
    {
        "name": "Porto Belo",
        "zip_code": "03049"
    },
    {
        "name": "Zona Libre",
        "zip_code": "03050"
    },
    {
        "name": "Nuevo Chagres (Cabec)",
        "zip_code": "03015"
    },
    {
        "name": "Achiote",
        "zip_code": "03016"
    },
    {
        "name": "El Guabo",
        "zip_code": "03017"
    },
    {
        "name": "La Encantada",
        "zip_code": "03018"
    },
    {
        "name": "Palmas Bellas",
        "zip_code": "03019"
    },
    {
        "name": "Piða",
        "zip_code": "03020"
    },
    {
        "name": "Salud",
        "zip_code": "03021"
    },
    {
        "name": "Miguel De La Borda (Cabec)",
        "zip_code": "03022"
    },
    {
        "name": "Cocle Del Norte",
        "zip_code": "03023"
    },
    {
        "name": "El Guasimo",
        "zip_code": "03024"
    },
    {
        "name": "Gobea",
        "zip_code": "03025"
    },
    {
        "name": "Rio Indio",
        "zip_code": "03026"
    },
    {
        "name": "San Jose Del General",
        "zip_code": "03027"
    },
    {
        "name": "Portobelo (Cabec)",
        "zip_code": "03028"
    },
    {
        "name": "Cacique",
        "zip_code": "03029"
    },
    {
        "name": "Garrote",
        "zip_code": "03030"
    },
    {
        "name": "Isla Grande",
        "zip_code": "03031"
    },
    {
        "name": "Maria Chiquita",
        "zip_code": "03032"
    },
    {
        "name": "Palenque (Cabec)",
        "zip_code": "03033"
    },
    {
        "name": "Cuango",
        "zip_code": "03034"
    },
    {
        "name": "Miramar",
        "zip_code": "03035"
    },
    {
        "name": "Nombre De Dios",
        "zip_code": "03036"
    },
    {
        "name": "Palmira",
        "zip_code": "03037"
    },
    {
        "name": "Playa Chiquita",
        "zip_code": "03038"
    },
    {
        "name": "Santa Isabel",
        "zip_code": "03039"
    },
    {
        "name": "Viento Frio",
        "zip_code": "03040"
    },
    {
        "name": "Chitre (Cabec)",
        "zip_code": "05001"
    },
    {
        "name": "La Arena",
        "zip_code": "05002"
    },
    {
        "name": "Monagrillo",
        "zip_code": "05003"
    },
    {
        "name": "San Uan Bautista",
        "zip_code": "05004"
    },
    {
        "name": "Llano Bonito",
        "zip_code": "05005"
    },
    {
        "name": "Las Minas (Cabec)",
        "zip_code": "05030"
    },
    {
        "name": "Chepo",
        "zip_code": "05031"
    },
    {
        "name": "Chumical",
        "zip_code": "05032"
    },
    {
        "name": "El Toro",
        "zip_code": "05033"
    },
    {
        "name": "Leones",
        "zip_code": "05034"
    },
    {
        "name": "Quebrada Del Rosario",
        "zip_code": "05035"
    },
    {
        "name": "El Ciprian",
        "zip_code": "05036"
    },
    {
        "name": "Chepo",
        "zip_code": "05050"
    },
    {
        "name": "Los Pozos (Cabec)",
        "zip_code": "05006"
    },
    {
        "name": "Capuri",
        "zip_code": "05007"
    },
    {
        "name": "El Calabacito",
        "zip_code": "05008"
    },
    {
        "name": "El Cedro",
        "zip_code": "05009"
    },
    {
        "name": "La Arena",
        "zip_code": "05010"
    },
    {
        "name": "La Pitaloza",
        "zip_code": "05011"
    },
    {
        "name": "Los Cerritos",
        "zip_code": "05012"
    },
    {
        "name": "Los Cerros De Paja",
        "zip_code": "05013"
    },
    {
        "name": "Las Llanas",
        "zip_code": "05014"
    },
    {
        "name": "Ocu (Cabec)",
        "zip_code": "05037"
    },
    {
        "name": "Cerro Largo",
        "zip_code": "05038"
    },
    {
        "name": "Los Llanos",
        "zip_code": "05039"
    },
    {
        "name": "Llano Grande",
        "zip_code": "05040"
    },
    {
        "name": "Peðas Chatas",
        "zip_code": "05041"
    },
    {
        "name": "El Tijera",
        "zip_code": "05042"
    },
    {
        "name": "Menchaca",
        "zip_code": "05043"
    },
    {
        "name": "Parita (Cabec)",
        "zip_code": "05015"
    },
    {
        "name": "Cabuya",
        "zip_code": "05016"
    },
    {
        "name": "Los Castillos",
        "zip_code": "05017"
    },
    {
        "name": "Llana De La Cruz",
        "zip_code": "05018"
    },
    {
        "name": "Paris",
        "zip_code": "05019"
    },
    {
        "name": "Portobelillo",
        "zip_code": "05020"
    },
    {
        "name": "Potuga",
        "zip_code": "05021"
    },
    {
        "name": "Pese (Cabec)",
        "zip_code": "05022"
    },
    {
        "name": "Las Cabras",
        "zip_code": "05023"
    },
    {
        "name": "El Pajaro",
        "zip_code": "05024"
    },
    {
        "name": "El Barrero",
        "zip_code": "05025"
    },
    {
        "name": "El Pedregoso",
        "zip_code": "05026"
    },
    {
        "name": "El Ciruelo",
        "zip_code": "05027"
    },
    {
        "name": "Sabanagrande",
        "zip_code": "05028"
    },
    {
        "name": "Rincon Hondo",
        "zip_code": "05029"
    },
    {
        "name": "Santa Maria (Cabec)",
        "zip_code": "05044"
    },
    {
        "name": "Chupampa",
        "zip_code": "05045"
    },
    {
        "name": "El Rincon",
        "zip_code": "05046"
    },
    {
        "name": "El Limon",
        "zip_code": "05047"
    },
    {
        "name": "Los Canelos",
        "zip_code": "05048"
    },
    {
        "name": "Guarare",
        "zip_code": "06030"
    },
    {
        "name": "El Espinal",
        "zip_code": "06031"
    },
    {
        "name": "El Macano",
        "zip_code": "06032"
    },
    {
        "name": "Guarare Arriba",
        "zip_code": "06033"
    },
    {
        "name": "El Enea",
        "zip_code": "06034"
    },
    {
        "name": "La Pasera",
        "zip_code": "06035"
    },
    {
        "name": "Las Trancas",
        "zip_code": "06036"
    },
    {
        "name": "Llano Abajo",
        "zip_code": "06037"
    },
    {
        "name": "El Hato",
        "zip_code": "06038"
    },
    {
        "name": "Perales",
        "zip_code": "06039"
    },
    {
        "name": "Las Tablas (Cabec)",
        "zip_code": "06001"
    },
    {
        "name": "Bajo Corral",
        "zip_code": "06002"
    },
    {
        "name": "Bayano",
        "zip_code": "06003"
    },
    {
        "name": "Carate",
        "zip_code": "06004"
    },
    {
        "name": "El Cocal",
        "zip_code": "06005"
    },
    {
        "name": "El Manantial",
        "zip_code": "06006"
    },
    {
        "name": "El Muðoz",
        "zip_code": "06007"
    },
    {
        "name": "El Pedregoso",
        "zip_code": "06008"
    },
    {
        "name": "La Laja",
        "zip_code": "06009"
    },
    {
        "name": "La Miel",
        "zip_code": "06010"
    },
    {
        "name": "La Palma",
        "zip_code": "06011"
    },
    {
        "name": "La Tiza",
        "zip_code": "06012"
    },
    {
        "name": "Las Palmitas",
        "zip_code": "06013"
    },
    {
        "name": "Las Tablas Abajo",
        "zip_code": "06014"
    },
    {
        "name": "Nuario",
        "zip_code": "06015"
    },
    {
        "name": "Palmira",
        "zip_code": "06016"
    },
    {
        "name": "Peða Blanca",
        "zip_code": "06017"
    },
    {
        "name": "Rio Hondo",
        "zip_code": "06018"
    },
    {
        "name": "San Jose",
        "zip_code": "06019"
    },
    {
        "name": "San Miguel",
        "zip_code": "06020"
    },
    {
        "name": "Santo Domingo",
        "zip_code": "06021"
    },
    {
        "name": "El Sesteadero",
        "zip_code": "06022"
    },
    {
        "name": "Valle Rico",
        "zip_code": "06023"
    },
    {
        "name": "Vallerriquito",
        "zip_code": "06024"
    },
    {
        "name": "La Villa De Los Santos",
        "zip_code": "06040"
    },
    {
        "name": "El Guasimo",
        "zip_code": "06041"
    },
    {
        "name": "La Colorada",
        "zip_code": "06042"
    },
    {
        "name": "La Espigadilla",
        "zip_code": "06043"
    },
    {
        "name": "Las Cruces",
        "zip_code": "06044"
    },
    {
        "name": "Las Guabas",
        "zip_code": "06045"
    },
    {
        "name": "Los Angeles",
        "zip_code": "06046"
    },
    {
        "name": "Los Olivos",
        "zip_code": "06047"
    },
    {
        "name": "Llano Largo",
        "zip_code": "06048"
    },
    {
        "name": "Sabanagrande",
        "zip_code": "06049"
    },
    {
        "name": "Santa Ana",
        "zip_code": "06050"
    },
    {
        "name": "Tres Quebradas",
        "zip_code": "06051"
    },
    {
        "name": "Villa Lourdes",
        "zip_code": "06052"
    },
    {
        "name": "Agua Buena",
        "zip_code": "06053"
    },
    {
        "name": "Macaracas (Cabec)",
        "zip_code": "06054"
    },
    {
        "name": "Bahia Honda",
        "zip_code": "06055"
    },
    {
        "name": "Bajos De Guerra",
        "zip_code": "06056"
    },
    {
        "name": "Corozal",
        "zip_code": "06057"
    },
    {
        "name": "Chupa",
        "zip_code": "06058"
    },
    {
        "name": "El Cedro",
        "zip_code": "06059"
    },
    {
        "name": "Espino Amarillo",
        "zip_code": "06060"
    },
    {
        "name": "La Mesa",
        "zip_code": "06061"
    },
    {
        "name": "Las Palmas",
        "zip_code": "06062"
    },
    {
        "name": "Llano De Piedra",
        "zip_code": "06063"
    },
    {
        "name": "Mogollon",
        "zip_code": "06064"
    },
    {
        "name": "Pedasi (Cabec)",
        "zip_code": "06065"
    },
    {
        "name": "Los Asientos",
        "zip_code": "06066"
    },
    {
        "name": "Mariabe",
        "zip_code": "06067"
    },
    {
        "name": "Purio",
        "zip_code": "06068"
    },
    {
        "name": "Oria Arriba",
        "zip_code": "06069"
    },
    {
        "name": "Pocri (Cabec)",
        "zip_code": "06025"
    },
    {
        "name": "El Caðafistulo",
        "zip_code": "06026"
    },
    {
        "name": "Lajaminas",
        "zip_code": "06027"
    },
    {
        "name": "Paraiso",
        "zip_code": "06028"
    },
    {
        "name": "Paritilla",
        "zip_code": "06029"
    },
    {
        "name": "Tonosi (Cabec)",
        "zip_code": "06070"
    },
    {
        "name": "Altos De Guerra",
        "zip_code": "06071"
    },
    {
        "name": "Caðas",
        "zip_code": "06072"
    },
    {
        "name": "El Bebedero",
        "zip_code": "06073"
    },
    {
        "name": "El Cacao",
        "zip_code": "06074"
    },
    {
        "name": "El Cortezo",
        "zip_code": "06075"
    },
    {
        "name": "Flores",
        "zip_code": "06076"
    },
    {
        "name": "Guanico",
        "zip_code": "06077"
    },
    {
        "name": "La Tronosa",
        "zip_code": "06078"
    },
    {
        "name": "San Miguel /Cabec)",
        "zip_code": "07042"
    },
    {
        "name": "La Ensenada",
        "zip_code": "07043"
    },
    {
        "name": "La Esmeralda",
        "zip_code": "07044"
    },
    {
        "name": "La Guinea",
        "zip_code": "07045"
    },
    {
        "name": "Pedro Gonzalez",
        "zip_code": "07046"
    },
    {
        "name": "Saboga",
        "zip_code": "07047"
    },
    {
        "name": "Chepo (Cabec)",
        "zip_code": "07048"
    },
    {
        "name": "Carita",
        "zip_code": "07049"
    },
    {
        "name": "Chepillo",
        "zip_code": "07050"
    },
    {
        "name": "El Llano",
        "zip_code": "07051"
    },
    {
        "name": "Las Margaritas",
        "zip_code": "07052"
    },
    {
        "name": "Sta. Cruz De Chinina",
        "zip_code": "07053"
    },
    {
        "name": "Torti",
        "zip_code": "07054"
    },
    {
        "name": "Chiman (Cabec)",
        "zip_code": "07055"
    },
    {
        "name": "Brujas",
        "zip_code": "07056"
    },
    {
        "name": "Gonzalo Vasquez",
        "zip_code": "07057"
    },
    {
        "name": "Union Santeða",
        "zip_code": "07058"
    },
    {
        "name": "Pasiga",
        "zip_code": "07059"
    },
    {
        "name": "Madungandi",
        "zip_code": "07063"
    },
    {
        "name": "San Felipe",
        "zip_code": "07090"
    },
    {
        "name": "El Chorrillo",
        "zip_code": "07091"
    },
    {
        "name": "Santa Ana",
        "zip_code": "07092"
    },
    {
        "name": "Calidonia",
        "zip_code": "07093"
    },
    {
        "name": "Curundu",
        "zip_code": "07094"
    },
    {
        "name": "Betania",
        "zip_code": "07095"
    },
    {
        "name": "Bella Vista",
        "zip_code": "07096"
    },
    {
        "name": "Pueblo Nuevo",
        "zip_code": "07097"
    },
    {
        "name": "Ancon",
        "zip_code": "07098"
    },
    {
        "name": "San Fransisco",
        "zip_code": "07099"
    },
    {
        "name": "Rio Abajo",
        "zip_code": "07100"
    },
    {
        "name": "Juan Diaz",
        "zip_code": "07101"
    },
    {
        "name": "Pedregal",
        "zip_code": "07102"
    },
    {
        "name": "Chilibre",
        "zip_code": "07103"
    },
    {
        "name": "Las Cumbres",
        "zip_code": "07104"
    },
    {
        "name": "Pacora",
        "zip_code": "07105"
    },
    {
        "name": "San Martin",
        "zip_code": "07106"
    },
    {
        "name": "Tocumen",
        "zip_code": "07107"
    },
    {
        "name": "24 De Diciembre",
        "zip_code": "07109"
    },
    {
        "name": "Parque Lefevre",
        "zip_code": "07110"
    },
    {
        "name": "24 Diciembre",
        "zip_code": "07113"
    },
    {
        "name": "Aeropuerto De Tocumen",
        "zip_code": "07114"
    },
    {
        "name": "Alameda",
        "zip_code": "07115"
    },
    {
        "name": "Albrook",
        "zip_code": "07116"
    },
    {
        "name": "Alta Mira",
        "zip_code": "07117"
    },
    {
        "name": "Alto Del Chace",
        "zip_code": "07118"
    },
    {
        "name": "Altos De Curundu",
        "zip_code": "07119"
    },
    {
        "name": "Altos De Tocumen",
        "zip_code": "07120"
    },
    {
        "name": "Altos Del Crisol",
        "zip_code": "07121"
    },
    {
        "name": "Altos Del Hipodromo",
        "zip_code": "07122"
    },
    {
        "name": "Arcoiris",
        "zip_code": "07124"
    },
    {
        "name": "Arraijan",
        "zip_code": "07125"
    },
    {
        "name": "Ato Pintado Urbanización",
        "zip_code": "07126"
    },
    {
        "name": "Ave. Balboa",
        "zip_code": "07127"
    },
    {
        "name": "Belen",
        "zip_code": "07128"
    },
    {
        "name": "Bello Horizonte",
        "zip_code": "07129"
    },
    {
        "name": "Boca La Caja",
        "zip_code": "07131"
    },
    {
        "name": "Cabulla",
        "zip_code": "07132"
    },
    {
        "name": "Campo Alegre",
        "zip_code": "07134"
    },
    {
        "name": "Cardenas",
        "zip_code": "07135"
    },
    {
        "name": "Carrasquilla",
        "zip_code": "07136"
    },
    {
        "name": "Catedral",
        "zip_code": "07137"
    },
    {
        "name": "Cerro Batea",
        "zip_code": "07138"
    },
    {
        "name": "Cerro Viento",
        "zip_code": "07139"
    },
    {
        "name": "Chame",
        "zip_code": "07140"
    },
    {
        "name": "Chilibre",
        "zip_code": "07141"
    },
    {
        "name": "Chorrillo",
        "zip_code": "07142"
    },
    {
        "name": "Ciudad Radial",
        "zip_code": "07143"
    },
    {
        "name": "Clayton",
        "zip_code": "07144"
    },
    {
        "name": "Coco Solo",
        "zip_code": "07145"
    },
    {
        "name": "Cocoli",
        "zip_code": "07146"
    },
    {
        "name": "Colinas Del Golf",
        "zip_code": "07147"
    },
    {
        "name": "Concepcion",
        "zip_code": "07148"
    },
    {
        "name": "Coquira",
        "zip_code": "07149"
    },
    {
        "name": "Coronado",
        "zip_code": "07150"
    },
    {
        "name": "Cuatro Altos",
        "zip_code": "07151"
    },
    {
        "name": "Diablo",
        "zip_code": "07153"
    },
    {
        "name": "Don Bosco",
        "zip_code": "07154"
    },
    {
        "name": "El Bosque",
        "zip_code": "07155"
    },
    {
        "name": "El Cangrejo",
        "zip_code": "07156"
    },
    {
        "name": "El Carmen",
        "zip_code": "07157"
    },
    {
        "name": "El Ingenio",
        "zip_code": "07158"
    },
    {
        "name": "El Milagro",
        "zip_code": "07159"
    },
    {
        "name": "El Pantanal",
        "zip_code": "07160"
    },
    {
        "name": "Gatun",
        "zip_code": "07162"
    },
    {
        "name": "Gonzalillo",
        "zip_code": "07163"
    },
    {
        "name": "Jardin Olimpico",
        "zip_code": "07164"
    },
    {
        "name": "Jose De Espinar",
        "zip_code": "07165"
    },
    {
        "name": "La Boca",
        "zip_code": "07166"
    },
    {
        "name": "La Cresta",
        "zip_code": "07167"
    },
    {
        "name": "La Doña",
        "zip_code": "07168"
    },
    {
        "name": "La Pradera",
        "zip_code": "07169"
    },
    {
        "name": "Las Acacias",
        "zip_code": "07170"
    },
    {
        "name": "Las Mercedes",
        "zip_code": "07172"
    },
    {
        "name": "Llano Bonito",
        "zip_code": "07173"
    },
    {
        "name": "Los Andes",
        "zip_code": "07174"
    },
    {
        "name": "Los Caobos",
        "zip_code": "07175"
    },
    {
        "name": "Los Cerilla",
        "zip_code": "07176"
    },
    {
        "name": "Los Robles",
        "zip_code": "07177"
    },
    {
        "name": "Mano De Piedra",
        "zip_code": "07178"
    },
    {
        "name": "Marbella",
        "zip_code": "07179"
    },
    {
        "name": "Miraflores",
        "zip_code": "07181"
    },
    {
        "name": "Monte Oscuro",
        "zip_code": "07182"
    },
    {
        "name": "Monterrico",
        "zip_code": "07183"
    },
    {
        "name": "Nuevo San Juan",
        "zip_code": "07184"
    },
    {
        "name": "Obarrio",
        "zip_code": "07185"
    },
    {
        "name": "Pan De Azucar",
        "zip_code": "07187"
    },
    {
        "name": "Panama Viejo",
        "zip_code": "07188"
    },
    {
        "name": "Perejil",
        "zip_code": "07190"
    },
    {
        "name": "Punta Paitilla",
        "zip_code": "07192"
    },
    {
        "name": "Rio Abajo Ato Pintado",
        "zip_code": "07194"
    },
    {
        "name": "Rodman",
        "zip_code": "07195"
    },
    {
        "name": "San Francisco",
        "zip_code": "07196"
    },
    {
        "name": "San Isidro",
        "zip_code": "07197"
    },
    {
        "name": "Santa Librada",
        "zip_code": "07198"
    },
    {
        "name": "Santa Maria",
        "zip_code": "07199"
    },
    {
        "name": "Terminal",
        "zip_code": "07200"
    },
    {
        "name": "Torrijos-Carter",
        "zip_code": "07202"
    },
    {
        "name": "Urb. Dos Mares",
        "zip_code": "07203"
    },
    {
        "name": "Urbanizacion Nuevoreparto Chanis",
        "zip_code": "07204"
    },
    {
        "name": "Veranillo",
        "zip_code": "07205"
    },
    {
        "name": "Via España",
        "zip_code": "07206"
    },
    {
        "name": "Viejo Veranillo",
        "zip_code": "07207"
    },
    {
        "name": "Villa Caceres",
        "zip_code": "07208"
    },
    {
        "name": "Villa De La Fuente",
        "zip_code": "07209"
    },
    {
        "name": "Villa Saita",
        "zip_code": "07210"
    },
    {
        "name": "Villa Unida",
        "zip_code": "07211"
    },
    {
        "name": "Vista Hermosa",
        "zip_code": "07212"
    },
    {
        "name": "Amelia D. De Icaza",
        "zip_code": "07081"
    },
    {
        "name": "Belisario Porras",
        "zip_code": "07082"
    },
    {
        "name": "Jose D. Espinar",
        "zip_code": "07083"
    },
    {
        "name": "Mateo Iturralde",
        "zip_code": "07084"
    },
    {
        "name": "Victoriano Lorenzo",
        "zip_code": "07085"
    },
    {
        "name": "Arnulfo Arias",
        "zip_code": "07086"
    },
    {
        "name": "Belisario Frias",
        "zip_code": "07087"
    },
    {
        "name": "Omar Torrijos",
        "zip_code": "07088"
    },
    {
        "name": "Rufina Alfaro",
        "zip_code": "07089"
    },
    {
        "name": "El Bosque",
        "zip_code": "07213"
    },
    {
        "name": "Taboga",
        "zip_code": "07060"
    },
    {
        "name": "Otoque Occidente",
        "zip_code": "07061"
    },
    {
        "name": "Otoque Oriente",
        "zip_code": "07062"
    },
    {
        "name": "Arraijan (Cabec)",
        "zip_code": "07001"
    },
    {
        "name": "Juan D. Arosemena",
        "zip_code": "07002"
    },
    {
        "name": "Nuevo Emperador",
        "zip_code": "07003"
    },
    {
        "name": "Santa Clara",
        "zip_code": "07004"
    },
    {
        "name": "Veracruz",
        "zip_code": "07005"
    },
    {
        "name": "Vista Alegre",
        "zip_code": "07006"
    },
    {
        "name": "Burunga",
        "zip_code": "07007"
    },
    {
        "name": "Cerro Silvestre",
        "zip_code": "07008"
    },
    {
        "name": "Capira",
        "zip_code": "07009"
    },
    {
        "name": "Caimito",
        "zip_code": "07010"
    },
    {
        "name": "Campana",
        "zip_code": "07011"
    },
    {
        "name": "Cermeðo",
        "zip_code": "07012"
    },
    {
        "name": "Ciri De Los Sotos",
        "zip_code": "07013"
    },
    {
        "name": "Ciri Grande",
        "zip_code": "07014"
    },
    {
        "name": "El Cacao",
        "zip_code": "07015"
    },
    {
        "name": "La Trinidad",
        "zip_code": "07016"
    },
    {
        "name": "Las Ollas Arriba",
        "zip_code": "07017"
    },
    {
        "name": "Lidice",
        "zip_code": "07018"
    },
    {
        "name": "Viila Carmen",
        "zip_code": "07019"
    },
    {
        "name": "Villa Rosario",
        "zip_code": "07020"
    },
    {
        "name": "Santa Rosa",
        "zip_code": "07021"
    },
    {
        "name": "Chame (Cabec)",
        "zip_code": "07022"
    },
    {
        "name": "Bejuco",
        "zip_code": "07023"
    },
    {
        "name": "Cbuenos Aires",
        "zip_code": "07024"
    },
    {
        "name": "Cabuya",
        "zip_code": "07025"
    },
    {
        "name": "Chica",
        "zip_code": "07026"
    },
    {
        "name": "El Libano",
        "zip_code": "07027"
    },
    {
        "name": "Las Lajas",
        "zip_code": "07028"
    },
    {
        "name": "Nueva Gorgona",
        "zip_code": "07029"
    },
    {
        "name": "Punta Chame",
        "zip_code": "07030"
    },
    {
        "name": "Sajalices",
        "zip_code": "07031"
    },
    {
        "name": "Sora",
        "zip_code": "07032"
    },
    {
        "name": "San Carlos /Cabec)",
        "zip_code": "07033"
    },
    {
        "name": "El Espino",
        "zip_code": "07034"
    },
    {
        "name": "El Higo",
        "zip_code": "07035"
    },
    {
        "name": "Guayabito",
        "zip_code": "07036"
    },
    {
        "name": "La Ermita",
        "zip_code": "07037"
    },
    {
        "name": "La Laguna",
        "zip_code": "07038"
    },
    {
        "name": "Las Uvas",
        "zip_code": "07039"
    },
    {
        "name": "Los Llanitos",
        "zip_code": "07040"
    },
    {
        "name": "San Jose",
        "zip_code": "07041"
    },
    {
        "name": "Barrio Balboa",
        "zip_code": "07064"
    },
    {
        "name": "Barrio Colon",
        "zip_code": "07065"
    },
    {
        "name": "Amador",
        "zip_code": "07066"
    },
    {
        "name": "Arosemena",
        "zip_code": "07067"
    },
    {
        "name": "El Arado",
        "zip_code": "07068"
    },
    {
        "name": "El Coco",
        "zip_code": "07069"
    },
    {
        "name": "Feuillet",
        "zip_code": "07070"
    },
    {
        "name": "Guadalupe",
        "zip_code": "07071"
    },
    {
        "name": "Herrera",
        "zip_code": "07072"
    },
    {
        "name": "Hurtado",
        "zip_code": "07073"
    },
    {
        "name": "Iturralde",
        "zip_code": "07074"
    },
    {
        "name": "La Represa",
        "zip_code": "07075"
    },
    {
        "name": "Los Diaz",
        "zip_code": "07076"
    },
    {
        "name": "Mendoza",
        "zip_code": "07077"
    },
    {
        "name": "Obaldia",
        "zip_code": "07078"
    },
    {
        "name": "Playa Leonapuerto Caimito",
        "zip_code": "07079"
    },
    {
        "name": "Santa Rita",
        "zip_code": "07080"
    },
    {
        "name": "Vaca Monte",
        "zip_code": "07112"
    },
    {
        "name": "Mañanitas",
        "zip_code": "07215"
    },
    {
        "name": "Nueva California",
        "zip_code": "07216"
    },
    {
        "name": "Rana De Oro",
        "zip_code": "07217"
    },
    {
        "name": "Residencial La Castellana",
        "zip_code": "07218"
    },
    {
        "name": "San Cristobal",
        "zip_code": "07219"
    },
    {
        "name": "San Joaquin",
        "zip_code": "07220"
    },
    {
        "name": "San Pedro",
        "zip_code": "07221"
    },
    {
        "name": "San Sebastian",
        "zip_code": "07222"
    },
    {
        "name": "Santa Monica",
        "zip_code": "07223"
    },
    {
        "name": "Urb. Remon Cantera",
        "zip_code": "07224"
    },
    {
        "name": "Urbanizacion Balmoral",
        "zip_code": "07225"
    },
    {
        "name": "Urbanizacion Tere Mar",
        "zip_code": "07226"
    },
    {
        "name": "Villa Flor",
        "zip_code": "07227"
    },
    {
        "name": "Villa Lobos",
        "zip_code": "07228"
    },
    {
        "name": "Villa Lucre",
        "zip_code": "07229"
    },
    {
        "name": "Aligandi",
        "zip_code": "09001"
    },
    {
        "name": "Nargana",
        "zip_code": "09002"
    },
    {
        "name": "Puerto Obaldia",
        "zip_code": "09003"
    },
    {
        "name": "Tibuala",
        "zip_code": "09004"
    },
    {
        "name": "Atalaya (Cabec)",
        "zip_code": "08054"
    },
    {
        "name": "El Barrito",
        "zip_code": "08055"
    },
    {
        "name": "La Montaðuela",
        "zip_code": "08056"
    },
    {
        "name": "San Antonio",
        "zip_code": "08057"
    },
    {
        "name": "La Carrillo",
        "zip_code": "08058"
    },
    {
        "name": "Calobre (Cabec)",
        "zip_code": "08029"
    },
    {
        "name": "Barnizal",
        "zip_code": "08030"
    },
    {
        "name": "Chitra",
        "zip_code": "08031"
    },
    {
        "name": "El Cocla",
        "zip_code": "08032"
    },
    {
        "name": "El Potrero",
        "zip_code": "08033"
    },
    {
        "name": "La Laguna",
        "zip_code": "08034"
    },
    {
        "name": "La Raya De Calobre",
        "zip_code": "08035"
    },
    {
        "name": "La Tetilla",
        "zip_code": "08036"
    },
    {
        "name": "La Yeguada",
        "zip_code": "08037"
    },
    {
        "name": "Las Guias",
        "zip_code": "08038"
    },
    {
        "name": "Monjaras",
        "zip_code": "08039"
    },
    {
        "name": "San Jose",
        "zip_code": "08040"
    },
    {
        "name": "Caðazas (Cabec)",
        "zip_code": "08077"
    },
    {
        "name": "Cerro De Plata",
        "zip_code": "08078"
    },
    {
        "name": "Los Valles",
        "zip_code": "08079"
    },
    {
        "name": "San Marcelo",
        "zip_code": "08080"
    },
    {
        "name": "El Picador",
        "zip_code": "08081"
    },
    {
        "name": "San Jose",
        "zip_code": "08082"
    },
    {
        "name": "El Aromillo",
        "zip_code": "08083"
    },
    {
        "name": "La Mesa (Cabec)",
        "zip_code": "08013"
    },
    {
        "name": "Bisvalles",
        "zip_code": "08014"
    },
    {
        "name": "Boro",
        "zip_code": "08015"
    },
    {
        "name": "Llano Grande",
        "zip_code": "08016"
    },
    {
        "name": "San Bartolo",
        "zip_code": "08017"
    },
    {
        "name": "Los Milagros",
        "zip_code": "08018"
    },
    {
        "name": "Las Palmas (Cabec)",
        "zip_code": "08084"
    },
    {
        "name": "Cerro De Casa",
        "zip_code": "08085"
    },
    {
        "name": "Corozal",
        "zip_code": "08086"
    },
    {
        "name": "El Maria",
        "zip_code": "08087"
    },
    {
        "name": "El Prado",
        "zip_code": "08088"
    },
    {
        "name": "El Rincon",
        "zip_code": "08089"
    },
    {
        "name": "Lola",
        "zip_code": "08090"
    },
    {
        "name": "Pixvae",
        "zip_code": "08091"
    },
    {
        "name": "Puerto Vidal",
        "zip_code": "08092"
    },
    {
        "name": "Zapotillo",
        "zip_code": "08093"
    },
    {
        "name": "San Martin De Porres",
        "zip_code": "08094"
    },
    {
        "name": "Vigui",
        "zip_code": "08095"
    },
    {
        "name": "Montijo (Cabec)",
        "zip_code": "08059"
    },
    {
        "name": "Gobernadora",
        "zip_code": "08060"
    },
    {
        "name": "La Garcena",
        "zip_code": "08061"
    },
    {
        "name": "Leones",
        "zip_code": "08062"
    },
    {
        "name": "Pilon",
        "zip_code": "08063"
    },
    {
        "name": "Union Del Norte",
        "zip_code": "08064"
    },
    {
        "name": "Costa Hermosa",
        "zip_code": "08065"
    },
    {
        "name": "Cebaco",
        "zip_code": "08066"
    },
    {
        "name": "Rio De Jesus (Cabec)",
        "zip_code": "08067"
    },
    {
        "name": "Las Huacas",
        "zip_code": "08068"
    },
    {
        "name": "Los Castillos",
        "zip_code": "08069"
    },
    {
        "name": "Utira",
        "zip_code": "08070"
    },
    {
        "name": "Catorce De Noviembre",
        "zip_code": "08071"
    },
    {
        "name": "San Fransisco (Cabec)",
        "zip_code": "08041"
    },
    {
        "name": "Corra Falso",
        "zip_code": "08042"
    },
    {
        "name": "Los Hatillos",
        "zip_code": "08043"
    },
    {
        "name": "Remance",
        "zip_code": "08044"
    },
    {
        "name": "San Juan",
        "zip_code": "08045"
    },
    {
        "name": "San Jose",
        "zip_code": "08046"
    },
    {
        "name": "Santa Fe (Cabec)",
        "zip_code": "08047"
    },
    {
        "name": "Calovebora",
        "zip_code": "08048"
    },
    {
        "name": "El Alto",
        "zip_code": "08049"
    },
    {
        "name": "El Cuay",
        "zip_code": "08050"
    },
    {
        "name": "El Pantano",
        "zip_code": "08051"
    },
    {
        "name": "Gatuncito",
        "zip_code": "08052"
    },
    {
        "name": "Rio Luis",
        "zip_code": "08053"
    },
    {
        "name": "La Colorada",
        "zip_code": "08002"
    },
    {
        "name": "La Peða",
        "zip_code": "08003"
    },
    {
        "name": "La Raya Sta. Maria",
        "zip_code": "08004"
    },
    {
        "name": "Ponuga",
        "zip_code": "08005"
    },
    {
        "name": "San Pedro Del Espino",
        "zip_code": "08006"
    },
    {
        "name": "Canto Del Llano",
        "zip_code": "08007"
    },
    {
        "name": "Los Algarrobos",
        "zip_code": "08008"
    },
    {
        "name": "Carlos Santana",
        "zip_code": "08009"
    },
    {
        "name": "Edwin Fabrega",
        "zip_code": "08010"
    },
    {
        "name": "San Martin De Porres",
        "zip_code": "08011"
    },
    {
        "name": "Urraca",
        "zip_code": "08012"
    },
    {
        "name": "Sona (Cabec)",
        "zip_code": "08019"
    },
    {
        "name": "Bahia Honda",
        "zip_code": "08020"
    },
    {
        "name": "Calidonia",
        "zip_code": "08021"
    },
    {
        "name": "Cative",
        "zip_code": "08022"
    },
    {
        "name": "El Maraðon",
        "zip_code": "08023"
    },
    {
        "name": "Guarumal",
        "zip_code": "08024"
    },
    {
        "name": "La Soledad",
        "zip_code": "08025"
    },
    {
        "name": "Quebrada De Oro",
        "zip_code": "08026"
    },
    {
        "name": "Rio Grande",
        "zip_code": "08027"
    },
    {
        "name": "Rodeo Viejo",
        "zip_code": "08028"
    },
    {
        "name": "Llano De Cativa",
        "zip_code": "08072"
    },
    {
        "name": "Arena",
        "zip_code": "08073"
    },
    {
        "name": "Quebro",
        "zip_code": "08074"
    },
    {
        "name": "Tebario",
        "zip_code": "08075"
    },
    {
        "name": "El Cacao",
        "zip_code": "08076"
    },
    {
        "name": "Soloy",
        "zip_code": "10017"
    },
    {
        "name": "Boca De Balsa",
        "zip_code": "10018"
    },
    {
        "name": "Cerro Banco",
        "zip_code": "10019"
    },
    {
        "name": "Cerro De Patena",
        "zip_code": "10020"
    },
    {
        "name": "Camaron Arriba",
        "zip_code": "10021"
    },
    {
        "name": "Emplanada De Corcha",
        "zip_code": "10022"
    },
    {
        "name": "Namnoni",
        "zip_code": "10023"
    },
    {
        "name": "Niba",
        "zip_code": "10024"
    },
    {
        "name": "Hato Pilon",
        "zip_code": "10025"
    },
    {
        "name": "Cascabel",
        "zip_code": "10026"
    },
    {
        "name": "Hato Corotu",
        "zip_code": "10027"
    },
    {
        "name": "Hato Culantro",
        "zip_code": "10028"
    },
    {
        "name": "Hato Jobo",
        "zip_code": "10029"
    },
    {
        "name": "Hato Juli",
        "zip_code": "10030"
    },
    {
        "name": "Quebrada De Loro",
        "zip_code": "10031"
    },
    {
        "name": "Salto Dupi",
        "zip_code": "10032"
    },
    {
        "name": "Chichica",
        "zip_code": "10038"
    },
    {
        "name": "Alto Caballero",
        "zip_code": "10039"
    },
    {
        "name": "Bagama",
        "zip_code": "10040"
    },
    {
        "name": "Cerro Caða",
        "zip_code": "10041"
    },
    {
        "name": "Cerro Puerco",
        "zip_code": "10042"
    },
    {
        "name": "Krua",
        "zip_code": "10043"
    },
    {
        "name": "Maraca",
        "zip_code": "10044"
    },
    {
        "name": "Nibra",
        "zip_code": "10045"
    },
    {
        "name": "Peða Blanca",
        "zip_code": "10046"
    },
    {
        "name": "Roka",
        "zip_code": "10047"
    },
    {
        "name": "Sitio Prado",
        "zip_code": "10048"
    },
    {
        "name": "Umani",
        "zip_code": "10049"
    },
    {
        "name": "Cerro Iglesias",
        "zip_code": "10033"
    },
    {
        "name": "Lajero",
        "zip_code": "10034"
    },
    {
        "name": "Hato Chami",
        "zip_code": "10035"
    },
    {
        "name": "Susama",
        "zip_code": "10036"
    },
    {
        "name": "Jadeberi",
        "zip_code": "10037"
    },
    {
        "name": "Buenos Aires",
        "zip_code": "10050"
    },
    {
        "name": "Agua De Salud",
        "zip_code": "10051"
    },
    {
        "name": "Alto De Jesus",
        "zip_code": "10052"
    },
    {
        "name": "Cerro Pelado",
        "zip_code": "10053"
    },
    {
        "name": "El Bale",
        "zip_code": "10054"
    },
    {
        "name": "El Paredon",
        "zip_code": "10055"
    },
    {
        "name": "El Piro",
        "zip_code": "10056"
    },
    {
        "name": "Guayabito",
        "zip_code": "10057"
    },
    {
        "name": "Guibale",
        "zip_code": "10058"
    },
    {
        "name": "Bisisra",
        "zip_code": "10001"
    },
    {
        "name": "Buri",
        "zip_code": "10002"
    },
    {
        "name": "Kankitu",
        "zip_code": "10003"
    },
    {
        "name": "Guariviara",
        "zip_code": "10004"
    },
    {
        "name": "Guaroni",
        "zip_code": "10005"
    },
    {
        "name": "Mununi",
        "zip_code": "10006"
    },
    {
        "name": "Piedra Roja",
        "zip_code": "10007"
    },
    {
        "name": "Tuwai",
        "zip_code": "10008"
    },
    {
        "name": "Man Creek",
        "zip_code": "10009"
    },
    {
        "name": "Kusapin",
        "zip_code": "10010"
    },
    {
        "name": "Calovebora",
        "zip_code": "10011"
    },
    {
        "name": "Bahia Azul",
        "zip_code": "10012"
    },
    {
        "name": "Rio Chiriqui",
        "zip_code": "10013"
    },
    {
        "name": "Loma Yuca",
        "zip_code": "10014"
    },
    {
        "name": "Tobobe",
        "zip_code": "10015"
    },
    {
        "name": "Valle Bonito",
        "zip_code": "10016"
    },
    {
        "name": "Wargandi",
        "zip_code": "11001"
    },
    {
        "name": "La Palma (Cabec)",
        "zip_code": "12001"
    },
    {
        "name": "Camoganti",
        "zip_code": "12002"
    },
    {
        "name": "Chepigana",
        "zip_code": "12003"
    },
    {
        "name": "Garachine",
        "zip_code": "12004"
    },
    {
        "name": "Jaque",
        "zip_code": "12005"
    },
    {
        "name": "Puerto Piða",
        "zip_code": "12006"
    },
    {
        "name": "Rio Congo",
        "zip_code": "12007"
    },
    {
        "name": "Rio Iglesias",
        "zip_code": "12008"
    },
    {
        "name": "Sambu",
        "zip_code": "12009"
    },
    {
        "name": "Seteganti",
        "zip_code": "12010"
    },
    {
        "name": "Taimati",
        "zip_code": "12011"
    },
    {
        "name": "Tucuti",
        "zip_code": "12012"
    },
    {
        "name": "Agua Fria",
        "zip_code": "12013"
    },
    {
        "name": "Cucunati",
        "zip_code": "12014"
    },
    {
        "name": "Rio Congo Arriba",
        "zip_code": "12015"
    },
    {
        "name": "Santa Fe",
        "zip_code": "12016"
    },
    {
        "name": "Jingurudo",
        "zip_code": "12017"
    },
    {
        "name": "Rio Sabalo",
        "zip_code": "12018"
    },
    {
        "name": "El Real S. M. (Cabec)",
        "zip_code": "12019"
    },
    {
        "name": "Boca De Chupe",
        "zip_code": "12020"
    },
    {
        "name": "Paya",
        "zip_code": "12021"
    },
    {
        "name": "Pinogana",
        "zip_code": "12022"
    },
    {
        "name": "Pucuro",
        "zip_code": "12023"
    },
    {
        "name": "Yape",
        "zip_code": "12024"
    },
    {
        "name": "Yaviza",
        "zip_code": "12025"
    },
    {
        "name": "Meteti",
        "zip_code": "12026"
    },
    {
        "name": "Cirilo Guaynora",
        "zip_code": "12027"
    },
    {
        "name": "Lajas Blancas",
        "zip_code": "12028"
    },
    {
        "name": "Manuel Ortega",
        "zip_code": "12029"
    }
]