[
    {
        "name": "Saint-Denis",
        "zip_code": "97400"
    },
    {
        "name": "Saint-Pierre",
        "zip_code": "97410"
    },
    {
        "name": "Saint-Paul",
        "zip_code": "97411"
    },
    {
        "name": "Bras-Panon",
        "zip_code": "97412"
    },
    {
        "name": "Cilaos",
        "zip_code": "97413"
    },
    {
        "name": "L'Entre-Deux",
        "zip_code": "97414"
    },
    {
        "name": "Saint-Leu",
        "zip_code": "97416"
    },
    {
        "name": "Saint-Denis",
        "zip_code": "97417"
    },
    {
        "name": "Le Tampon",
        "zip_code": "97418"
    },
    {
        "name": "La Possession",
        "zip_code": "97419"
    },
    {
        "name": "Le Port",
        "zip_code": "97420"
    },
    {
        "name": "La Rivière",
        "zip_code": "97421"
    },
    {
        "name": "Saint-Louis",
        "zip_code": "97421"
    },
    {
        "name": "Saint-Paul",
        "zip_code": "97422"
    },
    {
        "name": "Saint-Paul",
        "zip_code": "97423"
    },
    {
        "name": "Saint-Leu",
        "zip_code": "97424"
    },
    {
        "name": "Les Avirons",
        "zip_code": "97425"
    },
    {
        "name": "Trois-Bassins",
        "zip_code": "97426"
    },
    {
        "name": "L'Étang-Salé",
        "zip_code": "97427"
    },
    {
        "name": "Petite-Île",
        "zip_code": "97429"
    },
    {
        "name": "Le Tampon",
        "zip_code": "97430"
    },
    {
        "name": "La Plaine-des-Palmistes",
        "zip_code": "97431"
    },
    {
        "name": "Saint-Pierre",
        "zip_code": "97432"
    },
    {
        "name": "Salazie",
        "zip_code": "97433"
    },
    {
        "name": "Saint-Paul",
        "zip_code": "97434"
    },
    {
        "name": "Saint-Paul",
        "zip_code": "97435"
    },
    {
        "name": "Saint-Leu",
        "zip_code": "97436"
    },
    {
        "name": "Saint-Benoît",
        "zip_code": "97437"
    },
    {
        "name": "Sainte-Marie",
        "zip_code": "97438"
    },
    {
        "name": "Sainte-Rose",
        "zip_code": "97439"
    },
    {
        "name": "Saint-André",
        "zip_code": "97440"
    },
    {
        "name": "Sainte-Suzanne",
        "zip_code": "97441"
    },
    {
        "name": "Saint-Philippe",
        "zip_code": "97442"
    },
    {
        "name": "Saint-Louis",
        "zip_code": "97450"
    },
    {
        "name": "Saint-Paul",
        "zip_code": "97460"
    },
    {
        "name": "Saint-Benoît",
        "zip_code": "97470"
    },
    {
        "name": "Saint-Joseph",
        "zip_code": "97480"
    },
    {
        "name": "Saint-Denis",
        "zip_code": "97490"
    }
]